[
  {
    "name": "ARRON WYMAN DBA NEWT'S",
    "city": "ABBOT",
    "zip": "04406"
  },
  {
    "name": "HERRICK EXCAVATION INC",
    "city": "ABBOT",
    "zip": "04406"
  },
  {
    "name": "MOOSEHEAD LAKE FURNITURE &",
    "city": "ABBOT",
    "zip": "04406"
  },
  {
    "name": "RIVERVIEW RESIDENTIAL",
    "city": "ADDISON",
    "zip": "04606"
  },
  {
    "name": "YORK COUNTY GOVERNMENT",
    "city": "ALFRED",
    "zip": "04002"
  },
  {
    "name": "YORK COUNTY SHELTER",
    "city": "ALFRED",
    "zip": "04002"
  },
  {
    "name": "A M SMART CONSTRUCTION",
    "city": "ALTON",
    "zip": "04468"
  },
  {
    "name": "P H E R LLC",
    "city": "ALTON",
    "zip": "04468"
  },
  {
    "name": "TOWN OF ANSON",
    "city": "ANSON",
    "zip": "04911"
  },
  {
    "name": "BRANCH BROOK FUELS",
    "city": "ARUNDEL",
    "zip": "04046"
  },
  {
    "name": "CHAMPION AUTO BODY",
    "city": "ARUNDEL",
    "zip": "04046"
  },
  {
    "name": "COASTAL KIDS OCCUPATIONAL",
    "city": "ARUNDEL",
    "zip": "04046"
  },
  {
    "name": "YORK COUNTY REFERRAL LLC",
    "city": "ARUNDEL",
    "zip": "04046"
  },
  {
    "name": "NORTHEAST PELLETS LLC",
    "city": "ASHLAND",
    "zip": "04732"
  },
  {
    "name": "TOWN OF ASHLAND",
    "city": "ASHLAND",
    "zip": "04732"
  },
  {
    "name": "LINKLETTER & SONS INC",
    "city": "ATHENS",
    "zip": "04912"
  },
  {
    "name": "LINKLETTER TRUCKING INC",
    "city": "ATHENS",
    "zip": "04912"
  },
  {
    "name": "MAINE WOOD PELLETT CO",
    "city": "ATHENS",
    "zip": "04912"
  },
  {
    "name": "A & L LABS",
    "city": "AUBURN",
    "zip": "04210"
  },
  {
    "name": "BEAL PLUMBING AND HEATING",
    "city": "AUBURN",
    "zip": "04210"
  },
  {
    "name": "C L H & SON INC",
    "city": "AUBURN",
    "zip": "04210"
  },
  {
    "name": "C W HAYDEN",
    "city": "AUBURN",
    "zip": "04210"
  },
  {
    "name": "CAMERON TIRE & SERVICES",
    "city": "AUBURN",
    "zip": "04210"
  },
  {
    "name": "CITY OF AUBURN",
    "city": "AUBURN",
    "zip": "04210"
  },
  {
    "name": "DUBE TRAVEL",
    "city": "AUBURN",
    "zip": "04210"
  },
  {
    "name": "EMERSON CHEVROLET BUICK",
    "city": "AUBURN",
    "zip": "04210"
  },
  {
    "name": "GREELEY'S GARAGE INC",
    "city": "AUBURN",
    "zip": "04210"
  },
  {
    "name": "HARTFORD'S FORKLIFT",
    "city": "AUBURN",
    "zip": "04210"
  },
  {
    "name": "IMPACT PAINTERS",
    "city": "AUBURN",
    "zip": "04210"
  },
  {
    "name": "JR SQUARED DBA FULL HOUSE",
    "city": "AUBURN",
    "zip": "04210"
  },
  {
    "name": "KP S PLACE",
    "city": "AUBURN",
    "zip": "04210"
  },
  {
    "name": "LOST VALLEY MANAGEMENT LLC",
    "city": "AUBURN",
    "zip": "04210"
  },
  {
    "name": "LYDIA MEDIA LLC",
    "city": "AUBURN",
    "zip": "04210"
  },
  {
    "name": "M & P AUTO PARTS",
    "city": "AUBURN",
    "zip": "04210"
  },
  {
    "name": "MAINSUSA CORP",
    "city": "AUBURN",
    "zip": "04210"
  },
  {
    "name": "METAL SPECIALTIES COMPANY",
    "city": "AUBURN",
    "zip": "04210"
  },
  {
    "name": "PATS PIZZA",
    "city": "AUBURN",
    "zip": "04210"
  },
  {
    "name": "PAYROLL MANAGEMENT INC",
    "city": "AUBURN",
    "zip": "04211"
  },
  {
    "name": "PERSONAL ONSITE",
    "city": "AUBURN",
    "zip": "04210"
  },
  {
    "name": "PRIME360 PERFORMANCE AND",
    "city": "AUBURN",
    "zip": "04210"
  },
  {
    "name": "PRO TECH REFRIGERATION",
    "city": "AUBURN",
    "zip": "04210"
  },
  {
    "name": "PRO VISION CENTER INC",
    "city": "AUBURN",
    "zip": "04210"
  },
  {
    "name": "ROY I SNOW INC",
    "city": "AUBURN",
    "zip": "04212"
  },
  {
    "name": "SELCO PLUMBING AND HEATING",
    "city": "AUBURN",
    "zip": "04210"
  },
  {
    "name": "STATION CLASS CONSTRUCTORS",
    "city": "AUBURN",
    "zip": "04210"
  },
  {
    "name": "THE CHAPMAN HOUSE",
    "city": "AUBURN",
    "zip": "04210"
  },
  {
    "name": "TRI STATE STEEL",
    "city": "AUBURN",
    "zip": "04210"
  },
  {
    "name": "WD MATTHEWS MACHINERY CO",
    "city": "AUBURN",
    "zip": "04210"
  },
  {
    "name": "WESTERN MAINE",
    "city": "AUBURN",
    "zip": "04210"
  },
  {
    "name": "WILLIS OF NORTHERN NEW ENGLAND INC",
    "city": "AUBURN",
    "zip": "04212"
  },
  {
    "name": "YVES LAPOINTE DRYWALL INC",
    "city": "AUBURN",
    "zip": "04210"
  },
  {
    "name": "ALLENS TRANSFER AND",
    "city": "AUGUSTA",
    "zip": "04330"
  },
  {
    "name": "AUGUSTA DENTAL",
    "city": "AUGUSTA",
    "zip": "04330"
  },
  {
    "name": "AUGUSTA NATURAL GAS",
    "city": "AUGUSTA",
    "zip": "04330"
  },
  {
    "name": "AMERICAN EAGLE OUTFITTERS",
    "city": "AUGUSTA",
    "zip": "04330"
  },
  {
    "name": "BED BATH & BEYOND",
    "city": "AUGUSTA",
    "zip": "04330"
  },
  {
    "name": "CITY OF AUGUSTA",
    "city": "AUGUSTA",
    "zip": "04330"
  },
  {
    "name": "COMPANION ANIMAL CLINIC",
    "city": "AUGUSTA",
    "zip": "04330"
  },
  {
    "name": "DISABILITY RIGHTS CENTER",
    "city": "AUGUSTA",
    "zip": "04330"
  },
  {
    "name": "FAME",
    "city": "AUGUSTA",
    "zip": "04330"
  },
  {
    "name": "FIORI",
    "city": "AUGUSTA",
    "zip": "04330"
  },
  {
    "name": "GALLANT THERAPY SERVICES",
    "city": "AUGUSTA",
    "zip": "04330"
  },
  {
    "name": "GHS",
    "city": "AUGUSTA",
    "zip": "04332"
  },
  {
    "name": "GOOD SHEPHERD LEARNING",
    "city": "AUGUSTA",
    "zip": "04330"
  },
  {
    "name": "GREATER AUGUSTA UTILITY",
    "city": "AUGUSTA",
    "zip": "04330"
  },
  {
    "name": "J. HANSON COMPANY INC DBA",
    "city": "AUGUSTA",
    "zip": "04330"
  },
  {
    "name": "KDT TOWING AND REPAIR",
    "city": "AUGUSTA",
    "zip": "04330"
  },
  {
    "name": "KENNEBEC SAVINGS BANK",
    "city": "AUGUSTA",
    "zip": "04330"
  },
  {
    "name": "LAJOIE BROTHERS",
    "city": "AUGUSTA",
    "zip": "04330"
  },
  {
    "name": "LIGHT OF LIFE MINISTRIES",
    "city": "AUGUSTA",
    "zip": "04330"
  },
  {
    "name": "LIGHTHOUSE PEDIATRIC",
    "city": "AUGUSTA",
    "zip": "04330"
  },
  {
    "name": "MAINE MOTOR TRANSPORT ASSO",
    "city": "AUGUSTA",
    "zip": "04330"
  },
  {
    "name": "MAINE MUNICIPAL BOND BANK",
    "city": "AUGUSTA",
    "zip": "04330"
  },
  {
    "name": "MAINE STATE EMPLOYEES",
    "city": "AUGUSTA",
    "zip": "04330"
  },
  {
    "name": "MAINE STATE GRANGE",
    "city": "AUGUSTA",
    "zip": "04330"
  },
  {
    "name": "MAINE VIRTUAL ACADEMY",
    "city": "AUGUSTA",
    "zip": "04330"
  },
  {
    "name": "MAINE VOCATIONAL & REHAB",
    "city": "AUGUSTA",
    "zip": "04330"
  },
  {
    "name": "MILLSY'S CLEANING SERVICES",
    "city": "AUGUSTA",
    "zip": "04330"
  },
  {
    "name": "ROGERS",
    "city": "AUGUSTA",
    "zip": "04330"
  },
  {
    "name": "STIMAN STEEL",
    "city": "AUGUSTA",
    "zip": "04330"
  },
  {
    "name": "STATE OF MAINE",
    "city": "AUGUSTA",
    "zip": "04330"
  },
  {
    "name": "T AND K HOLDINGS LLC",
    "city": "AUGUSTA",
    "zip": "04330"
  },
  {
    "name": "THE TURF DOCTOR",
    "city": "AUGUSTA",
    "zip": "04330"
  },
  {
    "name": "TRACTOR SUPPLY CO",
    "city": "AUGUSTA",
    "zip": "04330"
  },
  {
    "name": "WHOLISTIC HOME CARE OF",
    "city": "AUGUSTA",
    "zip": "04338"
  },
  {
    "name": "ALEXANDER SCHOOL DEPT",
    "city": "BAILEYVILLE",
    "zip": "04694"
  },
  {
    "name": "ALTERNATIVE ORGANIZATIONAL",
    "city": "BAILEYVILLE",
    "zip": "04694"
  },
  {
    "name": "AOS 90 CENTRAL OFFICE",
    "city": "BAILEYVILLE",
    "zip": "04694"
  },
  {
    "name": "HICKORY LANE CHARMS",
    "city": "BAILEYVILLE",
    "zip": "04694"
  },
  {
    "name": "MOONLIGHT BUILDERS",
    "city": "BAILEYVILLE",
    "zip": "04694"
  },
  {
    "name": "ST CROIX CHIPPING LLC",
    "city": "BAILEYVILLE",
    "zip": "04694"
  },
  {
    "name": "TOWN OF BAILEYVILLE",
    "city": "BAILEYVILLE",
    "zip": "04694"
  },
  {
    "name": "TOWNS AUTO BODY",
    "city": "BAILEYVILLE",
    "zip": "04694"
  },
  {
    "name": "V L TAMMARO",
    "city": "BAILEYVILLE",
    "zip": "04694"
  },
  {
    "name": "WCEMSA",
    "city": "BAILEYVILLE",
    "zip": "04694"
  },
  {
    "name": "WHISPERING PINES SEASONAL",
    "city": "BAILEYVILLE",
    "zip": "04694"
  },
  {
    "name": "WOODLAND PULP LLC",
    "city": "BAILEYVILLE",
    "zip": "04694"
  },
  {
    "name": "AC MOORE",
    "city": "BANGOR",
    "zip": "04401"
  },
  {
    "name": "ACADIA FOOT & ANKLE",
    "city": "BANGOR",
    "zip": "04401"
  },
  {
    "name": "ADDISON PACKING CO",
    "city": "BANGOR",
    "zip": "04402"
  },
  {
    "name": "AMES ASSOCIATES LLC",
    "city": "BANGOR",
    "zip": "04401"
  },
  {
    "name": "AMOS ABBOTT COMPANY",
    "city": "BANGOR",
    "zip": "04402"
  },
  {
    "name": "AUTO PAINT SUPPLY INC",
    "city": "BANGOR",
    "zip": "04401"
  },
  {
    "name": "BAGEL CENTRAL",
    "city": "BANGOR",
    "zip": "04401"
  },
  {
    "name": "BAGLEY AND BRAGDON PA",
    "city": "BANGOR",
    "zip": "04401"
  },
  {
    "name": "BANGOR BRACES",
    "city": "BANGOR",
    "zip": "04401"
  },
  {
    "name": "BANGOR MILLWORK AND SUPPLY",
    "city": "BANGOR",
    "zip": "04401"
  },
  {
    "name": "BANGOR MOTOR SPORTS",
    "city": "BANGOR",
    "zip": "04401"
  },
  {
    "name": "BANGOR NEON",
    "city": "BANGOR",
    "zip": "04401"
  },
  {
    "name": "BANGOR PAINT & WALLPAPER",
    "city": "BANGOR",
    "zip": "04401"
  },
  {
    "name": "BANGOR PLASTIC AND HAND",
    "city": "BANGOR",
    "zip": "04401"
  },
  {
    "name": "BANGOR PUBLIC LIBRARY",
    "city": "BANGOR",
    "zip": "04401"
  },
  {
    "name": "BANGOR REGION YMCA",
    "city": "BANGOR",
    "zip": "04401"
  },
  {
    "name": "BANGOR SAVINGS BANK",
    "city": "BANGOR",
    "zip": "04401"
  },
  {
    "name": "BANGOR SCHOOL DEPARTMENT",
    "city": "BANGOR",
    "zip": "04401"
  },
  {
    "name": "BANGOR TIRE COMPANY INC",
    "city": "BANGOR",
    "zip": "04402"
  },
  {
    "name": "BANGOR TRACTOR AND",
    "city": "BANGOR",
    "zip": "04401"
  },
  {
    "name": "BANGOR TRUCK EQUIPMENT",
    "city": "BANGOR",
    "zip": "04401"
  },
  {
    "name": "BANGOR WATER DISTRICT",
    "city": "BANGOR",
    "zip": "04401"
  },
  {
    "name": "BEAL EDUCATION LLC DBA",
    "city": "BANGOR",
    "zip": "04401"
  },
  {
    "name": "BEAL UNIVERSITY",
    "city": "BANGOR",
    "zip": "04401"
  },
  {
    "name": "BIBC PC",
    "city": "BANGOR",
    "zip": "04401"
  },
  {
    "name": "BIRDS AND BONES TATTOO",
    "city": "BANGOR",
    "zip": "04401"
  },
  {
    "name": "BP ENTERPRISES",
    "city": "BANGOR",
    "zip": "04401"
  },
  {
    "name": "BROOKINGS DENTAL",
    "city": "BANGOR",
    "zip": "04401"
  },
  {
    "name": "BRUNSWICK SCHOOL DISTRICT",
    "city": "BANGOR",
    "zip": "04402"
  },
  {
    "name": "BUZZELL INC DBA THE",
    "city": "BANGOR",
    "zip": "04401"
  },
  {
    "name": "BANGOR WINLECTRIC CO.",
    "city": "BANGOR",
    "zip": "04401"
  },
  {
    "name": "C & L AVIATION SERVICES",
    "city": "BANGOR",
    "zip": "04401"
  },
  {
    "name": "C A STROUT & SONS",
    "city": "BANGOR",
    "zip": "04401"
  },
  {
    "name": "CDS",
    "city": "BANGOR",
    "zip": "04401"
  },
  {
    "name": "CENTURY 21 (QUEEN CITY)",
    "city": "BANGOR",
    "zip": "04401"
  },
  {
    "name": "CHCS",
    "city": "BANGOR",
    "zip": "04401"
  },
  {
    "name": "CHRISTOPHER A RUMSEY DO PA",
    "city": "BANGOR",
    "zip": "04401"
  },
  {
    "name": "CITY OF BANGOR",
    "city": "BANGOR",
    "zip": "04401"
  },
  {
    "name": "CMC & MAINTENANCE INC",
    "city": "BANGOR",
    "zip": "04401"
  },
  {
    "name": "CMJ CONSTRUCTION INC",
    "city": "BANGOR",
    "zip": "04401"
  },
  {
    "name": "COIN INC DBA UNION STREET",
    "city": "BANGOR",
    "zip": "04401"
  },
  {
    "name": "COLDBROOK TRAILERS AND",
    "city": "BANGOR",
    "zip": "04401"
  },
  {
    "name": "COLOR ME BEAUTIFUL",
    "city": "BANGOR",
    "zip": "04401"
  },
  {
    "name": "COOPS LLC",
    "city": "BANGOR",
    "zip": "04401"
  },
  {
    "name": "COPIA SPECIALTY CONTRACTOR",
    "city": "BANGOR",
    "zip": "04401"
  },
  {
    "name": "CORNERSTONE BEHAVIORAL",
    "city": "BANGOR",
    "zip": "04401"
  },
  {
    "name": "CORTELL-SEGAL COMPANY",
    "city": "BANGOR",
    "zip": "04401"
  },
  {
    "name": "COUNTY OF PENOBSCOT",
    "city": "BANGOR",
    "zip": "04401"
  },
  {
    "name": "CREATIVE OPTIONS LLC",
    "city": "BANGOR",
    "zip": "04401"
  },
  {
    "name": "CREATIVE PRINT SERVICES",
    "city": "BANGOR",
    "zip": "04401"
  },
  {
    "name": "DANFORTH NURSING HOMES",
    "city": "BANGOR",
    "zip": "04402"
  },
  {
    "name": "DAVIS OIL",
    "city": "BANGOR",
    "zip": "04401"
  },
  {
    "name": "DAWN LEVASSEUR LCPC INC",
    "city": "BANGOR",
    "zip": "04401"
  },
  {
    "name": "DETAILS BY ERIEL",
    "city": "BANGOR",
    "zip": "04401"
  },
  {
    "name": "DIESEL FUEL SYSTEMS INC",
    "city": "BANGOR",
    "zip": "04401"
  },
  {
    "name": "DIVERSIFIED INK",
    "city": "BANGOR",
    "zip": "04401"
  },
  {
    "name": "DOWNEAST ORAL SURGERY",
    "city": "BANGOR",
    "zip": "04401"
  },
  {
    "name": "DUNNETT APPLIANCE",
    "city": "BANGOR",
    "zip": "04401"
  },
  {
    "name": "EASTERN MAINE COUNSELING",
    "city": "BANGOR",
    "zip": "04401"
  },
  {
    "name": "EASTERN ME EYE ASSOCIATES",
    "city": "BANGOR",
    "zip": "04401"
  },
  {
    "name": "EXPERT FLOORING INC",
    "city": "BANGOR",
    "zip": "04401"
  },
  {
    "name": "FAMILY ENTERPRISES",
    "city": "BANGOR",
    "zip": "04401"
  },
  {
    "name": "FOUR POINTS SHERATON",
    "city": "BANGOR",
    "zip": "04401"
  },
  {
    "name": "FURNITURE MATTRESSES AND",
    "city": "BANGOR",
    "zip": "04401"
  },
  {
    "name": "GENERAL CONTRACTOR VAUGHN",
    "city": "BANGOR",
    "zip": "04401"
  },
  {
    "name": "GOLDS GYM",
    "city": "BANGOR",
    "zip": "04401"
  },
  {
    "name": "HAMPDEN ELECTRICAL",
    "city": "BANGOR",
    "zip": "04401"
  },
  {
    "name": "HARVEST MOON DELI",
    "city": "BANGOR",
    "zip": "04401"
  },
  {
    "name": "HCR CHROME SHOP",
    "city": "BANGOR",
    "zip": "04401"
  },
  {
    "name": "HEADLINES LLC",
    "city": "BANGOR",
    "zip": "04401"
  },
  {
    "name": "HENRY'S BRIDAL BOUQUET",
    "city": "BANGOR",
    "zip": "04401"
  },
  {
    "name": "HERMAN SCHOOL DEPARTMENT",
    "city": "BANGOR",
    "zip": "04402"
  },
  {
    "name": "HOLDEN DENTAL CENTER PA",
    "city": "BANGOR",
    "zip": "04401"
  },
  {
    "name": "JB HAIR FASHIONS",
    "city": "BANGOR",
    "zip": "04401"
  },
  {
    "name": "JD RAYMOND TRANSPORT INC",
    "city": "BANGOR",
    "zip": "04401"
  },
  {
    "name": "JELD-WEN WINDOWS & DOORS",
    "city": "BANGOR",
    "zip": "04401"
  },
  {
    "name": "JIMAR CONSTRUCTION PRODUCT",
    "city": "BANGOR",
    "zip": "04401"
  },
  {
    "name": "JOHN BAPST MEMORIAL HIGH",
    "city": "BANGOR",
    "zip": "04401"
  },
  {
    "name": "JOSEPH M BALDACCI",
    "city": "BANGOR",
    "zip": "04401"
  },
  {
    "name": "KARA KITCHIN LCSW",
    "city": "BANGOR",
    "zip": "04401"
  },
  {
    "name": "KATAHDIN PEDIATRIC",
    "city": "BANGOR",
    "zip": "04401"
  },
  {
    "name": "KNOTTY CRAFT IDEAS",
    "city": "BANGOR",
    "zip": "04401"
  },
  {
    "name": "LIFE FLIGHT AVIATION",
    "city": "BANGOR",
    "zip": "04401"
  },
  {
    "name": "LIGHTHOUSE RADIO NETWORK",
    "city": "BANGOR",
    "zip": "04401"
  },
  {
    "name": "LIMITLESS INC",
    "city": "BANGOR",
    "zip": "04401"
  },
  {
    "name": "LINCOLN PULP & PAPER",
    "city": "BANGOR",
    "zip": "04402"
  },
  {
    "name": "LOISELLE GOODWIN & HINDS",
    "city": "BANGOR",
    "zip": "04401"
  },
  {
    "name": "LYNCH LOGISTICS",
    "city": "BANGOR",
    "zip": "04401"
  },
  {
    "name": "LYNCO INC",
    "city": "BANGOR",
    "zip": "04401"
  },
  {
    "name": "M S A D #34",
    "city": "BANGOR",
    "zip": "04402"
  },
  {
    "name": "MADAWASKA SCHOOL DEPT",
    "city": "BANGOR",
    "zip": "04402"
  },
  {
    "name": "MAINE DISTRIBUTORS INC",
    "city": "BANGOR",
    "zip": "04401"
  },
  {
    "name": "MAINE FUNERAL HOME INC",
    "city": "BANGOR",
    "zip": "04401"
  },
  {
    "name": "MAINE TEST BORINGS",
    "city": "BANGOR",
    "zip": "04401"
  },
  {
    "name": "MDC CLEANING LLC",
    "city": "BANGOR",
    "zip": "04401"
  },
  {
    "name": "MERCHANTS NATL BANK",
    "city": "BANGOR",
    "zip": "04401"
  },
  {
    "name": "MERIT OIL CO",
    "city": "BANGOR",
    "zip": "04402"
  },
  {
    "name": "MIGUELS",
    "city": "BANGOR",
    "zip": "04401"
  },
  {
    "name": "MILLER DRUG",
    "city": "BANGOR",
    "zip": "04401"
  },
  {
    "name": "MR QUICK'S",
    "city": "BANGOR",
    "zip": "04401"
  },
  {
    "name": "MACY'S",
    "city": "BANGOR",
    "zip": "04401"
  },
  {
    "name": "NDC COMMUNICATIONS",
    "city": "BANGOR",
    "zip": "04402"
  },
  {
    "name": "NORTHEAST",
    "city": "BANGOR",
    "zip": "04402"
  },
  {
    "name": "NORTHEAST BENEFIT",
    "city": "BANGOR",
    "zip": "04401"
  },
  {
    "name": "NORTHEAST PAIN MANAGEMENT",
    "city": "BANGOR",
    "zip": "04401"
  },
  {
    "name": "ORIENTAL JADE",
    "city": "BANGOR",
    "zip": "04401"
  },
  {
    "name": "PAMPERED & POLISHED",
    "city": "BANGOR",
    "zip": "04401"
  },
  {
    "name": "PARKSIDE CHILDREN'S",
    "city": "BANGOR",
    "zip": "04401"
  },
  {
    "name": "PENOBSCOT CHRISTIAN SCHOOL",
    "city": "BANGOR",
    "zip": "04401"
  },
  {
    "name": "PENQUIS CAP",
    "city": "BANGOR",
    "zip": "04401"
  },
  {
    "name": "PLISGA & DAY",
    "city": "BANGOR",
    "zip": "04401"
  },
  {
    "name": "PRAYS AUTO SALES & SERVICE",
    "city": "BANGOR",
    "zip": "04401"
  },
  {
    "name": "QUALITY JEWELERS",
    "city": "BANGOR",
    "zip": "04401"
  },
  {
    "name": "QUEEN CITY INN LLC",
    "city": "BANGOR",
    "zip": "04401"
  },
  {
    "name": "QUIRK SUBARU",
    "city": "BANGOR",
    "zip": "04401"
  },
  {
    "name": "REARDONS AUTOMOTIVE AND",
    "city": "BANGOR",
    "zip": "04401"
  },
  {
    "name": "RENEWAL BY ANDERSEN",
    "city": "BANGOR",
    "zip": "04401"
  },
  {
    "name": "RIVER CITY COMMERCIAL",
    "city": "BANGOR",
    "zip": "04401"
  },
  {
    "name": "ROOF SYSTEMS OF MAINE A",
    "city": "BANGOR",
    "zip": "04401"
  },
  {
    "name": "S & L MANAGEMENT",
    "city": "BANGOR",
    "zip": "04401"
  },
  {
    "name": "SEWALL",
    "city": "BANGOR",
    "zip": "04401"
  },
  {
    "name": "SIERRA COMMUNICATIONS LLC",
    "city": "BANGOR",
    "zip": "04401"
  },
  {
    "name": "SNOW & NEELEY",
    "city": "BANGOR",
    "zip": "04402"
  },
  {
    "name": "STILLWATER DENTAL",
    "city": "BANGOR",
    "zip": "04401"
  },
  {
    "name": "SULLIVAN FORD SALES",
    "city": "BANGOR",
    "zip": "04401"
  },
  {
    "name": "TB EQUIPMENT & RENTAL",
    "city": "BANGOR",
    "zip": "04401"
  },
  {
    "name": "TENSEGRITY HEALTH AND",
    "city": "BANGOR",
    "zip": "04401"
  },
  {
    "name": "THE COTTON CUPBOARD QUILT",
    "city": "BANGOR",
    "zip": "04401"
  },
  {
    "name": "THE EARLY LEARNING CENTER",
    "city": "BANGOR",
    "zip": "04401"
  },
  {
    "name": "THE FITCH COMPANY",
    "city": "BANGOR",
    "zip": "04401"
  },
  {
    "name": "THE LAUNDRY BASKET",
    "city": "BANGOR",
    "zip": "04401"
  },
  {
    "name": "THE PHILLIPS STRICKLAND",
    "city": "BANGOR",
    "zip": "04401"
  },
  {
    "name": "THE UPS STORE 3296",
    "city": "BANGOR",
    "zip": "04401"
  },
  {
    "name": "TIMKA INC",
    "city": "BANGOR",
    "zip": "04401"
  },
  {
    "name": "TISSUE PLUS LLC",
    "city": "BANGOR",
    "zip": "04401"
  },
  {
    "name": "TOMORROW REAL ESTATE INC",
    "city": "BANGOR",
    "zip": "04401"
  },
  {
    "name": "TOTAL TAX LLC",
    "city": "BANGOR",
    "zip": "04401"
  },
  {
    "name": "TOWN OF BRUNSWICK",
    "city": "BANGOR",
    "zip": "04402"
  },
  {
    "name": "THE LANE CONSTRUCTION CORPORATION",
    "city": "BANGOR",
    "zip": "04402"
  },
  {
    "name": "U CAN INC",
    "city": "BANGOR",
    "zip": "04401"
  },
  {
    "name": "UNITED TECHNOLOGIES CENTER",
    "city": "BANGOR",
    "zip": "04401"
  },
  {
    "name": "UNITED WAY OF EASTERN",
    "city": "BANGOR",
    "zip": "04401"
  },
  {
    "name": "VAN SYCKLE LINCOLN MERCURY",
    "city": "BANGOR",
    "zip": "04401"
  },
  {
    "name": "VARNEY INC",
    "city": "BANGOR",
    "zip": "04401"
  },
  {
    "name": "WABANAKI HEALTH AND",
    "city": "BANGOR",
    "zip": "04401"
  },
  {
    "name": "WATCH ME SHINE",
    "city": "BANGOR",
    "zip": "04401"
  },
  {
    "name": "WBRC",
    "city": "BANGOR",
    "zip": "04401"
  },
  {
    "name": "WEBB'S R V CENTER",
    "city": "BANGOR",
    "zip": "04401"
  },
  {
    "name": "WELLSPRING INC",
    "city": "BANGOR",
    "zip": "04401"
  },
  {
    "name": "WHITED FORD TRUCK CENTER",
    "city": "BANGOR",
    "zip": "04401"
  },
  {
    "name": "WINGS FOR CHILDREN AND FAM",
    "city": "BANGOR",
    "zip": "04401"
  },
  {
    "name": "WVII-TV",
    "city": "BANGOR",
    "zip": "04401"
  },
  {
    "name": "M S D A #1",
    "city": "BANGOR MAINE",
    "zip": "04401"
  },
  {
    "name": "BAYSIDE LIQUORS",
    "city": "BAR HARBOR",
    "zip": "04609"
  },
  {
    "name": "BOWDEN MARINE SERVICE",
    "city": "BAR HARBOR",
    "zip": "04609"
  },
  {
    "name": "COFFEE HOUND COFFEE",
    "city": "BAR HARBOR",
    "zip": "04609"
  },
  {
    "name": "FIORE LLC DBA FIORE",
    "city": "BAR HARBOR",
    "zip": "04609"
  },
  {
    "name": "HARBOR REST HOME",
    "city": "BAR HARBOR",
    "zip": "04609"
  },
  {
    "name": "MDI REGIONAL SCHOOL SYSTEM",
    "city": "BAR HARBOR",
    "zip": "04609"
  },
  {
    "name": "THE JACKSON LABORATORY",
    "city": "BAR HARBOR",
    "zip": "04609"
  },
  {
    "name": "TOWN OF BAR HARBOR",
    "city": "BAR HARBOR",
    "zip": "04609"
  },
  {
    "name": "WITHAM PROPERTIES",
    "city": "BAR HARBOR",
    "zip": "04609"
  },
  {
    "name": "YWCA MOUNT DESERT ISLAND",
    "city": "BAR HARBOR",
    "zip": "04609"
  },
  {
    "name": "MC EACHERN & HUTCHINS INC",
    "city": "BASS HARBOR",
    "zip": "04653"
  },
  {
    "name": "BERTS OIL SERVICE INC",
    "city": "BATH",
    "zip": "04530"
  },
  {
    "name": "BRACKETT'S MARKET INC",
    "city": "BATH",
    "zip": "04530"
  },
  {
    "name": "BYRNES IRISH PUB",
    "city": "BATH",
    "zip": "04530"
  },
  {
    "name": "CITY OF BATH",
    "city": "BATH",
    "zip": "04530"
  },
  {
    "name": "COUNTY OF SAGADAHOC",
    "city": "BATH",
    "zip": "04530"
  },
  {
    "name": "DAVID MATERO",
    "city": "BATH",
    "zip": "04530"
  },
  {
    "name": "FIRST FEDERAL SAVINGS",
    "city": "BATH",
    "zip": "04530"
  },
  {
    "name": "GAGNE FOODS LLC",
    "city": "BATH",
    "zip": "04530"
  },
  {
    "name": "HILLHOUSE ASSISTED LIVING",
    "city": "BATH",
    "zip": "04530"
  },
  {
    "name": "HYDE SCHOOL",
    "city": "BATH",
    "zip": "04530"
  },
  {
    "name": "IAMAW IUMSWA LOCAL S6",
    "city": "BATH",
    "zip": "04530"
  },
  {
    "name": "IAMAW LOCAL 7",
    "city": "BATH",
    "zip": "04530"
  },
  {
    "name": "INDEPENDENT GUARDS ASSOC",
    "city": "BATH",
    "zip": "04530"
  },
  {
    "name": "MAIL IT 4 U",
    "city": "BATH",
    "zip": "04530"
  },
  {
    "name": "MIDCOAST MAINE COMMUNITY",
    "city": "BATH",
    "zip": "04530"
  },
  {
    "name": "THE CABIN",
    "city": "BATH",
    "zip": "04530"
  },
  {
    "name": "MAINE HIGHLANDS",
    "city": "BEAVER COVE",
    "zip": "04441"
  },
  {
    "name": "BELFAST COOP",
    "city": "BELFAST",
    "zip": "04915"
  },
  {
    "name": "BELFAST SOUP KITCHEN",
    "city": "BELFAST",
    "zip": "04915"
  },
  {
    "name": "CITY OF BELFAST",
    "city": "BELFAST",
    "zip": "04915"
  },
  {
    "name": "COLBURN SHOE LLC",
    "city": "BELFAST",
    "zip": "04915"
  },
  {
    "name": "CORNERSPRING MONTESSORI",
    "city": "BELFAST",
    "zip": "04915"
  },
  {
    "name": "DAVID AND ELDREDGE ENT",
    "city": "BELFAST",
    "zip": "04915"
  },
  {
    "name": "DOWNEAST LOBSTER MENS ASSN",
    "city": "BELFAST",
    "zip": "04915"
  },
  {
    "name": "MAC ELECTRIC",
    "city": "BELFAST",
    "zip": "04915"
  },
  {
    "name": "MID COAST VISION CARE",
    "city": "BELFAST",
    "zip": "04915"
  },
  {
    "name": "NEW TAMPA EYE INSTITUTE",
    "city": "BELFAST",
    "zip": "04915"
  },
  {
    "name": "RIP TIDE SMOKE SHOP LLC",
    "city": "BELFAST",
    "zip": "04915"
  },
  {
    "name": "GAGNE & SON",
    "city": "BELGRADE",
    "zip": "04917"
  },
  {
    "name": "HAMMOND LUMBER COMPANY",
    "city": "BELGRADE",
    "zip": "04917"
  },
  {
    "name": "JUMPIN' JAX DAY CARE",
    "city": "BELGRADE",
    "zip": "04917"
  },
  {
    "name": "BELGRADE LAKES GOLF LLC",
    "city": "BELGRADE LAKES",
    "zip": "04918"
  },
  {
    "name": "G&L CONTRACTING",
    "city": "BELGRADE LAKES",
    "zip": "04918"
  },
  {
    "name": "B & B PRECISE PRODUCTS INC",
    "city": "BENTON",
    "zip": "04901"
  },
  {
    "name": "DOSTIES TOWING",
    "city": "BENTON",
    "zip": "04901"
  },
  {
    "name": "NITRAM",
    "city": "BENTON",
    "zip": "04901"
  },
  {
    "name": "QUIET SIDE CAMPGROUND",
    "city": "BERNARD",
    "zip": "04612"
  },
  {
    "name": "BIG HOSPITALITY CO DBA",
    "city": "BERWICK",
    "zip": "03901"
  },
  {
    "name": "JOSEPH SARACINA DBA",
    "city": "BERWICK",
    "zip": "03901"
  },
  {
    "name": "MICK BODYWORKS AND TRUCK",
    "city": "BERWICK",
    "zip": "03901"
  },
  {
    "name": "SHOEM CORP",
    "city": "BERWICK",
    "zip": "03901"
  },
  {
    "name": "TOWN OF BERWICK",
    "city": "BERWICK",
    "zip": "03901"
  },
  {
    "name": "D A WILSON & CO",
    "city": "BETHEL",
    "zip": "04217"
  },
  {
    "name": "GOULD ACADEMY",
    "city": "BETHEL",
    "zip": "04217"
  },
  {
    "name": "MAINE SCHOOL",
    "city": "BETHEL",
    "zip": "04217"
  },
  {
    "name": "TOWN OF BETHEL",
    "city": "BETHEL",
    "zip": "04217"
  },
  {
    "name": "WESTERN MAINE SUPPLY",
    "city": "BETHEL",
    "zip": "04217"
  },
  {
    "name": "ATLANTIC COMFORT",
    "city": "BIDDEFORD",
    "zip": "04005"
  },
  {
    "name": "B DRY",
    "city": "BIDDEFORD",
    "zip": "04005"
  },
  {
    "name": "BIDDEFORD SACO OLD ORCHARD",
    "city": "BIDDEFORD",
    "zip": "04005"
  },
  {
    "name": "BRADY SCREEN PRINTING",
    "city": "BIDDEFORD",
    "zip": "04005"
  },
  {
    "name": "CITY OF BIDDEFORD",
    "city": "BIDDEFORD",
    "zip": "04005"
  },
  {
    "name": "COMPASSIONATE HOME CARE BY",
    "city": "BIDDEFORD",
    "zip": "04005"
  },
  {
    "name": "CRI-SIL DIVISION",
    "city": "BIDDEFORD",
    "zip": "04005"
  },
  {
    "name": "COASTAL WINAIR CO.",
    "city": "BIDDEFORD",
    "zip": "04005"
  },
  {
    "name": "HALEYS METAL SHOP INC",
    "city": "BIDDEFORD",
    "zip": "04005"
  },
  {
    "name": "HOLMES AREA CO.",
    "city": "BIDDEFORD",
    "zip": "04005"
  },
  {
    "name": "NEIL'S MOTORS INC",
    "city": "BIDDEFORD",
    "zip": "04005"
  },
  {
    "name": "PAULS VARIETY",
    "city": "BIDDEFORD",
    "zip": "04005"
  },
  {
    "name": "PINETREE RENTAL INC DBA",
    "city": "BIDDEFORD",
    "zip": "04005"
  },
  {
    "name": "PRECISION SCREW MACHINE",
    "city": "BIDDEFORD",
    "zip": "04005"
  },
  {
    "name": "ROUSSEAU INSURANCE AGENCY",
    "city": "BIDDEFORD",
    "zip": "04005"
  },
  {
    "name": "RICOH AMERICAS CORP",
    "city": "BIDDEFORD",
    "zip": "04005"
  },
  {
    "name": "SOLERAS ADVANCED COATINGS",
    "city": "BIDDEFORD",
    "zip": "04005"
  },
  {
    "name": "TEXTILE WORKERS UNION OF",
    "city": "BIDDEFORD",
    "zip": "04005"
  },
  {
    "name": "201 POWERSPORTS",
    "city": "BINGHAM",
    "zip": "04920"
  },
  {
    "name": "SCHOOL ADMINISTRATION",
    "city": "BINGHAM",
    "zip": "04920"
  },
  {
    "name": "CENTRAL AROOSTOOK COUNTY",
    "city": "BLAINE",
    "zip": "04734"
  },
  {
    "name": "DONNA'S HOUSEKEEPING",
    "city": "BLAINE",
    "zip": "04734"
  },
  {
    "name": "SCOVIL APARTMENTS",
    "city": "BLAINE",
    "zip": "04734"
  },
  {
    "name": "SCOVIL BLDG SUPPLY INC",
    "city": "BLAINE",
    "zip": "04734"
  },
  {
    "name": "BLUE HILL ACCOUNTING",
    "city": "BLUE HILL",
    "zip": "04614"
  },
  {
    "name": "BLUE HILL COOP",
    "city": "BLUE HILL",
    "zip": "04614"
  },
  {
    "name": "BLUE HILL GARAGE INC",
    "city": "BLUE HILL",
    "zip": "04614"
  },
  {
    "name": "CAS SERVICES INC DBA HOME",
    "city": "BLUE HILL",
    "zip": "04614"
  },
  {
    "name": "HEWES AND COMPANY",
    "city": "BLUE HILL",
    "zip": "04614"
  },
  {
    "name": "MERRILL AND HINCKLEY",
    "city": "BLUE HILL",
    "zip": "04614"
  },
  {
    "name": "BOOTHBAY REGION AMBULANCE",
    "city": "BOOTHBAY",
    "zip": "04537"
  },
  {
    "name": "E M WOOD CONSTRUCTION INC",
    "city": "BOOTHBAY",
    "zip": "04537"
  },
  {
    "name": "ABOVE AND BEYOND",
    "city": "BOOTHBAY HARBOR",
    "zip": "04538"
  },
  {
    "name": "ATLANTIC EDGE LOBSTER",
    "city": "BOOTHBAY HARBOR",
    "zip": "04538"
  },
  {
    "name": "B&B COMMUNICATIONS INC",
    "city": "BOOTHBAY HARBOR",
    "zip": "04538"
  },
  {
    "name": "BOOTH BAY BH CSD",
    "city": "BOOTHBAY HARBOR",
    "zip": "04538"
  },
  {
    "name": "BRADYS",
    "city": "BOOTHBAY HARBOR",
    "zip": "04538"
  },
  {
    "name": "COASTAL CAR WASH",
    "city": "BOOTHBAY HARBOR",
    "zip": "04538"
  },
  {
    "name": "HAWKE MOTORS INC",
    "city": "BOOTHBAY HARBOR",
    "zip": "04538"
  },
  {
    "name": "HANNAFORD SUPERMARKET & PHRMCY",
    "city": "BOOTHBAY HARBOR",
    "zip": "04538"
  },
  {
    "name": "COASTAL MAINTENANCE INC",
    "city": "BOOTHBAY HBR",
    "zip": "04538"
  },
  {
    "name": "MOLD BROS",
    "city": "BOWDOIN",
    "zip": "04287"
  },
  {
    "name": "COBB'S REPAIR SERVICES",
    "city": "BOWDOINHAM",
    "zip": "04008"
  },
  {
    "name": "TOP TECH AUTO REPAIR",
    "city": "BOWDOINHAM",
    "zip": "04008"
  },
  {
    "name": "CEDAR RUN FARM",
    "city": "BRADFORD",
    "zip": "04410"
  },
  {
    "name": "MORIN FUEL",
    "city": "BRADLEY",
    "zip": "04411"
  },
  {
    "name": "A AND M HOME CARE",
    "city": "BREWER",
    "zip": "04412"
  },
  {
    "name": "ART'S SERVICE CENTER",
    "city": "BREWER",
    "zip": "04412"
  },
  {
    "name": "BBSC CPAS",
    "city": "BREWER",
    "zip": "04412"
  },
  {
    "name": "BOMBSHELL BEAUTY",
    "city": "BREWER",
    "zip": "04412"
  },
  {
    "name": "BOX OF MAINE",
    "city": "BREWER",
    "zip": "04412"
  },
  {
    "name": "BRADSTREET LAWN AND GARDEN",
    "city": "BREWER",
    "zip": "04412"
  },
  {
    "name": "BANGOR WINSUPPLY CO.",
    "city": "BREWER",
    "zip": "04412"
  },
  {
    "name": "C AND C HOMES",
    "city": "BREWER",
    "zip": "04412"
  },
  {
    "name": "CITY OF BREWER",
    "city": "BREWER",
    "zip": "04412"
  },
  {
    "name": "COMPOTECH INC",
    "city": "BREWER",
    "zip": "04412"
  },
  {
    "name": "DARLING AGENCY LLC",
    "city": "BREWER",
    "zip": "04412"
  },
  {
    "name": "DUFF & ASSOCIATES",
    "city": "BREWER",
    "zip": "04412"
  },
  {
    "name": "EAGLE SECURITY SYSTEMS",
    "city": "BREWER",
    "zip": "04412"
  },
  {
    "name": "EMERYS MEAT AND PRODUCE",
    "city": "BREWER",
    "zip": "04412"
  },
  {
    "name": "FREEDOM EXPRESS",
    "city": "BREWER",
    "zip": "04412"
  },
  {
    "name": "GENERATIONS BOUTIQUE & ART",
    "city": "BREWER",
    "zip": "04412"
  },
  {
    "name": "GIFFORDS ELECTRIC LLC",
    "city": "BREWER",
    "zip": "04412"
  },
  {
    "name": "GINA A PAUL MITCHELL SALON",
    "city": "BREWER",
    "zip": "04412"
  },
  {
    "name": "GREEN POINT AUTO",
    "city": "BREWER",
    "zip": "04412"
  },
  {
    "name": "HARDY CONSTRUCTION INC",
    "city": "BREWER",
    "zip": "04412"
  },
  {
    "name": "HEATHER LECLAIR DBA EDEN",
    "city": "BREWER",
    "zip": "04412"
  },
  {
    "name": "HIGHER GROUND SERVICES LLC",
    "city": "BREWER",
    "zip": "04412"
  },
  {
    "name": "HUTCH & CO BES",
    "city": "BREWER",
    "zip": "04412"
  },
  {
    "name": "INDEFATIGABLE LLC DBA",
    "city": "BREWER",
    "zip": "04412"
  },
  {
    "name": "KELLY ENTERPRISES AND",
    "city": "BREWER",
    "zip": "04412"
  },
  {
    "name": "LINDSCO EQUIPMENT CO",
    "city": "BREWER",
    "zip": "04412"
  },
  {
    "name": "MF DREAM LLC",
    "city": "BREWER",
    "zip": "04412"
  },
  {
    "name": "NICKERSON AND ODAY",
    "city": "BREWER",
    "zip": "04412"
  },
  {
    "name": "NORTH AMERICAN SERVICE GROUP",
    "city": "BREWER",
    "zip": "04412"
  },
  {
    "name": "NORTH AMERICAN SERVICES",
    "city": "BREWER",
    "zip": "04412"
  },
  {
    "name": "NORTHEAST DENTAL PARTNERS",
    "city": "BREWER",
    "zip": "04412"
  },
  {
    "name": "OAK GROVE SPRING WATER",
    "city": "BREWER",
    "zip": "04412"
  },
  {
    "name": "PENOBSCOT EYE CARE",
    "city": "BREWER",
    "zip": "04412"
  },
  {
    "name": "PERFECT COATES HOLISTIC",
    "city": "BREWER",
    "zip": "04412"
  },
  {
    "name": "RMB&G INC",
    "city": "BREWER",
    "zip": "04412"
  },
  {
    "name": "ROCK LOBSTER",
    "city": "BREWER",
    "zip": "04412"
  },
  {
    "name": "S & S LAWN CARE",
    "city": "BREWER",
    "zip": "04412"
  },
  {
    "name": "SALON BONIFACIO",
    "city": "BREWER",
    "zip": "04412"
  },
  {
    "name": "STERLING FINANCIAL SERVICE",
    "city": "BREWER",
    "zip": "04412"
  },
  {
    "name": "THE HOUSING AUTHORITY OF",
    "city": "BREWER",
    "zip": "04412"
  },
  {
    "name": "THE PURPLE IRIS FOUNDATION",
    "city": "BREWER",
    "zip": "04412"
  },
  {
    "name": "TWIN CITY FAMILY MEDICINE",
    "city": "BREWER",
    "zip": "04412"
  },
  {
    "name": "UNITED STEELWORKERS LOCAL",
    "city": "BREWER",
    "zip": "04412"
  },
  {
    "name": "VACATIONLAND INN",
    "city": "BREWER",
    "zip": "04412"
  },
  {
    "name": "VOYAGER NETWORK OF NEW",
    "city": "BREWER",
    "zip": "04412"
  },
  {
    "name": "W S EMERSON CO INC",
    "city": "BREWER",
    "zip": "04412"
  },
  {
    "name": "W T RAND TRUCKING",
    "city": "BREWER",
    "zip": "04412"
  },
  {
    "name": "WIN WHOLESALE",
    "city": "BREWER",
    "zip": "04412"
  },
  {
    "name": "CROOKED RIVER COUNSELING",
    "city": "BRIDGTON",
    "zip": "04009"
  },
  {
    "name": "DMM CORP DBA THE BLACK",
    "city": "BRIDGTON",
    "zip": "04009"
  },
  {
    "name": "GAGNON HEATING AND AIR",
    "city": "BRIDGTON",
    "zip": "04009"
  },
  {
    "name": "HAYES TRUE VALUE",
    "city": "BRIDGTON",
    "zip": "04009"
  },
  {
    "name": "HANNAFORD SUPERMARKETS",
    "city": "BRIDGTON",
    "zip": "04009"
  },
  {
    "name": "MAIN ECO HOMES LLC",
    "city": "BRIDGTON",
    "zip": "04009"
  },
  {
    "name": "NAHGA CLAIM SERVICES",
    "city": "BRIDGTON",
    "zip": "04009"
  },
  {
    "name": "ROLFE CORPORATION",
    "city": "BRIDGTON",
    "zip": "04009"
  },
  {
    "name": "CREEKSIDE DENTAL PC",
    "city": "BRISTOL",
    "zip": "04539"
  },
  {
    "name": "ATLANTIC BOAT COMPANY",
    "city": "BROOKLIN",
    "zip": "04616"
  },
  {
    "name": "PRIN A ALLEN & SONS",
    "city": "BROOKLIN",
    "zip": "04616"
  },
  {
    "name": "THOMAS BANDSAW MILLS",
    "city": "BROOKS",
    "zip": "04921"
  },
  {
    "name": "TOWN OF BROOKS",
    "city": "BROOKS",
    "zip": "04921"
  },
  {
    "name": "WENTWORTH FAMILY GROCERY",
    "city": "BROOKS",
    "zip": "04921"
  },
  {
    "name": "SNOW'S PLUMBING &HTG",
    "city": "BROOKSVILLE",
    "zip": "04617"
  },
  {
    "name": "TOWN OF BROWNFIELD",
    "city": "BROWNFIELD",
    "zip": "04010"
  },
  {
    "name": "BIRDDOG INNOVATIONS",
    "city": "BRUNSWICK",
    "zip": "04011"
  },
  {
    "name": "BRUNSWICK HOME&GARDEN LLC",
    "city": "BRUNSWICK",
    "zip": "04011"
  },
  {
    "name": "BRUNSWICK SEWER DISTRICT",
    "city": "BRUNSWICK",
    "zip": "04011"
  },
  {
    "name": "BRUNSWICK VETERINARY",
    "city": "BRUNSWICK",
    "zip": "04011"
  },
  {
    "name": "BYRNES IRISH PUB LLC DBA",
    "city": "BRUNSWICK",
    "zip": "04011"
  },
  {
    "name": "COUSINS REDEMTION",
    "city": "BRUNSWICK",
    "zip": "04011"
  },
  {
    "name": "DATA DEFINED LLC",
    "city": "BRUNSWICK",
    "zip": "04011"
  },
  {
    "name": "FAMILY FOCUS",
    "city": "BRUNSWICK",
    "zip": "04011"
  },
  {
    "name": "HARPSWELL HOUSE INC",
    "city": "BRUNSWICK",
    "zip": "04011"
  },
  {
    "name": "JAMES A OSHETSKI DDS LLC",
    "city": "BRUNSWICK",
    "zip": "04011"
  },
  {
    "name": "JMH ASSOCIATES LLC",
    "city": "BRUNSWICK",
    "zip": "04011"
  },
  {
    "name": "MIDCOAST REGIONAL RA",
    "city": "BRUNSWICK",
    "zip": "04011"
  },
  {
    "name": "MORNING GLORY NATURAL",
    "city": "BRUNSWICK",
    "zip": "04011"
  },
  {
    "name": "NEW MEADOWS MARINA",
    "city": "BRUNSWICK",
    "zip": "04011"
  },
  {
    "name": "PENEPSCOT PAPER DIVISION",
    "city": "BRUNSWICK",
    "zip": "04011"
  },
  {
    "name": "SUNRISE WOODWORKING LLC",
    "city": "BRUNSWICK",
    "zip": "04011"
  },
  {
    "name": "WESTCON MANUFACTURING INC",
    "city": "BRUNSWICK",
    "zip": "04011"
  },
  {
    "name": "WILCOX WELLNESS AND",
    "city": "BRUNSWICK",
    "zip": "04011"
  },
  {
    "name": "HIRD CONTRACTING",
    "city": "BUCKFIELD",
    "zip": "04220"
  },
  {
    "name": "TILTON'S OF BUCKFIELD INC",
    "city": "BUCKFIELD",
    "zip": "04220"
  },
  {
    "name": "TOWN OF BUCKFIELD",
    "city": "BUCKFIELD",
    "zip": "04220"
  },
  {
    "name": "TWIN TOWN GLASS",
    "city": "BUCKFIELD",
    "zip": "04220"
  },
  {
    "name": "BAYSIDE BEAUTY",
    "city": "BUCKSPORT",
    "zip": "04416"
  },
  {
    "name": "BUCKSPORT AREA CHILD CARE",
    "city": "BUCKSPORT",
    "zip": "04416"
  },
  {
    "name": "BUCKSPORT REGIONAL HEALTH",
    "city": "BUCKSPORT",
    "zip": "04416"
  },
  {
    "name": "DOWNES ENTERPRISE LLC",
    "city": "BUCKSPORT",
    "zip": "04416"
  },
  {
    "name": "NORTH EAST CABLE",
    "city": "BUCKSPORT",
    "zip": "04416"
  },
  {
    "name": "TOWN OF BUCKSPORT",
    "city": "BUCKSPORT",
    "zip": "04416"
  },
  {
    "name": "HOMETOWN HEAT PUMPS INC",
    "city": "BURNHAM",
    "zip": "04922"
  },
  {
    "name": "PATTERSON'S GENERAL STORE",
    "city": "BURNHAM",
    "zip": "04922"
  },
  {
    "name": "DEARBORN BROS CONSTRUCTION",
    "city": "BUXTON",
    "zip": "04093"
  },
  {
    "name": "KEREBEAR CHILDCARE",
    "city": "BUXTON",
    "zip": "04093"
  },
  {
    "name": "LOWS VARIETY",
    "city": "BUXTON",
    "zip": "04093"
  },
  {
    "name": "M S A D NO 6",
    "city": "BUXTON",
    "zip": "04093"
  },
  {
    "name": "P W PLUMMER AND SONS INC",
    "city": "BUXTON",
    "zip": "04093"
  },
  {
    "name": "PETERS CONSTRUCTION",
    "city": "BUXTON",
    "zip": "04093"
  },
  {
    "name": "SOUTHERN MAINE PAVING AND",
    "city": "BUXTON",
    "zip": "04093"
  },
  {
    "name": "ALAN ELLSMORE",
    "city": "CALAIS",
    "zip": "04619"
  },
  {
    "name": "BORDER ELECTRIC",
    "city": "CALAIS",
    "zip": "04619"
  },
  {
    "name": "CABIN FEVER EMBROIDERY",
    "city": "CALAIS",
    "zip": "04619"
  },
  {
    "name": "CALAIS ACE HOME CENTER",
    "city": "CALAIS",
    "zip": "04619"
  },
  {
    "name": "CALAIS SCHOOL DEPARTMENT",
    "city": "CALAIS",
    "zip": "04619"
  },
  {
    "name": "CITY OF CALAIS",
    "city": "CALAIS",
    "zip": "04619"
  },
  {
    "name": "FLOWERS BY JANIE",
    "city": "CALAIS",
    "zip": "04619"
  },
  {
    "name": "HAIR MASTERS LLC",
    "city": "CALAIS",
    "zip": "04619"
  },
  {
    "name": "INDIAN TOWNSHIP SCHOOL",
    "city": "CALAIS",
    "zip": "04619"
  },
  {
    "name": "JOHNSON'S TRUE VALUE",
    "city": "CALAIS",
    "zip": "04619"
  },
  {
    "name": "KAREN J DELANEY DDS PLLC",
    "city": "CALAIS",
    "zip": "04619"
  },
  {
    "name": "LO'S CRAFT",
    "city": "CALAIS",
    "zip": "04619"
  },
  {
    "name": "MAINE INDIAN EDUCATION",
    "city": "CALAIS",
    "zip": "04619"
  },
  {
    "name": "OBRIENS QUALITY AUTO CARE",
    "city": "CALAIS",
    "zip": "04619"
  },
  {
    "name": "PERRY ELEMENTARY",
    "city": "CALAIS",
    "zip": "04619"
  },
  {
    "name": "PRATT CHEVROLET BUICK",
    "city": "CALAIS",
    "zip": "04619"
  },
  {
    "name": "RIVERSIDE ELECTRIC",
    "city": "CALAIS",
    "zip": "04619"
  },
  {
    "name": "SUNRISE EYECARE",
    "city": "CALAIS",
    "zip": "04619"
  },
  {
    "name": "GREEN WITH ENVY SALON",
    "city": "CAMDEN",
    "zip": "04843"
  },
  {
    "name": "JACKSON LANDSCAPE SERVICES",
    "city": "CAMDEN",
    "zip": "04843"
  },
  {
    "name": "P G WILLEY AND COMPANY",
    "city": "CAMDEN",
    "zip": "04843"
  },
  {
    "name": "SUPERIOR RESTORATION",
    "city": "CAMDEN",
    "zip": "04843"
  },
  {
    "name": "TIBBETTS INDUSTRIES",
    "city": "CAMDEN",
    "zip": "04843"
  },
  {
    "name": "TOWN OF CAMDEN",
    "city": "CAMDEN",
    "zip": "04843"
  },
  {
    "name": "CONANT ACRES INC",
    "city": "CANTON",
    "zip": "04221"
  },
  {
    "name": "TOWN OF CANTON",
    "city": "CANTON",
    "zip": "04221"
  },
  {
    "name": "VICTORIAN VILLA",
    "city": "CANTON",
    "zip": "048107"
  },
  {
    "name": "DAVIS LAW LLC",
    "city": "CAPE ELIZABETH",
    "zip": "04107"
  },
  {
    "name": "HIGH TIDE DENTAL",
    "city": "CAPE ELIZABETH",
    "zip": "04107"
  },
  {
    "name": "WALKER STABLES JOHNSON FM",
    "city": "CAPE NEDDICK",
    "zip": "03902"
  },
  {
    "name": "ADULT MULTIPLE ALTERNATIVE",
    "city": "CARIBOU",
    "zip": "04736"
  },
  {
    "name": "AROOSTOOK HOME HEALTH",
    "city": "CARIBOU",
    "zip": "04736"
  },
  {
    "name": "BUB'S CARPENTRY INC",
    "city": "CARIBOU",
    "zip": "04736"
  },
  {
    "name": "CARIBOU UTILITIES DISTRICT",
    "city": "CARIBOU",
    "zip": "04736"
  },
  {
    "name": "CINDYS SUB SHOP",
    "city": "CARIBOU",
    "zip": "04736"
  },
  {
    "name": "CITY OF CARIBOU",
    "city": "CARIBOU",
    "zip": "04736"
  },
  {
    "name": "COUNTY OF AROOSTOOK",
    "city": "CARIBOU",
    "zip": "04736"
  },
  {
    "name": "COUNTY PHYSICAL THERAPY",
    "city": "CARIBOU",
    "zip": "04736"
  },
  {
    "name": "COUNTY QWIK PRINT",
    "city": "CARIBOU",
    "zip": "04736"
  },
  {
    "name": "E G GALLAGHER AGENCY",
    "city": "CARIBOU",
    "zip": "04736"
  },
  {
    "name": "EASTERN AROOSTOOK",
    "city": "CARIBOU",
    "zip": "04736"
  },
  {
    "name": "FELCH & COMPANY, LLC",
    "city": "CARIBOU",
    "zip": "04736"
  },
  {
    "name": "G J AUTO BODY",
    "city": "CARIBOU",
    "zip": "04736"
  },
  {
    "name": "GAGNONS AUTO & RV SALES",
    "city": "CARIBOU",
    "zip": "04736"
  },
  {
    "name": "HOPE RECOVERY SERVICES",
    "city": "CARIBOU",
    "zip": "04736"
  },
  {
    "name": "IRVING FARMS INC",
    "city": "CARIBOU",
    "zip": "04736"
  },
  {
    "name": "LOU'S AUTO SERVICE",
    "city": "CARIBOU",
    "zip": "04736"
  },
  {
    "name": "NEW DAY COUNSELING",
    "city": "CARIBOU",
    "zip": "04736"
  },
  {
    "name": "NORTH STATE TRANS LLC",
    "city": "CARIBOU",
    "zip": "04736"
  },
  {
    "name": "NORTHERN MAINE DENTAL LLC",
    "city": "CARIBOU",
    "zip": "04736"
  },
  {
    "name": "PATHWAYS WELLNESS GROUP LL",
    "city": "CARIBOU",
    "zip": "04736"
  },
  {
    "name": "PATS AUTOMOTIVE CENTER",
    "city": "CARIBOU",
    "zip": "04736"
  },
  {
    "name": "PINES HEALTH SERVICES",
    "city": "CARIBOU",
    "zip": "04736"
  },
  {
    "name": "PRIVATE DUTY NURSING",
    "city": "CARIBOU",
    "zip": "04736"
  },
  {
    "name": "PROFESSIONAL HOME NURSING",
    "city": "CARIBOU",
    "zip": "04736"
  },
  {
    "name": "R L TODD & SON INC",
    "city": "CARIBOU",
    "zip": "04736"
  },
  {
    "name": "S W COLLINS CO",
    "city": "CARIBOU",
    "zip": "04736"
  },
  {
    "name": "SODERBERG COMPANY INC",
    "city": "CARIBOU",
    "zip": "04736"
  },
  {
    "name": "THE COUNTY FEDERAL CREDIT",
    "city": "CARIBOU",
    "zip": "04736"
  },
  {
    "name": "ADVANCED ELECTRICAL",
    "city": "CARMEL",
    "zip": "04419"
  },
  {
    "name": "ERICA TOOTHAKER",
    "city": "CARMEL",
    "zip": "04419"
  },
  {
    "name": "LEONARD AUTOMOTIVE",
    "city": "CARMEL",
    "zip": "04419"
  },
  {
    "name": "MCINTOSH FORESTRY SERVICES",
    "city": "CARMEL",
    "zip": "04419"
  },
  {
    "name": "SAD # 23",
    "city": "CARMEL",
    "zip": "04419"
  },
  {
    "name": "THE VILLAGE MARKET",
    "city": "CARMEL",
    "zip": "04419"
  },
  {
    "name": "TOWN OF CARMEL",
    "city": "CARMEL",
    "zip": "04419"
  },
  {
    "name": "TRIDENT MEDICAL",
    "city": "CARMEL",
    "zip": "04419"
  },
  {
    "name": "TOWN OF CARRABASSETT",
    "city": "CARRABASSETT VALLEY",
    "zip": "04947"
  },
  {
    "name": "JOPHIL AND ASSOCIATES",
    "city": "CASCO",
    "zip": "04015"
  },
  {
    "name": "MANSON'S MARINE, INC",
    "city": "CASCO",
    "zip": "04015"
  },
  {
    "name": "MOMENTUM",
    "city": "CASCO",
    "zip": "04015"
  },
  {
    "name": "TOWN OF CASCO",
    "city": "CASCO",
    "zip": "04015"
  },
  {
    "name": "YELLOW BEAR INC DBA RED",
    "city": "CASCO",
    "zip": "04015"
  },
  {
    "name": "CHARLESTON PENTECOSTAL",
    "city": "CHARLESTON",
    "zip": "04422"
  },
  {
    "name": "G L STROUT AND SONS",
    "city": "CHARLESTON",
    "zip": "04422"
  },
  {
    "name": "H A HIGGINS AND SON INC",
    "city": "CHARLESTON",
    "zip": "04422"
  },
  {
    "name": "MAPLE LANE FARMS",
    "city": "CHARLESTON",
    "zip": "04422"
  },
  {
    "name": "STATEWIDE TOWING INC",
    "city": "CHELSEA",
    "zip": "04330"
  },
  {
    "name": "CHERRYFIELD FOODS INC",
    "city": "CHERRYFIELD",
    "zip": "04622"
  },
  {
    "name": "SHERIDAN D SMITH INC",
    "city": "CHESTER",
    "zip": "04457"
  },
  {
    "name": "D F WISHART AND SONS",
    "city": "CLINTON",
    "zip": "04927"
  },
  {
    "name": "HOLY CANNOLI",
    "city": "CLINTON",
    "zip": "04927"
  },
  {
    "name": "WISWELL ELEC INC",
    "city": "CLINTON",
    "zip": "04927"
  },
  {
    "name": "4 CORNERS SUPERMARKET INC",
    "city": "COLUMBIA",
    "zip": "04623"
  },
  {
    "name": "COUNTY CONCRETE INC",
    "city": "COLUMBIA FALLS",
    "zip": "04623"
  },
  {
    "name": "WORCESTER HOLDINGS LLC",
    "city": "COLUMBIA FALLS",
    "zip": "04623"
  },
  {
    "name": "WORCESTER RESOURCES",
    "city": "COLUMBIA FALLS",
    "zip": "04623"
  },
  {
    "name": "RAGGED MOUNTAIN ELECTRIC",
    "city": "CONNOR TWP",
    "zip": "04736"
  },
  {
    "name": "BERG SPORTSWEAR",
    "city": "CORINNA",
    "zip": "04928"
  },
  {
    "name": "CORINNA MOTORSPORTS",
    "city": "CORINNA",
    "zip": "04928"
  },
  {
    "name": "GERRY'S USED CARS",
    "city": "CORINNA",
    "zip": "04928"
  },
  {
    "name": "MYLAN COMPANY",
    "city": "CORINNA",
    "zip": "04928"
  },
  {
    "name": "CORMIERS BUS SERVICE",
    "city": "CORINTH",
    "zip": "04427"
  },
  {
    "name": "COUNTRYSIDE RESTAURANT",
    "city": "CORINTH",
    "zip": "04427"
  },
  {
    "name": "EMILIO ESTATES INC",
    "city": "CORINTH",
    "zip": "04427"
  },
  {
    "name": "POMEROY'S GARAGE",
    "city": "CORINTH",
    "zip": "04427"
  },
  {
    "name": "PRESCOTT ENTERPRISES",
    "city": "CORINTH",
    "zip": "04427"
  },
  {
    "name": "ROWE'S GARAGE INC.",
    "city": "CORINTH",
    "zip": "04427"
  },
  {
    "name": "CALLS SHOP N SAVE",
    "city": "CORNISH",
    "zip": "04020"
  },
  {
    "name": "MOULTON LUMBER CO",
    "city": "CORNISH",
    "zip": "04020"
  },
  {
    "name": "SACOPEE VALLEY EYE CARE",
    "city": "CORNISH",
    "zip": "04020"
  },
  {
    "name": "SACOPEE VETERINARY CLINIC",
    "city": "CORNISH",
    "zip": "04020"
  },
  {
    "name": "WADSWORTH WOODLANDS INC",
    "city": "CORNISH",
    "zip": "04020"
  },
  {
    "name": "NEWMAN AND GRAY BOATYARD",
    "city": "CRANBERRY ISLES",
    "zip": "04625"
  },
  {
    "name": "COASTAL LAWN CARE",
    "city": "CUMBERLAND",
    "zip": "04021"
  },
  {
    "name": "MJ STOREY LANDSCAPE",
    "city": "CUMBERLAND",
    "zip": "04021"
  },
  {
    "name": "RED THREAD",
    "city": "CUMBERLAND",
    "zip": "04092"
  },
  {
    "name": "SUBSTANTIAL INVESTMENTS",
    "city": "CUMBERLAND",
    "zip": "04021"
  },
  {
    "name": "NELMA",
    "city": "CUMBERLAND CENTER",
    "zip": "04021"
  },
  {
    "name": "BREAK OF DAY MENTAL HEALTH",
    "city": "DAMARISCOTTA",
    "zip": "04543"
  },
  {
    "name": "CENTRAL LINCOLN COUNTY",
    "city": "DAMARISCOTTA",
    "zip": "04543"
  },
  {
    "name": "COASTAL KIDS PRESCHOOL",
    "city": "DAMARISCOTTA",
    "zip": "04543"
  },
  {
    "name": "COS CARE INC DBA COMFORT",
    "city": "DAMARISCOTTA",
    "zip": "04543"
  },
  {
    "name": "GOODE ENTERPRISES INC",
    "city": "DAMARISCOTTA",
    "zip": "04543"
  },
  {
    "name": "LEVESQUE LAW",
    "city": "DAMARISCOTTA",
    "zip": "04543"
  },
  {
    "name": "MAINE LOBSTERMANS ASSOC",
    "city": "DAMARISCOTTA",
    "zip": "04543"
  },
  {
    "name": "MID COAST ENERGY SYSTEMS",
    "city": "DAMARISCOTTA",
    "zip": "04543"
  },
  {
    "name": "MIDCOAST COLLISION LLC",
    "city": "DAMARISCOTTA",
    "zip": "04543"
  },
  {
    "name": "MOBIUS INC",
    "city": "DAMARISCOTTA",
    "zip": "04543"
  },
  {
    "name": "OVERALL PROPERTY CARE LLC",
    "city": "DAMARISCOTTA",
    "zip": "04543"
  },
  {
    "name": "QUICK TURN AUTO REPAIR AND",
    "city": "DAMARISCOTTA",
    "zip": "04543"
  },
  {
    "name": "THE GARAGE",
    "city": "DAMARISCOTTA",
    "zip": "04543"
  },
  {
    "name": "THE PENALTY BOX",
    "city": "DAMARISCOTTA",
    "zip": "04543"
  },
  {
    "name": "TOWN OF DAMARISCOTTA",
    "city": "DAMARISCOTTA",
    "zip": "04543"
  },
  {
    "name": "UPSTREAM POLICY INSTITUTE",
    "city": "DAMARISCOTTA",
    "zip": "04543"
  },
  {
    "name": "DANFORTH HABILITATION",
    "city": "DANFORTH",
    "zip": "04424"
  },
  {
    "name": "EAST GRAND HEALTH CENTER",
    "city": "DANFORTH",
    "zip": "04424"
  },
  {
    "name": "RSU 84",
    "city": "DANFORTH",
    "zip": "04424"
  },
  {
    "name": "WORCESTER PEAT CO INC",
    "city": "DEBLOIS",
    "zip": "04622"
  },
  {
    "name": "TOWN OF DENMARK",
    "city": "DENMARK",
    "zip": "04022"
  },
  {
    "name": "B & K AUTO SALES",
    "city": "DEXTER",
    "zip": "04930"
  },
  {
    "name": "DEXTER DISCOUNT TIRE",
    "city": "DEXTER",
    "zip": "04930"
  },
  {
    "name": "M S A D 46",
    "city": "DEXTER",
    "zip": "04930"
  },
  {
    "name": "MAINE HIGHLANDS FEDERAL",
    "city": "DEXTER",
    "zip": "04930"
  },
  {
    "name": "TOWN OF DEXTER",
    "city": "DEXTER",
    "zip": "04930"
  },
  {
    "name": "TOWN OF DIXFIELD",
    "city": "DIXFIELD",
    "zip": "04224"
  },
  {
    "name": "A AND P SMALL ENGINE LLC",
    "city": "DIXMONT",
    "zip": "04932"
  },
  {
    "name": "MAINE MAINTENANCE PLUS LLC",
    "city": "DIXMONT",
    "zip": "04932"
  },
  {
    "name": "TOWN OF DIXMONT",
    "city": "DIXMONT",
    "zip": "04932"
  },
  {
    "name": "A E ROBINSON OIL CO INC",
    "city": "DOVER FOXCROFT",
    "zip": "04426"
  },
  {
    "name": "AT HOME F A B",
    "city": "DOVER FOXCROFT",
    "zip": "04426"
  },
  {
    "name": "COUNTY OF PISCATAQUIS",
    "city": "DOVER FOXCROFT",
    "zip": "04426"
  },
  {
    "name": "DOVER FORD",
    "city": "DOVER FOXCROFT",
    "zip": "04426"
  },
  {
    "name": "DT DEVELOPERS INC",
    "city": "DOVER FOXCROFT",
    "zip": "04426"
  },
  {
    "name": "FOXCROFT ACADEMY",
    "city": "DOVER FOXCROFT",
    "zip": "04426"
  },
  {
    "name": "KIMBERLY CHASE CAVANAGH",
    "city": "DOVER FOXCROFT",
    "zip": "04426"
  },
  {
    "name": "KURT A FORTIER INC DBA",
    "city": "DOVER FOXCROFT",
    "zip": "04426"
  },
  {
    "name": "MCKUSICK PETROLEUM CO",
    "city": "DOVER FOXCROFT",
    "zip": "04426"
  },
  {
    "name": "NORTHERN WASTE MANAGEMENT",
    "city": "DOVER FOXCROFT",
    "zip": "04426"
  },
  {
    "name": "P Q CONTROLL EDB",
    "city": "DOVER FOXCROFT",
    "zip": "04426"
  },
  {
    "name": "ROBINSON HARDWARE INC DBA",
    "city": "DOVER FOXCROFT",
    "zip": "04426"
  },
  {
    "name": "ROWELLS GARAGE INC",
    "city": "DOVER FOXCROFT",
    "zip": "04426"
  },
  {
    "name": "RSU 68",
    "city": "DOVER FOXCROFT",
    "zip": "04426"
  },
  {
    "name": "THE STORE N' MORE",
    "city": "DOVER FOXCROFT",
    "zip": "04426"
  },
  {
    "name": "TOWN OF DOVER-FOXCROFT",
    "city": "DOVER FOXCROFT",
    "zip": "04426"
  },
  {
    "name": "DOVER-FOXCROFT, MAINE - LABEL SHOPPER",
    "city": "DOVER-FOXCROFT",
    "zip": "04426"
  },
  {
    "name": "DUBORD TAKE OUT LLC",
    "city": "DRESDEN",
    "zip": "04342"
  },
  {
    "name": "TOWN OF DURHAM",
    "city": "DURHAM",
    "zip": "04222"
  },
  {
    "name": "REGIONAL SCHOOL UNIT 50",
    "city": "DYER BROOK",
    "zip": "04747"
  },
  {
    "name": "CRANDALL'S HARDWARE STORE",
    "city": "E MILLINOCKET",
    "zip": "04430"
  },
  {
    "name": "KATAHDIN FAMILY DENTAL",
    "city": "E MILLINOCKET",
    "zip": "04430"
  },
  {
    "name": "R AND C HOME CARE INC DBA",
    "city": "E MILLINOCKET",
    "zip": "04430"
  },
  {
    "name": "UNION 113",
    "city": "E MILLINOCKET",
    "zip": "04430"
  },
  {
    "name": "VETERANS CONSTUCTION",
    "city": "E WATERBORO",
    "zip": "04030"
  },
  {
    "name": "NORTHERN MAINE GENERAL",
    "city": "EAGLE LAKE",
    "zip": "04739"
  },
  {
    "name": "R.S. OSGOOD & SONS",
    "city": "EAST DIXFIELD",
    "zip": "04227"
  },
  {
    "name": "GUPTILL LOGGING CO",
    "city": "EAST MACHIAS",
    "zip": "04630"
  },
  {
    "name": "JOHNSON'S TOWN LINE AUTO",
    "city": "EAST MACHIAS",
    "zip": "04630"
  },
  {
    "name": "PRESCOTT'S GARAGE",
    "city": "EAST MACHIAS",
    "zip": "04630"
  },
  {
    "name": "WASHINGTON ACADEMY",
    "city": "EAST MACHIAS",
    "zip": "04630"
  },
  {
    "name": "MILLINOCKET SCHOOL",
    "city": "EAST MILLINOCKET",
    "zip": "04430"
  },
  {
    "name": "TOWN OF EAST MILLINOCKET",
    "city": "EAST MILLINOCKET",
    "zip": "04430"
  },
  {
    "name": "F M ABBOTT POWER EQUIPMENT",
    "city": "EAST WATERBORO",
    "zip": "04030"
  },
  {
    "name": "COLLINS ENTERPRISES",
    "city": "EAST WILTON",
    "zip": "04294"
  },
  {
    "name": "BEYOND STYLE",
    "city": "EAST WINTHROP",
    "zip": "04343"
  },
  {
    "name": "EASTON SCHOOL DEPARTMENT",
    "city": "EASTON",
    "zip": "04740"
  },
  {
    "name": "TOWN OF EASTON",
    "city": "EASTON",
    "zip": "04740"
  },
  {
    "name": "AOS 77 SUNRISE COUNTY",
    "city": "EASTPORT",
    "zip": "04631"
  },
  {
    "name": "EASTPORT HEALTHCARE INC",
    "city": "EASTPORT",
    "zip": "04631"
  },
  {
    "name": "EASTPORT SCHOOL DEPT",
    "city": "EASTPORT",
    "zip": "04631"
  },
  {
    "name": "PASSAMAQUODDY WATER",
    "city": "EASTPORT",
    "zip": "04631"
  },
  {
    "name": "CHARLOTTES A AND M",
    "city": "EDDINGTON",
    "zip": "04428"
  },
  {
    "name": "COMMONSENSE HOUSING INC",
    "city": "EDDINGTON",
    "zip": "04428"
  },
  {
    "name": "JM PAWS BOOKKEEPING",
    "city": "EDDINGTON",
    "zip": "04428"
  },
  {
    "name": "RJM AUTOWORKS",
    "city": "EDDINGTON",
    "zip": "04428"
  },
  {
    "name": "S L MARKET INC",
    "city": "EDDINGTON",
    "zip": "04428"
  },
  {
    "name": "TOWN OF EDDINGTON",
    "city": "EDDINGTON",
    "zip": "04428"
  },
  {
    "name": "BLATT AND KINGSTON FAMILY",
    "city": "ELIOT",
    "zip": "03903"
  },
  {
    "name": "ELIOT SMALL ENGINE",
    "city": "ELIOT",
    "zip": "03903"
  },
  {
    "name": "ELIOT VETERINARY HOSPITAL",
    "city": "ELIOT",
    "zip": "03903"
  },
  {
    "name": "FORD INSURANCE AGENCY INC",
    "city": "ELIOT",
    "zip": "03903"
  },
  {
    "name": "JP'S SHELLFISH",
    "city": "ELIOT",
    "zip": "03903"
  },
  {
    "name": "LW MORGRIDGE & SON INC",
    "city": "ELIOT",
    "zip": "03903"
  },
  {
    "name": "MODERNIST PANTRY LLC",
    "city": "ELIOT",
    "zip": "03903"
  },
  {
    "name": "MORIARTY ELECTRIC COMPANY",
    "city": "ELIOT",
    "zip": "03903"
  },
  {
    "name": "PISCATAQUA LANDSCAPING",
    "city": "ELIOT",
    "zip": "03903"
  },
  {
    "name": "THERMODYNAMICS INCORPORATE",
    "city": "ELIOT",
    "zip": "03903"
  },
  {
    "name": "ACADIA THERAPY SERVICES",
    "city": "ELLSWORTH",
    "zip": "04605"
  },
  {
    "name": "ATLANTIC BUILDERS INC",
    "city": "ELLSWORTH",
    "zip": "04605"
  },
  {
    "name": "ATLANTIC LANDSCAPE",
    "city": "ELLSWORTH",
    "zip": "04605"
  },
  {
    "name": "BEAL HOME INSPECTION",
    "city": "ELLSWORTH",
    "zip": "04605"
  },
  {
    "name": "CARING HANDS OF MAINE",
    "city": "ELLSWORTH",
    "zip": "04605"
  },
  {
    "name": "CITY OF ELLSWORTH",
    "city": "ELLSWORTH",
    "zip": "04605"
  },
  {
    "name": "COASTLINE HOMES",
    "city": "ELLSWORTH",
    "zip": "04605"
  },
  {
    "name": "COLLIER ROYAL NURSING HOME",
    "city": "ELLSWORTH",
    "zip": "04605"
  },
  {
    "name": "COMPLETE TIRE SERVICE INC",
    "city": "ELLSWORTH",
    "zip": "04605"
  },
  {
    "name": "COUNTY OF HANCOCK",
    "city": "ELLSWORTH",
    "zip": "04605"
  },
  {
    "name": "DOWN EAST FAMILY YMCA",
    "city": "ELLSWORTH",
    "zip": "04605"
  },
  {
    "name": "DOWNEAST HORIZONS",
    "city": "ELLSWORTH",
    "zip": "04605"
  },
  {
    "name": "DRAGONFIRE PIZZA",
    "city": "ELLSWORTH",
    "zip": "04605"
  },
  {
    "name": "EL SHEA",
    "city": "ELLSWORTH",
    "zip": "04605"
  },
  {
    "name": "ELLSWORTH CHIROPRACTIC",
    "city": "ELLSWORTH",
    "zip": "04605"
  },
  {
    "name": "ELLSWORTH, MAINE - LABEL SHOPPER",
    "city": "ELLSWORTH",
    "zip": "04605"
  },
  {
    "name": "EQUIS PRO DENTES LLC",
    "city": "ELLSWORTH",
    "zip": "04605"
  },
  {
    "name": "GREENWAY EQUIPMENT",
    "city": "ELLSWORTH",
    "zip": "04605"
  },
  {
    "name": "HANCOCK COUNTY HOMES",
    "city": "ELLSWORTH",
    "zip": "04605"
  },
  {
    "name": "HARMONS TIRE AND SERVICE",
    "city": "ELLSWORTH",
    "zip": "04605"
  },
  {
    "name": "HELEN'S RESTAURANT",
    "city": "ELLSWORTH",
    "zip": "04605"
  },
  {
    "name": "JONES KURILOFF & SARGENT",
    "city": "ELLSWORTH",
    "zip": "04605"
  },
  {
    "name": "JT ROSBOROUGH INC",
    "city": "ELLSWORTH",
    "zip": "04605"
  },
  {
    "name": "LABEL SHOPPER",
    "city": "ELLSWORTH",
    "zip": "04605"
  },
  {
    "name": "LINNEHANS RIGHT WAY AUTO",
    "city": "ELLSWORTH",
    "zip": "04605"
  },
  {
    "name": "M & S ENTERPRISE INC",
    "city": "ELLSWORTH",
    "zip": "04605"
  },
  {
    "name": "R F JORDAN AND SONS",
    "city": "ELLSWORTH",
    "zip": "04605"
  },
  {
    "name": "RAY PLUMBING AND HEATING",
    "city": "ELLSWORTH",
    "zip": "04605"
  },
  {
    "name": "THE UPS STORE ELLSWORTH",
    "city": "ELLSWORTH",
    "zip": "04605"
  },
  {
    "name": "WALLACE MOVING & STORAGE",
    "city": "ELLSWORTH",
    "zip": "04605"
  },
  {
    "name": "WASHINGTON HANCOCK COMMUNI",
    "city": "ELLSWORTH",
    "zip": "04605"
  },
  {
    "name": "MAC RESIDENTIAL",
    "city": "EMBDEN",
    "zip": "04958"
  },
  {
    "name": "ELECTRIFY MAINE",
    "city": "ETNA",
    "zip": "04434"
  },
  {
    "name": "MOSSY LEDGE SPIRITS",
    "city": "ETNA",
    "zip": "04434"
  },
  {
    "name": "PERKCO SUPPLY",
    "city": "EXETER",
    "zip": "04435"
  },
  {
    "name": "BOUCHARD AND ASSOCIATES IN",
    "city": "FAIRFIELD",
    "zip": "04937"
  },
  {
    "name": "CARING HANDS HOME CARE",
    "city": "FAIRFIELD",
    "zip": "04937"
  },
  {
    "name": "GARDINER EYE CARE",
    "city": "FAIRFIELD",
    "zip": "04937"
  },
  {
    "name": "HILLMANS BAKERY",
    "city": "FAIRFIELD",
    "zip": "04937"
  },
  {
    "name": "MAINELY HANDRAILS LLC",
    "city": "FAIRFIELD",
    "zip": "04937"
  },
  {
    "name": "MSAD #49",
    "city": "FAIRFIELD",
    "zip": "04937"
  },
  {
    "name": "MUSHERO'S JACKING & MOVING",
    "city": "FAIRFIELD",
    "zip": "04937"
  },
  {
    "name": "THE AMP LAB LLC",
    "city": "FAIRFIELD",
    "zip": "04937"
  },
  {
    "name": "TOWN OF FAIRFIELD",
    "city": "FAIRFIELD",
    "zip": "04937"
  },
  {
    "name": "BERRY TALBOT ROYER",
    "city": "FALMOUTH",
    "zip": "04105"
  },
  {
    "name": "CHASE EXCAVATING INC",
    "city": "FALMOUTH",
    "zip": "04105"
  },
  {
    "name": "EA FITNESS AND PERFORMANCE",
    "city": "FALMOUTH",
    "zip": "04105"
  },
  {
    "name": "GRASCAM INC DBA SERVICE",
    "city": "FALMOUTH",
    "zip": "04105"
  },
  {
    "name": "MAINE CANCER FOUNDATION",
    "city": "FALMOUTH",
    "zip": "04105"
  },
  {
    "name": "MAINE EDU CTR FOR D&HH",
    "city": "FALMOUTH",
    "zip": "04105"
  },
  {
    "name": "MAINE LASER AND AESTHETICS",
    "city": "FALMOUTH",
    "zip": "04105"
  },
  {
    "name": "REJUVENATIONS MEDICAL SPA",
    "city": "FALMOUTH",
    "zip": "04105"
  },
  {
    "name": "STREET CYCLES INC",
    "city": "FALMOUTH",
    "zip": "04105"
  },
  {
    "name": "ELLIOT OFFICE PRODUCTS",
    "city": "FARMINGDALE",
    "zip": "04344"
  },
  {
    "name": "MAJOR APPLIANCE SERVICE",
    "city": "FARMINGDALE",
    "zip": "04344"
  },
  {
    "name": "AURORA ROOFING AND SOLAR",
    "city": "FARMINGTON",
    "zip": "04938"
  },
  {
    "name": "AZULENE DAY SPA",
    "city": "FARMINGTON",
    "zip": "04938"
  },
  {
    "name": "BASILS PIZZA AND SUB LLC",
    "city": "FARMINGTON",
    "zip": "04938"
  },
  {
    "name": "CORNERSTONE PLUMBING",
    "city": "FARMINGTON",
    "zip": "04938"
  },
  {
    "name": "E L VINING & SON INC",
    "city": "FARMINGTON",
    "zip": "04938"
  },
  {
    "name": "FARMINGTON D LLC",
    "city": "FARMINGTON",
    "zip": "04938"
  },
  {
    "name": "FARMINGTON FORD",
    "city": "FARMINGTON",
    "zip": "04938"
  },
  {
    "name": "FARMINGTON VILLAGE CORP",
    "city": "FARMINGTON",
    "zip": "04938"
  },
  {
    "name": "FITCH HEATING",
    "city": "FARMINGTON",
    "zip": "04938"
  },
  {
    "name": "FRANKLIN CHRYSLER INC",
    "city": "FARMINGTON",
    "zip": "04938"
  },
  {
    "name": "HEALTHQUEST",
    "city": "FARMINGTON",
    "zip": "04938"
  },
  {
    "name": "HIGHT CHEVROLET BUICK GMC",
    "city": "FARMINGTON",
    "zip": "04938"
  },
  {
    "name": "JACKS TRADING POST",
    "city": "FARMINGTON",
    "zip": "04938"
  },
  {
    "name": "KEMP ENTERPRISES INC",
    "city": "FARMINGTON",
    "zip": "04938"
  },
  {
    "name": "KONOPKA AND SONS HOME",
    "city": "FARMINGTON",
    "zip": "04938"
  },
  {
    "name": "MAINE ELKS ASSOCIATION",
    "city": "FARMINGTON",
    "zip": "04938"
  },
  {
    "name": "MIXED UP",
    "city": "FARMINGTON",
    "zip": "04938"
  },
  {
    "name": "MOUNT BLUE MOTEL",
    "city": "FARMINGTON",
    "zip": "04938"
  },
  {
    "name": "MOUNT BLUE RSD",
    "city": "FARMINGTON",
    "zip": "04938"
  },
  {
    "name": "RIPLEY AND FLETCHER",
    "city": "FARMINGTON",
    "zip": "04938"
  },
  {
    "name": "THE BETTER LIVING CENTER",
    "city": "FARMINGTON",
    "zip": "04938"
  },
  {
    "name": "TOWN OF FARMINGTON",
    "city": "FARMINGTON",
    "zip": "04938"
  },
  {
    "name": "MAINE MARKET REFRIGERATION",
    "city": "FAYETTE",
    "zip": "04349"
  },
  {
    "name": "FORT FAIRFIELD DENTAL",
    "city": "FORT FAIRFIELD",
    "zip": "04742"
  },
  {
    "name": "FORT FAIRFIELD UTILITIES",
    "city": "FORT FAIRFIELD",
    "zip": "04742"
  },
  {
    "name": "HOUSING AUTHORITY OF FORT",
    "city": "FORT FAIRFIELD",
    "zip": "04742"
  },
  {
    "name": "K PEL INDUSTRIAL SERVICES",
    "city": "FORT FAIRFIELD",
    "zip": "04742"
  },
  {
    "name": "TOWN OF FORT FAIRFIELD",
    "city": "FORT FAIRFIELD",
    "zip": "04742"
  },
  {
    "name": "ACADIAN SPRINGS",
    "city": "FORT KENT",
    "zip": "04743"
  },
  {
    "name": "CROSSWINDS RES CARE",
    "city": "FORT KENT",
    "zip": "04743"
  },
  {
    "name": "FORT KENT ANIMAL HOSPITAL",
    "city": "FORT KENT",
    "zip": "04743"
  },
  {
    "name": "FORT KENT POWERSPORTS",
    "city": "FORT KENT",
    "zip": "04743"
  },
  {
    "name": "FORT KENT SCHOOL DEPT 27",
    "city": "FORT KENT",
    "zip": "04743"
  },
  {
    "name": "FRANK MARTIN & SONS",
    "city": "FORT KENT",
    "zip": "04743"
  },
  {
    "name": "J G LOGGING INC",
    "city": "FORT KENT",
    "zip": "04743"
  },
  {
    "name": "MY THREE SONS INC",
    "city": "FORT KENT",
    "zip": "04743"
  },
  {
    "name": "PARADIS FOOD STORES",
    "city": "FORT KENT",
    "zip": "04743"
  },
  {
    "name": "PELLETIER FORD",
    "city": "FORT KENT",
    "zip": "04743"
  },
  {
    "name": "TNT ROAD COMPANY",
    "city": "FORT KENT",
    "zip": "04743"
  },
  {
    "name": "VALLEY IRON WORKS",
    "city": "FORT KENT",
    "zip": "04743"
  },
  {
    "name": "VALLEY MOTORS",
    "city": "FORT KENT",
    "zip": "04743"
  },
  {
    "name": "WHISTLE STOP RESTAURANT",
    "city": "FORT KENT",
    "zip": "04743"
  },
  {
    "name": "TOWN OF FREEDOM",
    "city": "FREEDOM",
    "zip": "04941"
  },
  {
    "name": "ATLANTIC RESOURCE",
    "city": "FREEPORT",
    "zip": "04032"
  },
  {
    "name": "FREEPORT AUTO REPAIR",
    "city": "FREEPORT",
    "zip": "04032"
  },
  {
    "name": "LITTLE FRIENDS EARLY",
    "city": "FREEPORT",
    "zip": "04032"
  },
  {
    "name": "LL BEAN",
    "city": "FREEPORT",
    "zip": "04033"
  },
  {
    "name": "MIDCOAST FEDERAL CREDIT",
    "city": "FREEPORT",
    "zip": "04032"
  },
  {
    "name": "ROSELYN NORTH ACADEMY",
    "city": "FREEPORT",
    "zip": "04032"
  },
  {
    "name": "WILBUR'S OF MAINE",
    "city": "FREEPORT",
    "zip": "04032"
  },
  {
    "name": "AUTOTRONICS LLC",
    "city": "FRENCHVILLE",
    "zip": "04745"
  },
  {
    "name": "ST JOSEPH MEMORY CARE INC",
    "city": "FRENCHVILLE",
    "zip": "04745"
  },
  {
    "name": "TYRAS POOCH PARLOR AND PET",
    "city": "FRENCHVILLE",
    "zip": "04745"
  },
  {
    "name": "302 WEST SMOKEHOUSE TAVERN",
    "city": "FRYEBURG",
    "zip": "04037"
  },
  {
    "name": "AGWAY",
    "city": "FRYEBURG",
    "zip": "04037"
  },
  {
    "name": "FIELD ELECTRIC LLC",
    "city": "FRYEBURG",
    "zip": "04037"
  },
  {
    "name": "HARVEST HILLS SHELTER",
    "city": "FRYEBURG",
    "zip": "04037"
  },
  {
    "name": "PARADISE MACHINE CO LLC",
    "city": "FRYEBURG",
    "zip": "04037"
  },
  {
    "name": "ANDREA SIMMONS PHOTOGRAPHY",
    "city": "GARDINER",
    "zip": "04345"
  },
  {
    "name": "CITY OF GARDINER",
    "city": "GARDINER",
    "zip": "04345"
  },
  {
    "name": "DANIEL'S AUTO BODY",
    "city": "GARDINER",
    "zip": "04345"
  },
  {
    "name": "GARDINER FAMILY",
    "city": "GARDINER",
    "zip": "04345"
  },
  {
    "name": "INTERSTATE FIRE PROTECTION",
    "city": "GARDINER",
    "zip": "04345"
  },
  {
    "name": "MAINE CAP N STEM LLC",
    "city": "GARDINER",
    "zip": "04345"
  },
  {
    "name": "MAINE SCL ADMIN DIST NO 11",
    "city": "GARDINER",
    "zip": "04345"
  },
  {
    "name": "RICOH USA, INC.",
    "city": "GARDINER",
    "zip": "04345"
  },
  {
    "name": "RICOH USA",
    "city": "GARDINER",
    "zip": "04345"
  },
  {
    "name": "WOODEX BEARING COMPANY",
    "city": "GEORGETOWN",
    "zip": "04548"
  },
  {
    "name": "HARVEY RV",
    "city": "GLENBURN",
    "zip": "04401"
  },
  {
    "name": "NO JOKE ERECTORS LLC",
    "city": "GLENBURN",
    "zip": "04401"
  },
  {
    "name": "T AND D EQUIPMENT REPAIR",
    "city": "GLENBURN",
    "zip": "04401"
  },
  {
    "name": "TOWN OF GLENBURN",
    "city": "GLENBURN",
    "zip": "04401"
  },
  {
    "name": "ANDREA TALIENTO MCBRIDE",
    "city": "GORHAM",
    "zip": "04038"
  },
  {
    "name": "CHET AUTO SALES",
    "city": "GORHAM",
    "zip": "04038"
  },
  {
    "name": "CRADLE INN",
    "city": "GORHAM",
    "zip": "04038"
  },
  {
    "name": "ENERGIZE ME",
    "city": "GORHAM",
    "zip": "04038"
  },
  {
    "name": "GLIDDEN EXCAVATING &",
    "city": "GORHAM",
    "zip": "04038"
  },
  {
    "name": "JUNCTION BOWL",
    "city": "GORHAM",
    "zip": "04038"
  },
  {
    "name": "LAKE REGION ENERGY LLC",
    "city": "GORHAM",
    "zip": "04038"
  },
  {
    "name": "MODERNE RUG CLEANING",
    "city": "GORHAM",
    "zip": "04038"
  },
  {
    "name": "NAPPI DISTRIBUTORS",
    "city": "GORHAM",
    "zip": "04038"
  },
  {
    "name": "NORTH AMERICAN INDL SERVICE",
    "city": "GORHAM",
    "zip": "04038"
  },
  {
    "name": "OSSIPEE TRAIL MOTOR SALES",
    "city": "GORHAM",
    "zip": "04038"
  },
  {
    "name": "PRINT MAIL OF MAINE INC",
    "city": "GORHAM",
    "zip": "04038"
  },
  {
    "name": "R J GRONDIN & SONS",
    "city": "GORHAM",
    "zip": "04038"
  },
  {
    "name": "RED CITY ALE HOUSE",
    "city": "GORHAM",
    "zip": "04038"
  },
  {
    "name": "RED3 LLC DBA THE SUN ROOM",
    "city": "GORHAM",
    "zip": "04038"
  },
  {
    "name": "SEEDLINGS TO SUNFLOWERS",
    "city": "GORHAM",
    "zip": "04038"
  },
  {
    "name": "SOUTHERN MAINE SPECIALTIES",
    "city": "GORHAM",
    "zip": "04038"
  },
  {
    "name": "SUNNY DAYS EARLY CARE &",
    "city": "GORHAM",
    "zip": "04038"
  },
  {
    "name": "TOWN AND COUNTRY CABINETS",
    "city": "GORHAM",
    "zip": "04038"
  },
  {
    "name": "WOODS EXCAVATING LLC",
    "city": "GORHAM",
    "zip": "04038"
  },
  {
    "name": "DEAN & ALLYN INC",
    "city": "GRAY",
    "zip": "04039"
  },
  {
    "name": "GRANTS SUPERMARKET",
    "city": "GRAY",
    "zip": "04039"
  },
  {
    "name": "GRAY FAMILY VISION",
    "city": "GRAY",
    "zip": "04039"
  },
  {
    "name": "MAINE TENNIS AND TRACK",
    "city": "GRAY",
    "zip": "04039"
  },
  {
    "name": "ROUTE 22 SERVICE CENTER",
    "city": "GRAY",
    "zip": "04039"
  },
  {
    "name": "ELITE BODY ESSENTIALS",
    "city": "GREENE",
    "zip": "04236"
  },
  {
    "name": "LINDY S AUTO REPAIR",
    "city": "GREENE",
    "zip": "04236"
  },
  {
    "name": "STEPPING STONES EARLY",
    "city": "GREENE",
    "zip": "04236"
  },
  {
    "name": "TOWN OF GREENE",
    "city": "GREENE",
    "zip": "04236"
  },
  {
    "name": "UNITED PIPING & WELDING",
    "city": "GREENE",
    "zip": "04236"
  },
  {
    "name": "INDIAN HILL TRADING POST",
    "city": "GREENVILLE",
    "zip": "04441"
  },
  {
    "name": "JACK WHITTIER & SON INC",
    "city": "GREENVILLE",
    "zip": "04441"
  },
  {
    "name": "LEISURE LIFE RESORT",
    "city": "GREENVILLE",
    "zip": "04441"
  },
  {
    "name": "TOWN OF GREENVILLE",
    "city": "GREENVILLE",
    "zip": "04441"
  },
  {
    "name": "ENGSTROMS AUTO SERVICE",
    "city": "GUILFORD",
    "zip": "04443"
  },
  {
    "name": "FRIENDS OF COMMUNITY",
    "city": "GUILFORD",
    "zip": "04443"
  },
  {
    "name": "HERRING BROTHERS MEATS",
    "city": "GUILFORD",
    "zip": "04443"
  },
  {
    "name": "MAINELY BENEFITS LLC",
    "city": "GUILFORD",
    "zip": "04443"
  },
  {
    "name": "THOMAS LOGGING & FORESTRY",
    "city": "GUILFORD",
    "zip": "04443"
  },
  {
    "name": "TOWN OF GUILFORD",
    "city": "GUILFORD",
    "zip": "04443"
  },
  {
    "name": "QUIRK FORD OF AUGUSTA",
    "city": "HALLOWELL",
    "zip": "04347"
  },
  {
    "name": "REGIONAL SCHOOL UNIT #2",
    "city": "HALLOWELL",
    "zip": "04347"
  },
  {
    "name": "ALLIANCE HOME INSPECTIONS",
    "city": "HAMPDEN",
    "zip": "04444"
  },
  {
    "name": "AVALON MANAGEMENT LLC",
    "city": "HAMPDEN",
    "zip": "04444"
  },
  {
    "name": "BAKER FAMILY CHIROPRACTIC",
    "city": "HAMPDEN",
    "zip": "04444"
  },
  {
    "name": "BOUCHARD CLEANING AND",
    "city": "HAMPDEN",
    "zip": "04444"
  },
  {
    "name": "FROSTYS LEARNING ACADEMY",
    "city": "HAMPDEN",
    "zip": "04444"
  },
  {
    "name": "FUNDAMENTAL FOOT CARE",
    "city": "HAMPDEN",
    "zip": "04444"
  },
  {
    "name": "FUTURE AGENCY LLC DBA AT",
    "city": "HAMPDEN",
    "zip": "04444"
  },
  {
    "name": "GRAYCE STORES INC",
    "city": "HAMPDEN",
    "zip": "04444"
  },
  {
    "name": "H O BOUCHARD",
    "city": "HAMPDEN",
    "zip": "04444"
  },
  {
    "name": "HEALING HANDS MASSAGE",
    "city": "HAMPDEN",
    "zip": "04444"
  },
  {
    "name": "HIGGINS ELECTRIC",
    "city": "HAMPDEN",
    "zip": "04444"
  },
  {
    "name": "J AND K LEADBETTER",
    "city": "HAMPDEN",
    "zip": "04444"
  },
  {
    "name": "L & M AND SONS INC",
    "city": "HAMPDEN",
    "zip": "04444"
  },
  {
    "name": "LANPHER INVESTMENT",
    "city": "HAMPDEN",
    "zip": "04444"
  },
  {
    "name": "LEE RESIDENTIAL CARE",
    "city": "HAMPDEN",
    "zip": "04444"
  },
  {
    "name": "MAINE EARTH",
    "city": "HAMPDEN",
    "zip": "04444"
  },
  {
    "name": "MAINELY ENTERTAINMENT DBA",
    "city": "HAMPDEN",
    "zip": "04444"
  },
  {
    "name": "P D Q DOOR",
    "city": "HAMPDEN",
    "zip": "04444"
  },
  {
    "name": "PENOBSCOT MEDICAL",
    "city": "HAMPDEN",
    "zip": "04444"
  },
  {
    "name": "SPECIALTY RESPONSE",
    "city": "HAMPDEN",
    "zip": "04444"
  },
  {
    "name": "TOWN NEWBURGH",
    "city": "HAMPDEN",
    "zip": "04444"
  },
  {
    "name": "TOWN OF HAMPDEN",
    "city": "HAMPDEN",
    "zip": "04444"
  },
  {
    "name": "DENNIS J KING MASONRY INC",
    "city": "HANCOCK",
    "zip": "04640"
  },
  {
    "name": "HAROLD MACQUINN INC",
    "city": "HANCOCK",
    "zip": "04605"
  },
  {
    "name": "MERRILL BLUEBERRY FARMS",
    "city": "HANCOCK",
    "zip": "04640"
  },
  {
    "name": "R E THOMAS",
    "city": "HANCOCK",
    "zip": "04640"
  },
  {
    "name": "BROWN BOX DELIVERY CORP",
    "city": "HARPSWELL",
    "zip": "04079"
  },
  {
    "name": "R A WEBBER",
    "city": "HARPSWELL",
    "zip": "04079"
  },
  {
    "name": "WEBBER ENTERPRISES INC",
    "city": "HARPSWELL",
    "zip": "04079"
  },
  {
    "name": "HARRINGTON FAMILY H C",
    "city": "HARRINGTON",
    "zip": "04643"
  },
  {
    "name": "M S A D #37",
    "city": "HARRINGTON",
    "zip": "04643"
  },
  {
    "name": "COLBY WELCH & ASSOC",
    "city": "HARRISON",
    "zip": "04040"
  },
  {
    "name": "OLDE MILL TAVERN",
    "city": "HARRISON",
    "zip": "04040"
  },
  {
    "name": "SEARLES EXCAVATION",
    "city": "HARRISON",
    "zip": "04040"
  },
  {
    "name": "FAMILY CIRCLES HEALTHCARE",
    "city": "HARTLAND",
    "zip": "04943"
  },
  {
    "name": "TOWN OF HARTLAND",
    "city": "HARTLAND",
    "zip": "04943"
  },
  {
    "name": "BLACK BEAR CRANE",
    "city": "HERMON",
    "zip": "04401"
  },
  {
    "name": "BREWER CHILDREN'S LEARNING",
    "city": "HERMON",
    "zip": "04401"
  },
  {
    "name": "C C ELECTRIC",
    "city": "HERMON",
    "zip": "04401"
  },
  {
    "name": "D A PEARSON HEATING OILS",
    "city": "HERMON",
    "zip": "04401"
  },
  {
    "name": "GAGNON CONSTRUCTION INC",
    "city": "HERMON",
    "zip": "04401"
  },
  {
    "name": "HARTFORD'S AUTO SERVICE",
    "city": "HERMON",
    "zip": "04401"
  },
  {
    "name": "HERMON FAMILY DENTAL",
    "city": "HERMON",
    "zip": "04401"
  },
  {
    "name": "HODGDON TYLER FAMILY",
    "city": "HERMON",
    "zip": "04401"
  },
  {
    "name": "HOWARD TOOL COMPANY",
    "city": "HERMON",
    "zip": "04401"
  },
  {
    "name": "KONTIOS AUTO REPAIR INC",
    "city": "HERMON",
    "zip": "04401"
  },
  {
    "name": "LAPLANTES LAWN CARE LLC",
    "city": "HERMON",
    "zip": "04401"
  },
  {
    "name": "MAINE ACCESSIBILITY",
    "city": "HERMON",
    "zip": "04401"
  },
  {
    "name": "MAINE EQUIPMENT CO INC",
    "city": "HERMON",
    "zip": "04401"
  },
  {
    "name": "MARSH REALTORS",
    "city": "HERMON",
    "zip": "04401"
  },
  {
    "name": "NTENSION",
    "city": "HERMON",
    "zip": "04401"
  },
  {
    "name": "OVERHEAD DOOR CO OF",
    "city": "HERMON",
    "zip": "04401"
  },
  {
    "name": "PETER LYFORD INC DBA",
    "city": "HERMON",
    "zip": "04401"
  },
  {
    "name": "S&S FABRICATION LLC",
    "city": "HERMON",
    "zip": "04401"
  },
  {
    "name": "SNOWMAN PRINTING",
    "city": "HERMON",
    "zip": "04401"
  },
  {
    "name": "THE SHOP INC",
    "city": "HERMON",
    "zip": "04401"
  },
  {
    "name": "TOWN OF HERMON",
    "city": "HERMON",
    "zip": "04401"
  },
  {
    "name": "TRUE POTENTIAL OT LLC",
    "city": "HERMON",
    "zip": "04401"
  },
  {
    "name": "M S A D #55",
    "city": "HIRAM",
    "zip": "04041"
  },
  {
    "name": "APEX METALS",
    "city": "HOLDEN",
    "zip": "04429"
  },
  {
    "name": "ATLANTIC DESIGNS",
    "city": "HOLDEN",
    "zip": "04429"
  },
  {
    "name": "DAMASCUS HOME CARE LLC",
    "city": "HOLDEN",
    "zip": "04429"
  },
  {
    "name": "DIGNITY CARE LLC",
    "city": "HOLDEN",
    "zip": "04429"
  },
  {
    "name": "DORSEY FURNITURE",
    "city": "HOLDEN",
    "zip": "04429"
  },
  {
    "name": "GARRETTS AUTO SALES",
    "city": "HOLDEN",
    "zip": "04429"
  },
  {
    "name": "RONS MOVING LLC",
    "city": "HOLDEN",
    "zip": "04429"
  },
  {
    "name": "SUPERINTENDENT OF SCHOOLS",
    "city": "HOLDEN",
    "zip": "04429"
  },
  {
    "name": "SUPERIOR FENCE INC",
    "city": "HOLDEN",
    "zip": "04429"
  },
  {
    "name": "TOWN OF HOLDEN",
    "city": "HOLDEN",
    "zip": "04429"
  },
  {
    "name": "WILLIAMS AND ASSOICATES PA",
    "city": "HOLDEN",
    "zip": "04429"
  },
  {
    "name": "WIRED ELECTRICAL SERVICES",
    "city": "HOLDEN",
    "zip": "04429"
  },
  {
    "name": "ANYTIME SERVICES FOR",
    "city": "HOLLIS CENTER",
    "zip": "04042"
  },
  {
    "name": "JASON'S AUTO SERVICE",
    "city": "HOLLIS CENTER",
    "zip": "04042"
  },
  {
    "name": "NINNYS HOUSE CHILDCARE",
    "city": "HOLLIS CENTER",
    "zip": "04042"
  },
  {
    "name": "BROOKSIDE PLUMBING INC",
    "city": "HOPE",
    "zip": "04847"
  },
  {
    "name": "ANDY'S IGA",
    "city": "HOULTON",
    "zip": "04730"
  },
  {
    "name": "BATES FUEL",
    "city": "HOULTON",
    "zip": "04730"
  },
  {
    "name": "CARI HUTCHINSON DBA THE",
    "city": "HOULTON",
    "zip": "04730"
  },
  {
    "name": "COMMUNITY LIVING",
    "city": "HOULTON",
    "zip": "04730"
  },
  {
    "name": "CRANE FAMILY INVESTMENT",
    "city": "HOULTON",
    "zip": "04730"
  },
  {
    "name": "CRESTVIEW MANOR",
    "city": "HOULTON",
    "zip": "04730"
  },
  {
    "name": "FA PEABODY COMPANY",
    "city": "HOULTON",
    "zip": "04730"
  },
  {
    "name": "HALL LOGGING LLC",
    "city": "HOULTON",
    "zip": "04730"
  },
  {
    "name": "HARBISON PLUMBING AND HTG",
    "city": "HOULTON",
    "zip": "04730"
  },
  {
    "name": "HORTEN BUILDING SUPPLIES",
    "city": "HOULTON",
    "zip": "04730"
  },
  {
    "name": "HOULTON REGIONAL HOSPITAL",
    "city": "HOULTON",
    "zip": "04730"
  },
  {
    "name": "HOULTON WATER CO",
    "city": "HOULTON",
    "zip": "04730"
  },
  {
    "name": "J H MCPARTLAND & SONS",
    "city": "HOULTON",
    "zip": "04730"
  },
  {
    "name": "J MCLAUGHLIN CONSTRUCTION",
    "city": "HOULTON",
    "zip": "04730"
  },
  {
    "name": "JOYCE & VICKI INC DBA",
    "city": "HOULTON",
    "zip": "04730"
  },
  {
    "name": "LABEL $HOPPER",
    "city": "HOULTON",
    "zip": "04730"
  },
  {
    "name": "LIFE BY DESIGN PA",
    "city": "HOULTON",
    "zip": "04730"
  },
  {
    "name": "MADIGAN ESTATES",
    "city": "HOULTON",
    "zip": "04730"
  },
  {
    "name": "MILLER FARMS",
    "city": "HOULTON",
    "zip": "04730"
  },
  {
    "name": "MSAD 70",
    "city": "HOULTON",
    "zip": "04730"
  },
  {
    "name": "REGION TWO TECH",
    "city": "HOULTON",
    "zip": "04730"
  },
  {
    "name": "ROSS SHEET METAL",
    "city": "HOULTON",
    "zip": "04730"
  },
  {
    "name": "SAGE FINANCIAL",
    "city": "HOULTON",
    "zip": "04730"
  },
  {
    "name": "SCHOOL ADMINISTRATIVE",
    "city": "HOULTON",
    "zip": "04730"
  },
  {
    "name": "SHIRETOWN MOTOR INN",
    "city": "HOULTON",
    "zip": "04730"
  },
  {
    "name": "SHIRETOWN SOLUTIONS LLC",
    "city": "HOULTON",
    "zip": "04730"
  },
  {
    "name": "SLOATS MACHINING AND",
    "city": "HOULTON",
    "zip": "04730"
  },
  {
    "name": "SOUTHERN AROOSTOOK COUNTY",
    "city": "HOULTON",
    "zip": "04730"
  },
  {
    "name": "THE NEW YOU",
    "city": "HOULTON",
    "zip": "04730"
  },
  {
    "name": "TOWN OF HOULTON",
    "city": "HOULTON",
    "zip": "04730"
  },
  {
    "name": "CUMMINGS HEALTH CARE",
    "city": "HOWLAND",
    "zip": "04448"
  },
  {
    "name": "TOWN OF HOWLAND",
    "city": "HOWLAND",
    "zip": "04448"
  },
  {
    "name": "G & H AMBULANCE",
    "city": "HUDSON",
    "zip": "04449"
  },
  {
    "name": "TOWN OF HUDSON",
    "city": "HUDSON",
    "zip": "04449"
  },
  {
    "name": "RL WHITE AND SON",
    "city": "HULLS COVE",
    "zip": "04644"
  },
  {
    "name": "PENOBSCOT INDIAN NATION",
    "city": "INDIAN ISLAND",
    "zip": "04468"
  },
  {
    "name": "SOCKABASIN CONSTRUCTION",
    "city": "INDIAN ISLAND",
    "zip": "04468"
  },
  {
    "name": "PAUL C HATCH JR",
    "city": "ISLESBORO",
    "zip": "04848"
  },
  {
    "name": "PENDLETON YACHT YARD",
    "city": "ISLESBORO",
    "zip": "04848"
  },
  {
    "name": "BISHOP'S STORE INC",
    "city": "JACKMAN",
    "zip": "04945"
  },
  {
    "name": "EJ CARRIER INC",
    "city": "JACKMAN",
    "zip": "04945"
  },
  {
    "name": "JACKMAN POWER SPORTS",
    "city": "JACKMAN",
    "zip": "04945"
  },
  {
    "name": "MOUNTAIN COUNTRY",
    "city": "JACKMAN",
    "zip": "04945"
  },
  {
    "name": "HILLTOP COLLISION",
    "city": "JAY",
    "zip": "04239"
  },
  {
    "name": "JAY, MAINE - LABEL SHOPPER",
    "city": "JAY",
    "zip": "04239"
  },
  {
    "name": "TOWN OF JAY",
    "city": "JAY",
    "zip": "04239"
  },
  {
    "name": "J C STONE INC",
    "city": "JEFFERSON",
    "zip": "04348"
  },
  {
    "name": "BLUEBIRD RANCH",
    "city": "JONESBORO",
    "zip": "04648"
  },
  {
    "name": "JONESBORO ELEMENTARY",
    "city": "JONESBORO",
    "zip": "04648"
  },
  {
    "name": "CARVER CONSTRUCTION INC",
    "city": "JONESPORT",
    "zip": "04649"
  },
  {
    "name": "OW & BS LOOK CO INC",
    "city": "JONESPORT",
    "zip": "04649"
  },
  {
    "name": "A JOYFUL NOISE PRESCHOOL",
    "city": "KENNEBUNK",
    "zip": "04043"
  },
  {
    "name": "ANIMAL WELFARE SOCIETY INC",
    "city": "KENNEBUNK",
    "zip": "04043"
  },
  {
    "name": "BILLY GOAT LANDSCAPING",
    "city": "KENNEBUNK",
    "zip": "04043"
  },
  {
    "name": "CANTARA COMMERCIAL",
    "city": "KENNEBUNK",
    "zip": "04043"
  },
  {
    "name": "COLE HARRISON",
    "city": "KENNEBUNK",
    "zip": "04043"
  },
  {
    "name": "KENNEBUNK KENNEBUNKPORT",
    "city": "KENNEBUNK",
    "zip": "04043"
  },
  {
    "name": "M S A D #71",
    "city": "KENNEBUNK",
    "zip": "04043"
  },
  {
    "name": "NORTHEAST COATING TECH",
    "city": "KENNEBUNK",
    "zip": "04043"
  },
  {
    "name": "SAFE ENVIRONMENTAL",
    "city": "KENNEBUNK",
    "zip": "04043"
  },
  {
    "name": "TLC FOR YOUR GARDEN",
    "city": "KENNEBUNK",
    "zip": "04043"
  },
  {
    "name": "TOWN OF KENNEBUNK",
    "city": "KENNEBUNK",
    "zip": "04043"
  },
  {
    "name": "GONDI LINE VENTURES LLC",
    "city": "KINGFIELD",
    "zip": "04947"
  },
  {
    "name": "JORDAN LUMBER CO INC",
    "city": "KINGFIELD",
    "zip": "04947"
  },
  {
    "name": "MAINELY PROVISIONS INC",
    "city": "KINGFIELD",
    "zip": "04947"
  },
  {
    "name": "HANINGTON BROTHERS INC",
    "city": "KINGMAN",
    "zip": "04451"
  },
  {
    "name": "DOMINO'S PIZZA",
    "city": "KITTERY",
    "zip": "03904"
  },
  {
    "name": "FAMILY EAR NOSE & THROAT",
    "city": "KITTERY",
    "zip": "03904"
  },
  {
    "name": "KITTERY OPTOMETRIC ASSC",
    "city": "KITTERY",
    "zip": "03904"
  },
  {
    "name": "KITTERY SCHOOL DISTRICT",
    "city": "KITTERY",
    "zip": "03904"
  },
  {
    "name": "KITTERY WATER DISTRICT",
    "city": "KITTERY",
    "zip": "03904"
  },
  {
    "name": "NIKE",
    "city": "KITTERY",
    "zip": "03904"
  },
  {
    "name": "CAT TRAX",
    "city": "LAGRANGE",
    "zip": "04453"
  },
  {
    "name": "M S A D #31",
    "city": "LAGRANGE",
    "zip": "04453"
  },
  {
    "name": "EDDIE B TOWING AND",
    "city": "LEBANON",
    "zip": "04027"
  },
  {
    "name": "KEN GAGNON ELECTRIC LLC",
    "city": "LEBANON",
    "zip": "04027"
  },
  {
    "name": "PROFILE STATE LINE",
    "city": "LEBANON",
    "zip": "04027"
  },
  {
    "name": "SIMPLIFIED GREEN HOMES",
    "city": "LEBANON",
    "zip": "04027"
  },
  {
    "name": "M S A D #30/UNION 110",
    "city": "LEE",
    "zip": "04455"
  },
  {
    "name": "T RAYMOND FOREST PRODUCTS",
    "city": "LEE",
    "zip": "04455"
  },
  {
    "name": "COMPLETE EXCAVATION INC",
    "city": "LEEDS",
    "zip": "04263"
  },
  {
    "name": "STEVE'S TUNE AND TIRE",
    "city": "LEEDS",
    "zip": "04263"
  },
  {
    "name": "TOWN OF LEEDS",
    "city": "LEEDS",
    "zip": "04263"
  },
  {
    "name": "BOUDREAUS CONCRETE LLC",
    "city": "LEVANT",
    "zip": "04456"
  },
  {
    "name": "GRAY EARTHWORKS",
    "city": "LEVANT",
    "zip": "04456"
  },
  {
    "name": "GRIFFIN PROPERTIES LLC",
    "city": "LEVANT",
    "zip": "04456"
  },
  {
    "name": "HACHEY'S AUTO ENHANCING",
    "city": "LEVANT",
    "zip": "04456"
  },
  {
    "name": "MCLAUGHLIN FINE",
    "city": "LEVANT",
    "zip": "04456"
  },
  {
    "name": "MID MAINE COMMERCIAL",
    "city": "LEVANT",
    "zip": "04456"
  },
  {
    "name": "OLLIES MARKET INC",
    "city": "LEVANT",
    "zip": "04456"
  },
  {
    "name": "ABOVE & BEYOND LLC",
    "city": "LEWISTON",
    "zip": "04240"
  },
  {
    "name": "AFFORDABLE OFFICE",
    "city": "LEWISTON",
    "zip": "04240"
  },
  {
    "name": "ALLEN MANUFATURING INC",
    "city": "LEWISTON",
    "zip": "04240"
  },
  {
    "name": "AN ANGELS WING",
    "city": "LEWISTON",
    "zip": "04240"
  },
  {
    "name": "B AND T PALLET RECYCLING",
    "city": "LEWISTON",
    "zip": "04240"
  },
  {
    "name": "BUTLER BROS",
    "city": "LEWISTON",
    "zip": "04240"
  },
  {
    "name": "CENTRAL MAINE FCU",
    "city": "LEWISTON",
    "zip": "04240"
  },
  {
    "name": "CITY OF LEWISTON",
    "city": "LEWISTON",
    "zip": "04240"
  },
  {
    "name": "COLLINS CARPET CLEANING",
    "city": "LEWISTON",
    "zip": "04240"
  },
  {
    "name": "COMBINED MANAGEMENT",
    "city": "LEWISTON",
    "zip": "04240"
  },
  {
    "name": "COMBINED MANAGEMENT INC",
    "city": "LEWISTON",
    "zip": "04240"
  },
  {
    "name": "COMBINED MANAGEMENT INC",
    "city": "LEWISTON",
    "zip": "04240"
  },
  {
    "name": "DEBLOIS ELECTRIC INC",
    "city": "LEWISTON",
    "zip": "04240"
  },
  {
    "name": "DMR SEALCOATING AND PAVING",
    "city": "LEWISTON",
    "zip": "04240"
  },
  {
    "name": "FIRST CHOICE DISCOUNT",
    "city": "LEWISTON",
    "zip": "04240"
  },
  {
    "name": "FMG ENTERPRISES OF NE INC",
    "city": "LEWISTON",
    "zip": "04240"
  },
  {
    "name": "G & G LANDSCAPING",
    "city": "LEWISTON",
    "zip": "04240"
  },
  {
    "name": "GIROUX AND FAMILY MASONRY",
    "city": "LEWISTON",
    "zip": "04240"
  },
  {
    "name": "GREATER ANDROSCOGGIN",
    "city": "LEWISTON",
    "zip": "04240"
  },
  {
    "name": "HANNAFORD FOOD & DRUG",
    "city": "LEWISTON",
    "zip": "04240"
  },
  {
    "name": "L A PROFESSIONAL",
    "city": "LEWISTON",
    "zip": "04240"
  },
  {
    "name": "LEVER S DAY CARE CENTER",
    "city": "LEWISTON",
    "zip": "04240"
  },
  {
    "name": "LISBON DONUTS INC",
    "city": "LEWISTON",
    "zip": "04240"
  },
  {
    "name": "MAINE RADIATOR MFG",
    "city": "LEWISTON",
    "zip": "04240"
  },
  {
    "name": "NADCO LLC",
    "city": "LEWISTON",
    "zip": "04240"
  },
  {
    "name": "NEOKRAFT SIGNS INC",
    "city": "LEWISTON",
    "zip": "04240"
  },
  {
    "name": "NORTHEAST BANK",
    "city": "LEWISTON",
    "zip": "04240"
  },
  {
    "name": "NORTHEAST CHARTER & TOUR",
    "city": "LEWISTON",
    "zip": "04240"
  },
  {
    "name": "OPTOMETRIC ASSOCIATES",
    "city": "LEWISTON",
    "zip": "04240"
  },
  {
    "name": "PACHECO FOODSERVICE LLC",
    "city": "LEWISTON",
    "zip": "04240"
  },
  {
    "name": "REGIONAL ELECTRIC",
    "city": "LEWISTON",
    "zip": "04240"
  },
  {
    "name": "ROOPERS BEVERAGE AND",
    "city": "LEWISTON",
    "zip": "04240"
  },
  {
    "name": "S & D INC",
    "city": "LEWISTON",
    "zip": "04240"
  },
  {
    "name": "SCHEMENGEES BAR & GRILL",
    "city": "LEWISTON",
    "zip": "04240"
  },
  {
    "name": "SHERM ARNOLDS FLOORING",
    "city": "LEWISTON",
    "zip": "04240"
  },
  {
    "name": "SIMARD & SONS INC",
    "city": "LEWISTON",
    "zip": "04240"
  },
  {
    "name": "SOUND LIMBS ORTHOTICS",
    "city": "LEWISTON",
    "zip": "04240"
  },
  {
    "name": "SYLVAIN BUILDERS",
    "city": "LEWISTON",
    "zip": "04240"
  },
  {
    "name": "THE DOUGH COMPANY",
    "city": "LEWISTON",
    "zip": "04240"
  },
  {
    "name": "THE MEDICINE SHOPPE",
    "city": "LEWISTON",
    "zip": "04240"
  },
  {
    "name": "TRISTATE INSULATION",
    "city": "LEWISTON",
    "zip": "04240"
  },
  {
    "name": "CENTRAL VENTURES LLC",
    "city": "LIMERICK",
    "zip": "04048"
  },
  {
    "name": "DANIEL DUNNNELLS LOGGING,",
    "city": "LIMERICK",
    "zip": "04028"
  },
  {
    "name": "LIMERICK TRANSMISSION",
    "city": "LIMERICK",
    "zip": "04048"
  },
  {
    "name": "UPTOWN AUTO",
    "city": "LIMERICK",
    "zip": "04048"
  },
  {
    "name": "CALDWELL'S AUTO LLC",
    "city": "LIMESTONE",
    "zip": "04750"
  },
  {
    "name": "DFAS LIMESTONE BENEFITS",
    "city": "LIMESTONE",
    "zip": "04750"
  },
  {
    "name": "LIMESTONE SCHOOL",
    "city": "LIMESTONE",
    "zip": "04750"
  },
  {
    "name": "MAINE SCHOOL OF SCIENCE",
    "city": "LIMESTONE",
    "zip": "04750"
  },
  {
    "name": "TOWN OF LIMESTONE",
    "city": "LIMESTONE",
    "zip": "04750"
  },
  {
    "name": "TROMBLEY INDUSTRIES",
    "city": "LIMESTONE",
    "zip": "04750"
  },
  {
    "name": "CARLS AUTO PARTS",
    "city": "LINCOLN",
    "zip": "04457"
  },
  {
    "name": "CHIPS CITGO LLC",
    "city": "LINCOLN",
    "zip": "04457"
  },
  {
    "name": "E H DOWNS",
    "city": "LINCOLN",
    "zip": "04457"
  },
  {
    "name": "GEMTECH AUTO REPAIR",
    "city": "LINCOLN",
    "zip": "04457"
  },
  {
    "name": "HEALTH ACCESS NETWORK",
    "city": "LINCOLN",
    "zip": "04457"
  },
  {
    "name": "JD PLUMBING AND HEATING",
    "city": "LINCOLN",
    "zip": "04457"
  },
  {
    "name": "LINCOLN COLOR CENTER",
    "city": "LINCOLN",
    "zip": "04457"
  },
  {
    "name": "LINCOLN MAINE FED CR UN",
    "city": "LINCOLN",
    "zip": "04457"
  },
  {
    "name": "LINCOLN NEWS",
    "city": "LINCOLN",
    "zip": "04457"
  },
  {
    "name": "LINCOLN WATER DISRICT",
    "city": "LINCOLN",
    "zip": "04457"
  },
  {
    "name": "LOPEZ AND ASSOCIATES",
    "city": "LINCOLN",
    "zip": "04457"
  },
  {
    "name": "MC COMMUNITY SERVICES LLC",
    "city": "LINCOLN",
    "zip": "04457"
  },
  {
    "name": "NICASTRO LANDSCAPING INC",
    "city": "LINCOLN",
    "zip": "04457"
  },
  {
    "name": "NORTHERN PINE CARE ESTATES",
    "city": "LINCOLN",
    "zip": "04457"
  },
  {
    "name": "PELLETIER FORD OF LINCOLN",
    "city": "LINCOLN",
    "zip": "04457"
  },
  {
    "name": "PENOBSCOT VALLEY HOSPITAL",
    "city": "LINCOLN",
    "zip": "04457"
  },
  {
    "name": "REGION III VOCATIONAL",
    "city": "LINCOLN",
    "zip": "04457"
  },
  {
    "name": "RSU NO.67",
    "city": "LINCOLN",
    "zip": "04457"
  },
  {
    "name": "THORNTON BROS INC",
    "city": "LINCOLN",
    "zip": "04457"
  },
  {
    "name": "TOWN OF LINCOLN",
    "city": "LINCOLN",
    "zip": "04457"
  },
  {
    "name": "TREELINE INC",
    "city": "LINCOLN",
    "zip": "04457"
  },
  {
    "name": "TURNING POINT MENTAL",
    "city": "LINCOLN",
    "zip": "04457"
  },
  {
    "name": "ADAM HUTCHINSON",
    "city": "LINNEUS",
    "zip": "04730"
  },
  {
    "name": "LISBON COMMUNITY FCU",
    "city": "LISBON",
    "zip": "04250"
  },
  {
    "name": "THE SHOP CLASSIC RESTORAT",
    "city": "LISBON",
    "zip": "04250"
  },
  {
    "name": "TOWN OF LISBON",
    "city": "LISBON",
    "zip": "04250"
  },
  {
    "name": "CURRENT ELECTRIC LLC",
    "city": "LISBON FALLS",
    "zip": "04252"
  },
  {
    "name": "JOHN D CRAFTS INC",
    "city": "LISBON FALLS",
    "zip": "04252"
  },
  {
    "name": "AMIES PLACE",
    "city": "LITCHFIELD",
    "zip": "04350"
  },
  {
    "name": "BRIGHT IDEAS CHILDCARE",
    "city": "LIVERMORE",
    "zip": "04253"
  },
  {
    "name": "BLUE RIDGE COUNSELING",
    "city": "LIVERMORE FALLS",
    "zip": "04254"
  },
  {
    "name": "PINETREE ORTHOPEDIC LAB",
    "city": "LIVERMORE FALLS",
    "zip": "04254"
  },
  {
    "name": "TOWN OF LIVERMORE FALLS",
    "city": "LIVERMORE FALLS",
    "zip": "04254"
  },
  {
    "name": "LOVELL LUMBER CO INC",
    "city": "LOVELL",
    "zip": "04051"
  },
  {
    "name": "WENTWORTH 925 AUTO",
    "city": "LOVELL",
    "zip": "04051"
  },
  {
    "name": "HEALTH WAYS REGIONAL M C",
    "city": "LUBEC",
    "zip": "04652"
  },
  {
    "name": "LUBEC ELEMENTARY SCHOOL",
    "city": "LUBEC",
    "zip": "04652"
  },
  {
    "name": "R J PEACOCK CANNING CO",
    "city": "LUBEC",
    "zip": "04652"
  },
  {
    "name": "REGIONAL MEDICAL CENTER",
    "city": "LUBEC",
    "zip": "04652"
  },
  {
    "name": "TOWN OF LUBEC",
    "city": "LUBEC",
    "zip": "04652"
  },
  {
    "name": "HELEN'S RESTAURANT MACHIAS",
    "city": "MACHIAS",
    "zip": "04654"
  },
  {
    "name": "LP MALLAR AND SONS INC",
    "city": "MACHIAS",
    "zip": "04654"
  },
  {
    "name": "SCHOOL UNION 102",
    "city": "MACHIAS",
    "zip": "04654"
  },
  {
    "name": "SUNRISE OPPORTUNITIES",
    "city": "MACHIAS",
    "zip": "04654"
  },
  {
    "name": "TOWN MACHIAS",
    "city": "MACHIAS",
    "zip": "04654"
  },
  {
    "name": "ULTIMATE IMAGE HAIR SALON",
    "city": "MACHIAS",
    "zip": "04654"
  },
  {
    "name": "WASHINGTON COUNTY",
    "city": "MACHIAS",
    "zip": "04654"
  },
  {
    "name": "ALETE SALON & SPA",
    "city": "MADAWASKA",
    "zip": "04756"
  },
  {
    "name": "CENTRAL MAINE",
    "city": "MADAWASKA",
    "zip": "04756"
  },
  {
    "name": "COUNTRY VILLAGE ESTATES",
    "city": "MADAWASKA",
    "zip": "04756"
  },
  {
    "name": "HIGH VIEW MANOR",
    "city": "MADAWASKA",
    "zip": "04756"
  },
  {
    "name": "INN OF ACADIA",
    "city": "MADAWASKA",
    "zip": "04756"
  },
  {
    "name": "MAIN STREET AUTO REPAIR",
    "city": "MADAWASKA",
    "zip": "04756"
  },
  {
    "name": "OASIS DAY SPA",
    "city": "MADAWASKA",
    "zip": "04756"
  },
  {
    "name": "PELLETIER & SONS CO",
    "city": "MADAWASKA",
    "zip": "04756"
  },
  {
    "name": "RIDGEWOOD ESTATES",
    "city": "MADAWASKA",
    "zip": "04756"
  },
  {
    "name": "ROBERT'S JEWELRY",
    "city": "MADAWASKA",
    "zip": "04756"
  },
  {
    "name": "TOWN OF MADAWASKA",
    "city": "MADAWASKA",
    "zip": "04756"
  },
  {
    "name": "TTM INC CO GERALD T",
    "city": "MADAWASKA",
    "zip": "04756"
  },
  {
    "name": "BOBS CASH FUEL",
    "city": "MADISON",
    "zip": "04950"
  },
  {
    "name": "FINE LINE PAVING",
    "city": "MADISON",
    "zip": "04950"
  },
  {
    "name": "FRANKLIN SOMERSET FEDERAL",
    "city": "MADISON",
    "zip": "04950"
  },
  {
    "name": "SACKETT AND BRAKE SURVEY",
    "city": "MADISON",
    "zip": "04950"
  },
  {
    "name": "TOWN OF MADISON",
    "city": "MADISON",
    "zip": "04950"
  },
  {
    "name": "TR DILLON LOGGING",
    "city": "MADISON",
    "zip": "04950"
  },
  {
    "name": "FOURTEEN FORTY FINANCIAL",
    "city": "MANCHESTER",
    "zip": "04351"
  },
  {
    "name": "J&S PLOWING AND LAWN CARE",
    "city": "MANCHESTER",
    "zip": "04351"
  },
  {
    "name": "MAINE DENTAL ASSOCIATION",
    "city": "MANCHESTER",
    "zip": "04351"
  },
  {
    "name": "MAINE MEDICAL ASSOCIATION",
    "city": "MANCHESTER",
    "zip": "04351"
  },
  {
    "name": "SCOTTS RECREATION",
    "city": "MANCHESTER",
    "zip": "04351"
  },
  {
    "name": "BEN'S TRADING POST",
    "city": "MAPLETON",
    "zip": "04757"
  },
  {
    "name": "BUCK CONSTRUCTION",
    "city": "MAPLETON",
    "zip": "04757"
  },
  {
    "name": "ML SAVOY TRUCKING",
    "city": "MAPLETON",
    "zip": "04757"
  },
  {
    "name": "PORTER FARMS LLC",
    "city": "MAPLETON",
    "zip": "04757"
  },
  {
    "name": "TOWN OF MAPLETON",
    "city": "MAPLETON",
    "zip": "04757"
  },
  {
    "name": "UNDERWOOD ELECTRIC",
    "city": "MAPLETON",
    "zip": "04757"
  },
  {
    "name": "H SMITH",
    "city": "MARS HILL",
    "zip": "04758"
  },
  {
    "name": "MARS HILL IGA",
    "city": "MARS HILL",
    "zip": "04758"
  },
  {
    "name": "MSAD 42",
    "city": "MARS HILL",
    "zip": "04758"
  },
  {
    "name": "S F BURTT & SON INC",
    "city": "MARS HILL",
    "zip": "04758"
  },
  {
    "name": "SARGENT TRUCKING PIEDMONT",
    "city": "MARS HILL",
    "zip": "04758"
  },
  {
    "name": "DAAQUAM LUMBER MAINE INC",
    "city": "MASARDIS",
    "zip": "04732"
  },
  {
    "name": "TOWN OF MATTAWAMKEAG",
    "city": "MATTAWAMKEAG",
    "zip": "04459"
  },
  {
    "name": "DAD'S PLACE",
    "city": "MECHANIC FALLS",
    "zip": "04256"
  },
  {
    "name": "HAFFORD FINANCIAL SERVICES",
    "city": "MEDWAY",
    "zip": "04460"
  },
  {
    "name": "MEDWAY SCHOOL DEPARTMENT",
    "city": "MEDWAY",
    "zip": "04460"
  },
  {
    "name": "NICATOU STOVE SHOP",
    "city": "MEDWAY",
    "zip": "04460"
  },
  {
    "name": "STANLEY'S AUTO CENTER",
    "city": "MEDWAY",
    "zip": "04460"
  },
  {
    "name": "TOWN OF MEDWAY",
    "city": "MEDWAY",
    "zip": "04460"
  },
  {
    "name": "A & A PARTS REPAIR INC",
    "city": "MEXICO",
    "zip": "04257"
  },
  {
    "name": "ARCHIE'S INC",
    "city": "MEXICO",
    "zip": "04257"
  },
  {
    "name": "DICKS RESTAURANT",
    "city": "MEXICO",
    "zip": "04257"
  },
  {
    "name": "MED CARE AMBULANCE",
    "city": "MEXICO",
    "zip": "04257"
  },
  {
    "name": "ON THE GO TOES",
    "city": "MEXICO",
    "zip": "04257"
  },
  {
    "name": "REGION 9 SCHOOL OF APPLIED",
    "city": "MEXICO",
    "zip": "04257"
  },
  {
    "name": "TOWN OF MEXICO",
    "city": "MEXICO",
    "zip": "04257"
  },
  {
    "name": "JASPER WYMAN & SON",
    "city": "MILBRIDGE",
    "zip": "04658"
  },
  {
    "name": "NARRAGUAGUS HEALTH CARE",
    "city": "MILBRIDGE",
    "zip": "04658"
  },
  {
    "name": "STEP BY STEP CHILDCARE INC",
    "city": "MILBRIDGE",
    "zip": "04658"
  },
  {
    "name": "THE O T SPOT LLC",
    "city": "MILBRIDGE",
    "zip": "04658"
  },
  {
    "name": "TOWN OF MILBRIDGE",
    "city": "MILBRIDGE",
    "zip": "04658"
  },
  {
    "name": "LINDSEY FOUNDATIONS INC",
    "city": "MILFORD",
    "zip": "04461"
  },
  {
    "name": "MILFORD SCHOOL DEPARTMENT",
    "city": "MILFORD",
    "zip": "04461"
  },
  {
    "name": "MILFORD TOWN OFFICE",
    "city": "MILFORD",
    "zip": "04461"
  },
  {
    "name": "THERAPEUTIC LEARNING",
    "city": "MILFORD",
    "zip": "04461"
  },
  {
    "name": "WEYMOUTH GARAGE",
    "city": "MILFORD",
    "zip": "04461"
  },
  {
    "name": "KATAHDIN MOTORS INC",
    "city": "MILLINOCKET",
    "zip": "04462"
  },
  {
    "name": "MAINE HERITAGE TIMBER LLC",
    "city": "MILLINOCKET",
    "zip": "04462"
  },
  {
    "name": "MILLINOCKET FAB & MACHINE",
    "city": "MILLINOCKET",
    "zip": "04462"
  },
  {
    "name": "MILLINOCKET REGIONAL",
    "city": "MILLINOCKET",
    "zip": "04462"
  },
  {
    "name": "PELLETIER MANUFACTURING",
    "city": "MILLINOCKET",
    "zip": "04462"
  },
  {
    "name": "STEEL MAGNOLIAS DAY SPA",
    "city": "MILLINOCKET",
    "zip": "04462"
  },
  {
    "name": "STUDIO ONE DANCE AND",
    "city": "MILLINOCKET",
    "zip": "04462"
  },
  {
    "name": "TOWN OF MILLINOCKET",
    "city": "MILLINOCKET",
    "zip": "04462"
  },
  {
    "name": "KATAHDIN RAILCAR SERVICES",
    "city": "MILO",
    "zip": "04463"
  },
  {
    "name": "LUMBRA HARDWOODS INC",
    "city": "MILO",
    "zip": "04463"
  },
  {
    "name": "MAINE GENERATOR AND SOLAR",
    "city": "MILO",
    "zip": "04463"
  },
  {
    "name": "MILO MARKET INC",
    "city": "MILO",
    "zip": "04463"
  },
  {
    "name": "THE TOWN OF MILO",
    "city": "MILO",
    "zip": "04463"
  },
  {
    "name": "THREE RIVERS AMBULANCE",
    "city": "MILO",
    "zip": "04463"
  },
  {
    "name": "TOWN OF MILO",
    "city": "MILO",
    "zip": "04463"
  },
  {
    "name": "M+K ENTERPRISES LLC",
    "city": "MILTON TWP",
    "zip": "04219"
  },
  {
    "name": "A1 LA USED APPLIANCE INC",
    "city": "MINOT",
    "zip": "04258"
  },
  {
    "name": "TOWN OF MINOT",
    "city": "MINOT",
    "zip": "04258"
  },
  {
    "name": "MAINE HERITAGE WEAVERS",
    "city": "MONMOUTH",
    "zip": "04259"
  },
  {
    "name": "INNOVATION BEHAVIOR",
    "city": "MONTICELLO",
    "zip": "04760"
  },
  {
    "name": "SURETECH ACCESS SYSTEMS",
    "city": "MORRILL",
    "zip": "04952"
  },
  {
    "name": "DEEP COVE HOLDINGS",
    "city": "MOUNT DESERT",
    "zip": "04660"
  },
  {
    "name": "JOHN WILLIAMS BOAT COMPANY",
    "city": "MOUNT DESERT",
    "zip": "04660"
  },
  {
    "name": "MCM ELECTRIC",
    "city": "MOUNT DESERT",
    "zip": "04660"
  },
  {
    "name": "BOSWORTH ELECTRIC INC",
    "city": "NAPLES",
    "zip": "04055"
  },
  {
    "name": "GARYS OLD TOWNE TAVERN",
    "city": "NAPLES",
    "zip": "04055"
  },
  {
    "name": "LONG LAKE MARINA",
    "city": "NAPLES",
    "zip": "04055"
  },
  {
    "name": "TONYS FOODLAND",
    "city": "NAPLES",
    "zip": "04055"
  },
  {
    "name": "TOWN OF NAPLES",
    "city": "NAPLES",
    "zip": "04055"
  },
  {
    "name": "CLEAN CUT BUILDING AND",
    "city": "NEW GLOUCESTER",
    "zip": "04260"
  },
  {
    "name": "HIDE AND SEEK CHILD CARE",
    "city": "NEW GLOUCESTER",
    "zip": "04260"
  },
  {
    "name": "KIDSQUARTERS CHILD CARE",
    "city": "NEW GLOUCESTER",
    "zip": "04260"
  },
  {
    "name": "MCCANN FABRICATION",
    "city": "NEW GLOUCESTER",
    "zip": "04260"
  },
  {
    "name": "PINE TREE HOME HEALTH CARE",
    "city": "NEW GLOUCESTER",
    "zip": "04260"
  },
  {
    "name": "PORTLAND INSULATION INC",
    "city": "NEW GLOUCESTER",
    "zip": "04260"
  },
  {
    "name": "RISE AND SHINE CHILDCARE",
    "city": "NEW GLOUCESTER",
    "zip": "04260"
  },
  {
    "name": "THERMAL FABRICATION",
    "city": "NEW GLOUCESTER",
    "zip": "04260"
  },
  {
    "name": "THERMAL LOCK INC",
    "city": "NEW GLOUCESTER",
    "zip": "04260"
  },
  {
    "name": "RONALD PENDLETON INC",
    "city": "NEW HARBOR",
    "zip": "04554"
  },
  {
    "name": "SILVER VALLEY FARM",
    "city": "NEW SHARON",
    "zip": "04955"
  },
  {
    "name": "ANDERSON'S AUTO",
    "city": "NEW SWEDEN",
    "zip": "04762"
  },
  {
    "name": "HONEY DO MAINTENANCE AND",
    "city": "NEW SWEDEN",
    "zip": "04762"
  },
  {
    "name": "ACADIA AUTO GROUP",
    "city": "NEWBURGH",
    "zip": "04419"
  },
  {
    "name": "JP CONTRACTING COMPANY INC",
    "city": "NEWBURGH",
    "zip": "04444"
  },
  {
    "name": "MAC'S PAINT & BODY SHOP",
    "city": "NEWBURGH",
    "zip": "04444"
  },
  {
    "name": "BONUS REDEMPTION INC",
    "city": "NEWCASTLE",
    "zip": "04553"
  },
  {
    "name": "LINCOLN COUNTY PUBLISHING",
    "city": "NEWCASTLE",
    "zip": "04553"
  },
  {
    "name": "THE LINCOLN HOME",
    "city": "NEWCASTLE",
    "zip": "04553"
  },
  {
    "name": "BANTON BROTHERS INC",
    "city": "NEWPORT",
    "zip": "04953"
  },
  {
    "name": "BOWMAN CONSTRUCTORS",
    "city": "NEWPORT",
    "zip": "04953"
  },
  {
    "name": "BROCKWAY AGENCY",
    "city": "NEWPORT",
    "zip": "04953"
  },
  {
    "name": "COVE SIDE WHEEL AND SKI",
    "city": "NEWPORT",
    "zip": "04953"
  },
  {
    "name": "FOXY HAIR DESIGNS",
    "city": "NEWPORT",
    "zip": "04953"
  },
  {
    "name": "KELLY SMITH PRINTING",
    "city": "NEWPORT",
    "zip": "04953"
  },
  {
    "name": "LYLE PEIRCE INC",
    "city": "NEWPORT",
    "zip": "04953"
  },
  {
    "name": "MAINE ASSISTIVE TECHNOLOGY",
    "city": "NEWPORT",
    "zip": "04953"
  },
  {
    "name": "NEWPORT CHIROPRACTIC",
    "city": "NEWPORT",
    "zip": "04953"
  },
  {
    "name": "NEWPORT ENTERTAINMENT",
    "city": "NEWPORT",
    "zip": "04953"
  },
  {
    "name": "NEWPORT GLASS LLC",
    "city": "NEWPORT",
    "zip": "04953"
  },
  {
    "name": "NEWPORT MONUMENT",
    "city": "NEWPORT",
    "zip": "04953"
  },
  {
    "name": "PLYMOUTH ENGINEERING INC",
    "city": "NEWPORT",
    "zip": "04953"
  },
  {
    "name": "RSU 19",
    "city": "NEWPORT",
    "zip": "04953"
  },
  {
    "name": "SCHOOL NUTRITION PROGRAM",
    "city": "NEWPORT",
    "zip": "04953"
  },
  {
    "name": "SENSATIONAL MINDS EARLY",
    "city": "NEWPORT",
    "zip": "04953"
  },
  {
    "name": "TECHNOLOGY SOLUTIONS INC",
    "city": "NEWPORT",
    "zip": "04953"
  },
  {
    "name": "TOWN OF NEWPORT",
    "city": "NEWPORT",
    "zip": "04953"
  },
  {
    "name": "TOWN OF NEWRY",
    "city": "NEWRY",
    "zip": "04261"
  },
  {
    "name": "HATCH WELL DRILLERS",
    "city": "NOBLEBORO",
    "zip": "04555"
  },
  {
    "name": "NS DESIGN",
    "city": "NOBLEBORO",
    "zip": "04555"
  },
  {
    "name": "3D EQUIPMENT LLC",
    "city": "NORRIDGEWOCK",
    "zip": "04957"
  },
  {
    "name": "DW & SONS GARAGE",
    "city": "NORRIDGEWOCK",
    "zip": "04957"
  },
  {
    "name": "THE QUIMBY CHILD CARE",
    "city": "NORRIDGEWOCK",
    "zip": "04957"
  },
  {
    "name": "NORTH BERWICK WATER DISTRC",
    "city": "NORTH BERWICK",
    "zip": "03906"
  },
  {
    "name": "BRIDGTON ACADEMY",
    "city": "NORTH BRIDGTON",
    "zip": "04057"
  },
  {
    "name": "TJ'S PIZZERIA",
    "city": "NORTH MONMOUTH",
    "zip": "04265"
  },
  {
    "name": "FAT ANDY S HARDWOODS",
    "city": "NORTH YARMOUTH",
    "zip": "04097"
  },
  {
    "name": "NORTH CORNER AUTOMOTIVE",
    "city": "NORTH YARMOUTH",
    "zip": "04097"
  },
  {
    "name": "TOWN OF NORTH YARMOUTH",
    "city": "NORTH YARMOUTH",
    "zip": "04097"
  },
  {
    "name": "TOWN OF MOUNT DESERT",
    "city": "NORTHEAST HARBOR",
    "zip": "04662"
  },
  {
    "name": "REIDS",
    "city": "NORTHPORT",
    "zip": "04849"
  },
  {
    "name": "ABC RUBBISH INC",
    "city": "NORWAY",
    "zip": "04268"
  },
  {
    "name": "COMMON GROUND COUNSELING",
    "city": "NORWAY",
    "zip": "04268"
  },
  {
    "name": "DOUBLE T FENCE",
    "city": "NORWAY",
    "zip": "04268"
  },
  {
    "name": "NORTHEAST TOOL & DIE",
    "city": "NORWAY",
    "zip": "04268"
  },
  {
    "name": "SET CONNECTORS INC",
    "city": "NORWAY",
    "zip": "04268"
  },
  {
    "name": "STURTEVANT PLUMBING",
    "city": "NORWAY",
    "zip": "04268"
  },
  {
    "name": "TOWN OF NORWAY",
    "city": "NORWAY",
    "zip": "04268"
  },
  {
    "name": "CONRAD'S AUTO BODY",
    "city": "OAKLAND",
    "zip": "04963"
  },
  {
    "name": "D & L COUNTRY STORE LLC",
    "city": "OAKLAND",
    "zip": "04963"
  },
  {
    "name": "D H PINNETTE & SONS INC",
    "city": "OAKLAND",
    "zip": "04963"
  },
  {
    "name": "FABIAN OIL INC",
    "city": "OAKLAND",
    "zip": "04963"
  },
  {
    "name": "FRED S COFFEE",
    "city": "OAKLAND",
    "zip": "04963"
  },
  {
    "name": "HALLS HOMES",
    "city": "OAKLAND",
    "zip": "04963"
  },
  {
    "name": "KENNEBEC VETERINARY SVC",
    "city": "OAKLAND",
    "zip": "04963"
  },
  {
    "name": "POPPY PATCH LEARNING",
    "city": "OAKLAND",
    "zip": "04963"
  },
  {
    "name": "BEACHMERE INN W2",
    "city": "OGUNQUIT",
    "zip": "03907"
  },
  {
    "name": "VILLAGE FOOD MARKET",
    "city": "OGUNQUIT",
    "zip": "03907"
  },
  {
    "name": "MAINE AGENTS GROUP",
    "city": "OLD ORCHARD BCH",
    "zip": "04064"
  },
  {
    "name": "JOSEPHS BY THE SEA",
    "city": "OLD ORCHARD BEACH",
    "zip": "04064"
  },
  {
    "name": "SHERWOOD TRADING COMPANY",
    "city": "OLD ORCHARD BEACH",
    "zip": "04064"
  },
  {
    "name": "TOWN OF OLD ORCHARD BEACH",
    "city": "OLD ORCHARD BEACH",
    "zip": "04064"
  },
  {
    "name": "AUTUMN OF LIFE IN HOME",
    "city": "OLD TOWN",
    "zip": "04468"
  },
  {
    "name": "FAR BEHIND INK",
    "city": "OLD TOWN",
    "zip": "04468"
  },
  {
    "name": "GENERAL RENTAL",
    "city": "OLD TOWN",
    "zip": "04468"
  },
  {
    "name": "GLOBAL SECURE SHIPPING",
    "city": "OLD TOWN",
    "zip": "04468"
  },
  {
    "name": "JACKSON AUTOMOTIVE INC",
    "city": "OLD TOWN",
    "zip": "04468"
  },
  {
    "name": "JOHN T CYR & SONS INC",
    "city": "OLD TOWN",
    "zip": "04468"
  },
  {
    "name": "MADDEN TIMBERLANDS INC",
    "city": "OLD TOWN",
    "zip": "04468"
  },
  {
    "name": "MAINE LOGISTIC SOLUTIONS L",
    "city": "OLD TOWN",
    "zip": "04468"
  },
  {
    "name": "OLD TOWN WATER DISTRICT",
    "city": "OLD TOWN",
    "zip": "04468"
  },
  {
    "name": "PEN CO CONTRACTING",
    "city": "OLD TOWN",
    "zip": "04468"
  },
  {
    "name": "PENOBSCOT SHOE COMPANY",
    "city": "OLD TOWN",
    "zip": "04468"
  },
  {
    "name": "RIVERSEDGE CHIROPRACTIC",
    "city": "OLD TOWN",
    "zip": "04468"
  },
  {
    "name": "RJ DENTAL DBA OLD TOWN",
    "city": "OLD TOWN",
    "zip": "04468"
  },
  {
    "name": "RLE OLD TOWN LLC DBA",
    "city": "OLD TOWN",
    "zip": "04468"
  },
  {
    "name": "RSU 34",
    "city": "OLD TOWN",
    "zip": "04468"
  },
  {
    "name": "THE MEADOWS",
    "city": "OLD TOWN",
    "zip": "04468"
  },
  {
    "name": "COLIN BARTLETT & SONS, INC",
    "city": "ORIENT",
    "zip": "04471"
  },
  {
    "name": "BUCKSPORT VETERINARY",
    "city": "ORLAND",
    "zip": "04472"
  },
  {
    "name": "FRESHWATER STONE &",
    "city": "ORLAND",
    "zip": "04472"
  },
  {
    "name": "STANLEY LEACH BUILDERS",
    "city": "ORLAND",
    "zip": "04472"
  },
  {
    "name": "INDEPENDENCE ADVOCATES OF",
    "city": "ORONO",
    "zip": "04473"
  },
  {
    "name": "ORONO CHIROPRACTIC",
    "city": "ORONO",
    "zip": "04473"
  },
  {
    "name": "ORONO VEAZIE WATER",
    "city": "ORONO",
    "zip": "04473"
  },
  {
    "name": "PIKE & CRAFT ORONO LLC DBA",
    "city": "ORONO",
    "zip": "04473"
  },
  {
    "name": "SHAW AND TENNEY",
    "city": "ORONO",
    "zip": "04473"
  },
  {
    "name": "THE FAMILY DOG",
    "city": "ORONO",
    "zip": "04473"
  },
  {
    "name": "EXILES MOTORCYCLE CLUB INC",
    "city": "ORRINGTON",
    "zip": "04474"
  },
  {
    "name": "FOX",
    "city": "ORRINGTON",
    "zip": "04474"
  },
  {
    "name": "TOWN OF ORRINGTON",
    "city": "ORRINGTON",
    "zip": "04474"
  },
  {
    "name": "BIG RIG SHOP INC",
    "city": "OXFORD",
    "zip": "04270"
  },
  {
    "name": "DADDYOS",
    "city": "OXFORD",
    "zip": "04270"
  },
  {
    "name": "DELHAIZE AMERICA LLC",
    "city": "OXFORD",
    "zip": "04270"
  },
  {
    "name": "GIRI OXFORDS LLC",
    "city": "OXFORD",
    "zip": "04270"
  },
  {
    "name": "HANNAFORD PHARMACY",
    "city": "OXFORD",
    "zip": "04270"
  },
  {
    "name": "OXFORD AUTO SALES",
    "city": "OXFORD",
    "zip": "04270"
  },
  {
    "name": "OXFORD SACC",
    "city": "OXFORD",
    "zip": "04270"
  },
  {
    "name": "OXFORD TIMBER INC",
    "city": "OXFORD",
    "zip": "04270"
  },
  {
    "name": "OXFORD, MAINE - LABEL SHOPPER",
    "city": "OXFORD",
    "zip": "04270"
  },
  {
    "name": "PARKSIDE VARIETY LLC",
    "city": "OXFORD",
    "zip": "04270"
  },
  {
    "name": "RECORD BUILDING SUPPLY INC",
    "city": "OXFORD",
    "zip": "04270"
  },
  {
    "name": "SCHIAVI HOMES",
    "city": "OXFORD",
    "zip": "04270"
  },
  {
    "name": "THE PROGRESS CENTER",
    "city": "OXFORD",
    "zip": "04270"
  },
  {
    "name": "TOWN OF OXFORD",
    "city": "OXFORD",
    "zip": "04270"
  },
  {
    "name": "TWIN TOWN HOMES INC",
    "city": "OXFORD",
    "zip": "04270"
  },
  {
    "name": "VALLEY VIEW ORCHARD PIES",
    "city": "OXFORD",
    "zip": "04270"
  },
  {
    "name": "K AND F CONSTRUCTION",
    "city": "PALMYRA",
    "zip": "04965"
  },
  {
    "name": "GLIDDEN LUMBER INC",
    "city": "PARKMAN",
    "zip": "04443"
  },
  {
    "name": "DWIGHT R MILLS INC",
    "city": "PARSONSFIELD",
    "zip": "04047"
  },
  {
    "name": "KATAHDIN TRUST COMPANY",
    "city": "PATTEN",
    "zip": "04765"
  },
  {
    "name": "KATAHDIN VALLEY HEALTH",
    "city": "PATTEN",
    "zip": "04765"
  },
  {
    "name": "RICHARDSON HARDWARE",
    "city": "PATTEN",
    "zip": "04765"
  },
  {
    "name": "PEMBROKE ELEMENTARY SCHOOL",
    "city": "PEMBROKE",
    "zip": "04666"
  },
  {
    "name": "LITTLE RIVER VETERINARY",
    "city": "PERRY",
    "zip": "04667"
  },
  {
    "name": "PASSAMAQUODDY FORESTRY",
    "city": "PERRY",
    "zip": "04667"
  },
  {
    "name": "PLEASANT POINT INDIAN",
    "city": "PERRY",
    "zip": "04667"
  },
  {
    "name": "VON PLUMBING",
    "city": "PERU",
    "zip": "04290"
  },
  {
    "name": "EDMONDS MARKET",
    "city": "PHILLIPS",
    "zip": "04966"
  },
  {
    "name": "BISSONS CENTER STORE",
    "city": "PHIPPSBURG",
    "zip": "04562"
  },
  {
    "name": "ALFRED P BACHRACH ATTY",
    "city": "PITTSFIELD",
    "zip": "04967"
  },
  {
    "name": "FUNCTION FIRST THERAPY LLC",
    "city": "PITTSFIELD",
    "zip": "04967"
  },
  {
    "name": "PITTSFIELD MARKET DBA",
    "city": "PITTSFIELD",
    "zip": "04967"
  },
  {
    "name": "SEBASTICOOK VALLEY FCU",
    "city": "PITTSFIELD",
    "zip": "04967"
  },
  {
    "name": "TOWN OF PITTSFIELD",
    "city": "PITTSFIELD",
    "zip": "04967"
  },
  {
    "name": "LIL BUCKS N DOES DAYCARE",
    "city": "PITTSTON",
    "zip": "04345"
  },
  {
    "name": "PLEASANT POINT",
    "city": "PLEASANT POINT",
    "zip": "04667"
  },
  {
    "name": "PJS CHILDCARE",
    "city": "PLYMOUTH",
    "zip": "04969"
  },
  {
    "name": "HODGDON WELL DRILLING INC",
    "city": "POLAND",
    "zip": "04274"
  },
  {
    "name": "RESIDUALS MANAGEMENT",
    "city": "POLAND",
    "zip": "04274"
  },
  {
    "name": "TOWN OF POLAND ME",
    "city": "POLAND",
    "zip": "04274"
  },
  {
    "name": "HERRING GUT LEARNING",
    "city": "PORT CLYDE",
    "zip": "04855"
  },
  {
    "name": "AAMCO TRANSMISSIONS",
    "city": "PORTLAND",
    "zip": "04103"
  },
  {
    "name": "ABC SUPPLY CO",
    "city": "PORTLAND",
    "zip": "04103"
  },
  {
    "name": "ACADIA BENEFITS INC",
    "city": "PORTLAND",
    "zip": "04101"
  },
  {
    "name": "ACADIA LLC PAYCHEX",
    "city": "PORTLAND",
    "zip": "04101"
  },
  {
    "name": "AKARI HAIR",
    "city": "PORTLAND",
    "zip": "04101"
  },
  {
    "name": "ALCHEMY CLEANING SERVICE",
    "city": "PORTLAND",
    "zip": "04102"
  },
  {
    "name": "ATLANTIC COAST RADIO LLC",
    "city": "PORTLAND",
    "zip": "04103"
  },
  {
    "name": "ATLANTICPROCARE",
    "city": "PORTLAND",
    "zip": "04102"
  },
  {
    "name": "BLUE GOOSE INC",
    "city": "PORTLAND",
    "zip": "04101"
  },
  {
    "name": "BREWER MR FINE WOODWORKING",
    "city": "PORTLAND",
    "zip": "04103"
  },
  {
    "name": "C-PORT INC",
    "city": "PORTLAND",
    "zip": "04106"
  },
  {
    "name": "CAG LLC",
    "city": "PORTLAND",
    "zip": "04101"
  },
  {
    "name": "CATHERINE MORRILL NURSERY",
    "city": "PORTLAND",
    "zip": "04101"
  },
  {
    "name": "CHILDRENS ODYSSEY",
    "city": "PORTLAND",
    "zip": "04103"
  },
  {
    "name": "CHRISTMAN POOL SERVICE",
    "city": "PORTLAND",
    "zip": "04103"
  },
  {
    "name": "CLARK INSURANCE",
    "city": "PORTLAND",
    "zip": "04104"
  },
  {
    "name": "COASTAL EQUIPMENT CORP",
    "city": "PORTLAND",
    "zip": "04103"
  },
  {
    "name": "COM HOLDINGS LLC",
    "city": "PORTLAND",
    "zip": "04101"
  },
  {
    "name": "COMMERCIAL STREET PUB",
    "city": "PORTLAND",
    "zip": "04101"
  },
  {
    "name": "COMNAV ENGINEERING",
    "city": "PORTLAND",
    "zip": "04103"
  },
  {
    "name": "COSMETIC ENHANCEMENT",
    "city": "PORTLAND",
    "zip": "04102"
  },
  {
    "name": "DARLING PLUMBINBG AND",
    "city": "PORTLAND",
    "zip": "04103"
  },
  {
    "name": "DELHAIZE AMERICA",
    "city": "PORTLAND",
    "zip": "04102"
  },
  {
    "name": "DIRIGO PHYSICAL THERAPY",
    "city": "PORTLAND",
    "zip": "04101"
  },
  {
    "name": "DSI DOOR SERVICES INC",
    "city": "PORTLAND",
    "zip": "04102"
  },
  {
    "name": "E PERRY AND IRON",
    "city": "PORTLAND",
    "zip": "04101"
  },
  {
    "name": "EMMONS SERVICE CENTER",
    "city": "PORTLAND",
    "zip": "04102"
  },
  {
    "name": "GATEWAY COMMUNITY SERVICES",
    "city": "PORTLAND",
    "zip": "04101"
  },
  {
    "name": "GOWEN POWER SYSTEMS",
    "city": "PORTLAND",
    "zip": "04103"
  },
  {
    "name": "HASCALL & HALL",
    "city": "PORTLAND",
    "zip": "04103"
  },
  {
    "name": "HOUSE OF J HENRY",
    "city": "PORTLAND",
    "zip": "04101"
  },
  {
    "name": "IBEC CREATIVE INC",
    "city": "PORTLAND",
    "zip": "04101"
  },
  {
    "name": "LAVERTU CONSTRUCTION LLC",
    "city": "PORTLAND",
    "zip": "04103"
  },
  {
    "name": "LEVEL 3 COMMUNICATIONS",
    "city": "PORTLAND",
    "zip": "04101"
  },
  {
    "name": "MAINE BAY CANVAS INC",
    "city": "PORTLAND",
    "zip": "04103"
  },
  {
    "name": "MAINE LACROSSE OFFICIALS",
    "city": "PORTLAND",
    "zip": "04101"
  },
  {
    "name": "MAINE PARTS AND MACHINE",
    "city": "PORTLAND",
    "zip": "04103"
  },
  {
    "name": "MAINE STANDARD BIOFUELS",
    "city": "PORTLAND",
    "zip": "04103"
  },
  {
    "name": "MAINE TURNPIKE AUTHORITY",
    "city": "PORTLAND",
    "zip": "04102"
  },
  {
    "name": "MAINTENANCE TECHNOLOGY INC",
    "city": "PORTLAND",
    "zip": "04103"
  },
  {
    "name": "MARSHALL COMMUNICATION INC",
    "city": "PORTLAND",
    "zip": "04101"
  },
  {
    "name": "MEDICAL MUTUAL INSURANCE",
    "city": "PORTLAND",
    "zip": "04101"
  },
  {
    "name": "MONAGHAN WOODWORKS INC",
    "city": "PORTLAND",
    "zip": "04101"
  },
  {
    "name": "NORTHERN NEW ENGLAND",
    "city": "PORTLAND",
    "zip": "04101"
  },
  {
    "name": "NOVA SEAFOOD",
    "city": "PORTLAND",
    "zip": "04101"
  },
  {
    "name": "PANTIM WOOD PRODUCTS",
    "city": "PORTLAND",
    "zip": "04074"
  },
  {
    "name": "PINE TREE PAPER CO INC",
    "city": "PORTLAND",
    "zip": "04103"
  },
  {
    "name": "POND COVE COATINGS",
    "city": "PORTLAND",
    "zip": "04103"
  },
  {
    "name": "PORTLAND MOTOR SALES",
    "city": "PORTLAND",
    "zip": "04103"
  },
  {
    "name": "PORTLAND RESTORATION",
    "city": "PORTLAND",
    "zip": "04103"
  },
  {
    "name": "PORTLAND YACHT SERVICES",
    "city": "PORTLAND",
    "zip": "04102"
  },
  {
    "name": "QUIRK CHEVROLET",
    "city": "PORTLAND",
    "zip": "04102"
  },
  {
    "name": "RICHARD P WALTZ",
    "city": "PORTLAND",
    "zip": "04103"
  },
  {
    "name": "ROBERT TAYLOR DPM",
    "city": "PORTLAND",
    "zip": "04103"
  },
  {
    "name": "ROOTS DENTAL PLLC DBA",
    "city": "PORTLAND",
    "zip": "04101"
  },
  {
    "name": "RRW INC DBA FORE PLAY",
    "city": "PORTLAND",
    "zip": "04101"
  },
  {
    "name": "SOUTHERN MAINE PEDIATRIC",
    "city": "PORTLAND",
    "zip": "04102"
  },
  {
    "name": "STANFORD MANAGEMENT LLC",
    "city": "PORTLAND",
    "zip": "04101"
  },
  {
    "name": "T DOC CREATIVE PARTNERS",
    "city": "PORTLAND",
    "zip": "04101"
  },
  {
    "name": "THE ACADEMY FOR ACTIVE",
    "city": "PORTLAND",
    "zip": "04103"
  },
  {
    "name": "THE IRIS NETWORK",
    "city": "PORTLAND",
    "zip": "04102"
  },
  {
    "name": "THE OLYMPIA COMPANIES",
    "city": "PORTLAND",
    "zip": "04101"
  },
  {
    "name": "THE RAVEN SALON",
    "city": "PORTLAND",
    "zip": "04101"
  },
  {
    "name": "THE ROMA RESTAURANT",
    "city": "PORTLAND",
    "zip": "04102"
  },
  {
    "name": "THOMPSON LAW LLC",
    "city": "PORTLAND",
    "zip": "04101"
  },
  {
    "name": "TREBLIG ENTERPRISES INC",
    "city": "PORTLAND",
    "zip": "04101"
  },
  {
    "name": "TRINITY DAY SCHOOL",
    "city": "PORTLAND",
    "zip": "04103"
  },
  {
    "name": "VHA INC",
    "city": "PORTLAND",
    "zip": "04101"
  },
  {
    "name": "WH DEMMONS INC",
    "city": "PORTLAND",
    "zip": "04103"
  },
  {
    "name": "WHIPPLE CALLENDER",
    "city": "PORTLAND",
    "zip": "04103"
  },
  {
    "name": "WORLDWIDE RISK MANAGEMENT INC/",
    "city": "PORTLAND",
    "zip": "04102"
  },
  {
    "name": "XPRESS COPY",
    "city": "PORTLAND",
    "zip": "04102"
  },
  {
    "name": "YERXAS POWER EQUIPMENT",
    "city": "PORTLAND",
    "zip": "04103"
  },
  {
    "name": "ACADEMY DENTAL PA",
    "city": "PRESQUE ISLE",
    "zip": "04769"
  },
  {
    "name": "ALLEN'S ENVIRONMENTAL",
    "city": "PRESQUE ISLE",
    "zip": "04769"
  },
  {
    "name": "AROOSTOOK BAND OF MICMACS",
    "city": "PRESQUE ISLE",
    "zip": "04769"
  },
  {
    "name": "AROOSTOOK COUNTY ACTION",
    "city": "PRESQUE ISLE",
    "zip": "04769"
  },
  {
    "name": "AROOSTOOK MENTAL HEALTH",
    "city": "PRESQUE ISLE",
    "zip": "04769"
  },
  {
    "name": "AROOSTOOK MONUMENTS",
    "city": "PRESQUE ISLE",
    "zip": "04769"
  },
  {
    "name": "AROOSTOOK TRANSPORTATION",
    "city": "PRESQUE ISLE",
    "zip": "04769"
  },
  {
    "name": "BARRESI FINANCIAL INC",
    "city": "PRESQUE ISLE",
    "zip": "04769"
  },
  {
    "name": "CAM MFG INC",
    "city": "PRESQUE ISLE",
    "zip": "04769"
  },
  {
    "name": "CARROLL'S AUTO SALES",
    "city": "PRESQUE ISLE",
    "zip": "04769"
  },
  {
    "name": "CASSIDY ORTHODONTICS LLC",
    "city": "PRESQUE ISLE",
    "zip": "04769"
  },
  {
    "name": "CENTRAL AROOSTOOK",
    "city": "PRESQUE ISLE",
    "zip": "04769"
  },
  {
    "name": "CITY OF PRESQUE ISLE",
    "city": "PRESQUE ISLE",
    "zip": "04769"
  },
  {
    "name": "COUNTY ROOTS CHILDRENS",
    "city": "PRESQUE ISLE",
    "zip": "04769"
  },
  {
    "name": "DANA'S AUTO SALES",
    "city": "PRESQUE ISLE",
    "zip": "04769"
  },
  {
    "name": "DASCO INC",
    "city": "PRESQUE ISLE",
    "zip": "04769"
  },
  {
    "name": "EASTERN MAINE HOME CARE",
    "city": "PRESQUE ISLE",
    "zip": "04769"
  },
  {
    "name": "FALCON TRANSPORTATION LLC",
    "city": "PRESQUE ISLE",
    "zip": "04769"
  },
  {
    "name": "GOVERNORS NOR EASTER INC",
    "city": "PRESQUE ISLE",
    "zip": "04769"
  },
  {
    "name": "GRAVES SHOP N SAVE",
    "city": "PRESQUE ISLE",
    "zip": "04769"
  },
  {
    "name": "GREAT BEGINNINGS HAIR",
    "city": "PRESQUE ISLE",
    "zip": "04769"
  },
  {
    "name": "HOMELESS SERVICES OF",
    "city": "PRESQUE ISLE",
    "zip": "04769"
  },
  {
    "name": "HOPE AND JUSTICE PROJECT",
    "city": "PRESQUE ISLE",
    "zip": "04769"
  },
  {
    "name": "JAMES NEUMAYER DC CHIROPRA",
    "city": "PRESQUE ISLE",
    "zip": "04769"
  },
  {
    "name": "LAJOIE ELECTRIC & CONTROL",
    "city": "PRESQUE ISLE",
    "zip": "04769"
  },
  {
    "name": "LAKEVIEW VENTURES LLC DBA",
    "city": "PRESQUE ISLE",
    "zip": "04769"
  },
  {
    "name": "LEISURE GARDENS INC",
    "city": "PRESQUE ISLE",
    "zip": "04769"
  },
  {
    "name": "LEVASSEUR DENTISTRY LLC",
    "city": "PRESQUE ISLE",
    "zip": "04769"
  },
  {
    "name": "MIKE'S & SONS PRESQUE ISLE",
    "city": "PRESQUE ISLE",
    "zip": "04769"
  },
  {
    "name": "MSAD #1 26 DED",
    "city": "PRESQUE ISLE",
    "zip": "04769"
  },
  {
    "name": "NCA INC DBA NORTH COUNTRY",
    "city": "PRESQUE ISLE",
    "zip": "04769"
  },
  {
    "name": "NMOFS",
    "city": "PRESQUE ISLE",
    "zip": "04769"
  },
  {
    "name": "NORTHERN PROSTHETICS",
    "city": "PRESQUE ISLE",
    "zip": "04769"
  },
  {
    "name": "NU TEK DENTAL LABORATORY",
    "city": "PRESQUE ISLE",
    "zip": "04769"
  },
  {
    "name": "P AND E DISTRIBUTORS",
    "city": "PRESQUE ISLE",
    "zip": "04769"
  },
  {
    "name": "PRESQUE ISLE HOUSING",
    "city": "PRESQUE ISLE",
    "zip": "04769"
  },
  {
    "name": "PRESQUE ISLE UTILITIES",
    "city": "PRESQUE ISLE",
    "zip": "04769"
  },
  {
    "name": "RATHBUN LUMBER CO",
    "city": "PRESQUE ISLE",
    "zip": "04769"
  },
  {
    "name": "SALON 207",
    "city": "PRESQUE ISLE",
    "zip": "04769"
  },
  {
    "name": "SENIORS DOMESTICS",
    "city": "PRESQUE ISLE",
    "zip": "04769"
  },
  {
    "name": "SHEAR DELIGHT",
    "city": "PRESQUE ISLE",
    "zip": "04769"
  },
  {
    "name": "SMITH PACKING INC",
    "city": "PRESQUE ISLE",
    "zip": "04769"
  },
  {
    "name": "SMITHS FARM INC",
    "city": "PRESQUE ISLE",
    "zip": "04769"
  },
  {
    "name": "ST APOLLONIA DENTAL CLINI",
    "city": "PRESQUE ISLE",
    "zip": "04769"
  },
  {
    "name": "T HUTCH FLOORING",
    "city": "PRESQUE ISLE",
    "zip": "04769"
  },
  {
    "name": "THE SLED SHOP INC",
    "city": "PRESQUE ISLE",
    "zip": "04769"
  },
  {
    "name": "THE TOTAL LOOK",
    "city": "PRESQUE ISLE",
    "zip": "04769"
  },
  {
    "name": "WHITE SMILES",
    "city": "PRESQUE ISLE",
    "zip": "04769"
  },
  {
    "name": "WILLETTE'S AUTOMOTIVE",
    "city": "PRESQUE ISLE",
    "zip": "04769"
  },
  {
    "name": "AOS 90 PRINCETON SCHOOL",
    "city": "PRINCETON",
    "zip": "04668"
  },
  {
    "name": "INDIAN TOWNSHIP",
    "city": "PRINCETON",
    "zip": "04668"
  },
  {
    "name": "ST CROIX REGIONAL FAMILY",
    "city": "PRINCETON",
    "zip": "04668"
  },
  {
    "name": "STINSON CANNING CO",
    "city": "PROSPECT",
    "zip": "04669"
  },
  {
    "name": "TRUSSELL AUTO REPAIR",
    "city": "RANDOLPH",
    "zip": "04346"
  },
  {
    "name": "CREATIVE FITNESS SOLUTIONS",
    "city": "RANGELEY",
    "zip": "04970"
  },
  {
    "name": "MIKE CERMINARA LANDSCAPING",
    "city": "RANGELEY",
    "zip": "04970"
  },
  {
    "name": "RANGELEY IGA",
    "city": "RANGELEY",
    "zip": "04970"
  },
  {
    "name": "RANGELEY LAKES BUILDERS",
    "city": "RANGELEY",
    "zip": "04970"
  },
  {
    "name": "TOWN OF RANGELEY",
    "city": "RANGELEY",
    "zip": "04970"
  },
  {
    "name": "KRAININ REAL ESTATE W-2'S",
    "city": "RAYMOND",
    "zip": "04071"
  },
  {
    "name": "RAYMOND SERVICE CENTER",
    "city": "RAYMOND",
    "zip": "04071"
  },
  {
    "name": "TOWN OF RAYMOND",
    "city": "RAYMOND",
    "zip": "04071"
  },
  {
    "name": "VILLAGE DONUT SHOP AND",
    "city": "RAYMOND",
    "zip": "04071"
  },
  {
    "name": "WINDHAM RAYMOND SCHOOL AGE",
    "city": "RAYMOND",
    "zip": "04071"
  },
  {
    "name": "TOWN OF READFIELD",
    "city": "READFIELD",
    "zip": "04355"
  },
  {
    "name": "MAINE RURAL WATER",
    "city": "RICHMOND",
    "zip": "04357"
  },
  {
    "name": "PURINGTON CONSTRUCTION LLC",
    "city": "RICHMOND",
    "zip": "04357"
  },
  {
    "name": "RICHMOND ELDER CARE",
    "city": "RICHMOND",
    "zip": "04357"
  },
  {
    "name": "CITY OF ROCKLAND",
    "city": "ROCKLAND",
    "zip": "04841"
  },
  {
    "name": "EASTERN TIRE & AUTO",
    "city": "ROCKLAND",
    "zip": "04841"
  },
  {
    "name": "KNIGHTS MARINE SERVICE INC",
    "city": "ROCKLAND",
    "zip": "04841"
  },
  {
    "name": "LAW OFFICE OF MELISSA J",
    "city": "ROCKLAND",
    "zip": "04841"
  },
  {
    "name": "LIBERTY HOSPITALITY OF",
    "city": "ROCKLAND",
    "zip": "04841"
  },
  {
    "name": "MARITIME ENERGY",
    "city": "ROCKLAND",
    "zip": "04841"
  },
  {
    "name": "MID COAST SCHOOL OF",
    "city": "ROCKLAND",
    "zip": "04841"
  },
  {
    "name": "NORTH END COMPOSITES LLC",
    "city": "ROCKLAND",
    "zip": "04841"
  },
  {
    "name": "OHARA CORPORATION",
    "city": "ROCKLAND",
    "zip": "04841"
  },
  {
    "name": "PAYSON PROPERTIES",
    "city": "ROCKLAND",
    "zip": "04841"
  },
  {
    "name": "PEN BAY CHRISTIAN SCHOOL",
    "city": "ROCKLAND",
    "zip": "04841"
  },
  {
    "name": "R & R ENGINEERING INC",
    "city": "ROCKLAND",
    "zip": "04841"
  },
  {
    "name": "ROCKLAND MARINE",
    "city": "ROCKLAND",
    "zip": "04841"
  },
  {
    "name": "ROCKLAND, MAINE - LABEL SHOPPER",
    "city": "ROCKLAND",
    "zip": "04841"
  },
  {
    "name": "SEC INC DBA STEVE'S AUTO",
    "city": "ROCKLAND",
    "zip": "04841"
  },
  {
    "name": "SHEPARD CHEVROLET INC",
    "city": "ROCKLAND",
    "zip": "04841"
  },
  {
    "name": "SOUTH END GROCERY",
    "city": "ROCKLAND",
    "zip": "04841"
  },
  {
    "name": "ABSOLUTE STYLE FAMILY HAIR",
    "city": "ROCKPORT",
    "zip": "04856"
  },
  {
    "name": "CENTER FOR FURNITURE",
    "city": "ROCKPORT",
    "zip": "04856"
  },
  {
    "name": "MAINE STONE AND LANDSCAPE",
    "city": "ROCKPORT",
    "zip": "04856"
  },
  {
    "name": "MID COAST SOLID WASTE",
    "city": "ROCKPORT",
    "zip": "04856"
  },
  {
    "name": "NEW LEAF CONSTRUCTION INC",
    "city": "ROCKPORT",
    "zip": "04856"
  },
  {
    "name": "ROCKPORT AUTOMOTIVE",
    "city": "ROCKPORT",
    "zip": "04856"
  },
  {
    "name": "TOWN OF ROCKPORT",
    "city": "ROCKPORT",
    "zip": "04856"
  },
  {
    "name": "PADEBCO CUSTOM BOAT",
    "city": "ROUND POND",
    "zip": "04564"
  },
  {
    "name": "TOWN OF ROXBURY",
    "city": "ROXBURY",
    "zip": "04275"
  },
  {
    "name": "ADLEYS AUTO SALES AND",
    "city": "RUMFORD",
    "zip": "04276"
  },
  {
    "name": "DAN'S AUTOMOTIVE REPAIR &",
    "city": "RUMFORD",
    "zip": "04276"
  },
  {
    "name": "RSU #10",
    "city": "RUMFORD",
    "zip": "04276"
  },
  {
    "name": "RUMFORD GROUP HOMES INC",
    "city": "RUMFORD",
    "zip": "04276"
  },
  {
    "name": "TOWN OF RUMFORD",
    "city": "RUMFORD",
    "zip": "04276"
  },
  {
    "name": "COTTAGE ROAD SERVICE",
    "city": "S PORTLAND",
    "zip": "04106"
  },
  {
    "name": "POOLE GROUP OF COMPANIES",
    "city": "S PORTLAND",
    "zip": "04106"
  },
  {
    "name": "A D ELECTRIC INC",
    "city": "SABATTUS",
    "zip": "04280"
  },
  {
    "name": "AFFORDABLE WELL DRILLING",
    "city": "SABATTUS",
    "zip": "04280"
  },
  {
    "name": "CHASE'S CONSTRUCTION LLC",
    "city": "SABATTUS",
    "zip": "04280"
  },
  {
    "name": "GENERAL CONCRETE CUTTING",
    "city": "SABATTUS",
    "zip": "04280"
  },
  {
    "name": "GLEN DUBE EXCAVATION INC",
    "city": "SABATTUS",
    "zip": "04280"
  },
  {
    "name": "KP DONUTS INC DBA DUNKIN",
    "city": "SABATTUS",
    "zip": "04280"
  },
  {
    "name": "MOUNTAIN ROAD RV",
    "city": "SABATTUS",
    "zip": "04280"
  },
  {
    "name": "MS GAYLES PRESCHOOL",
    "city": "SABATTUS",
    "zip": "04280"
  },
  {
    "name": "PRO CUT INC",
    "city": "SABATTUS",
    "zip": "04280"
  },
  {
    "name": "SABATTUS AUTO AND TRUCKS",
    "city": "SABATTUS",
    "zip": "04280"
  },
  {
    "name": "SABATTUS HOUSE OF PIZZA",
    "city": "SABATTUS",
    "zip": "04280"
  },
  {
    "name": "THE SETTLEMENT",
    "city": "SABATTUS",
    "zip": "04280"
  },
  {
    "name": "BELLWETHER DESIGN",
    "city": "SACO",
    "zip": "04072"
  },
  {
    "name": "C P TECHNOLOGIES INC",
    "city": "SACO",
    "zip": "04072"
  },
  {
    "name": "CHILDREN'S DENTISTRY OF",
    "city": "SACO",
    "zip": "04072"
  },
  {
    "name": "CLASSY CHASSIE CAR WASH",
    "city": "SACO",
    "zip": "04072"
  },
  {
    "name": "DAVID SAUNDERS INC DBA",
    "city": "SACO",
    "zip": "04072"
  },
  {
    "name": "DERTEX CORP",
    "city": "SACO",
    "zip": "04072"
  },
  {
    "name": "FUNTOWN SPLASHTOWN USA",
    "city": "SACO",
    "zip": "04072"
  },
  {
    "name": "INDUSTRIAL CONRETE SERVICE",
    "city": "SACO",
    "zip": "04072"
  },
  {
    "name": "KEITH'S METER SERVICE",
    "city": "SACO",
    "zip": "04072"
  },
  {
    "name": "PALCO AIR CARGO",
    "city": "SACO",
    "zip": "04072"
  },
  {
    "name": "SALON 212",
    "city": "SACO",
    "zip": "04072"
  },
  {
    "name": "SOUTHERN MAINE CABINETS",
    "city": "SACO",
    "zip": "04072"
  },
  {
    "name": "SPURWINK",
    "city": "SACO",
    "zip": "04072"
  },
  {
    "name": "SWEETSER",
    "city": "SACO",
    "zip": "04072"
  },
  {
    "name": "THE CURL BOUTIQUE",
    "city": "SACO",
    "zip": "04072"
  },
  {
    "name": "THE DEVIL'S WORKSHOP ME",
    "city": "SACO",
    "zip": "04072"
  },
  {
    "name": "XURON CORP",
    "city": "SACO",
    "zip": "04072"
  },
  {
    "name": "LAKEVIEW RESTAURANT",
    "city": "SAINT AGATHA",
    "zip": "04772"
  },
  {
    "name": "ASSOCIATED EYECARE",
    "city": "SANFORD",
    "zip": "04073"
  },
  {
    "name": "BIG FISH FENCE",
    "city": "SANFORD",
    "zip": "04073"
  },
  {
    "name": "BRINK CHIROPRACTIC CLINIC",
    "city": "SANFORD",
    "zip": "04073"
  },
  {
    "name": "CASCO BAY MOLDING",
    "city": "SANFORD",
    "zip": "04073"
  },
  {
    "name": "CENTRAL FURNITURE AND",
    "city": "SANFORD",
    "zip": "04073"
  },
  {
    "name": "CITY OF SANFORD",
    "city": "SANFORD",
    "zip": "04073"
  },
  {
    "name": "D & J HOME & HEARTH",
    "city": "SANFORD",
    "zip": "04073"
  },
  {
    "name": "DR PAUL BEAUDOIN DMD",
    "city": "SANFORD",
    "zip": "04073"
  },
  {
    "name": "EDISON PRESS",
    "city": "SANFORD",
    "zip": "04073"
  },
  {
    "name": "EKTO",
    "city": "SANFORD",
    "zip": "04073"
  },
  {
    "name": "GENEST CONCRETE WORKS INC",
    "city": "SANFORD",
    "zip": "04073"
  },
  {
    "name": "HANLEY DENTAL LLC",
    "city": "SANFORD",
    "zip": "04073"
  },
  {
    "name": "JT TRAVIS INC",
    "city": "SANFORD",
    "zip": "04073"
  },
  {
    "name": "KRALL ESQ LLC DBA THE LAW",
    "city": "SANFORD",
    "zip": "04073"
  },
  {
    "name": "LITTLE WORLD 2",
    "city": "SANFORD",
    "zip": "04073"
  },
  {
    "name": "PAPAS PLACE",
    "city": "SANFORD",
    "zip": "04073"
  },
  {
    "name": "PINE VALLEY HOME SOLUTIONS",
    "city": "SANFORD",
    "zip": "04073"
  },
  {
    "name": "PROVINCE AUTOMATION",
    "city": "SANFORD",
    "zip": "04073"
  },
  {
    "name": "SANFORD FAMILY DENTAL",
    "city": "SANFORD",
    "zip": "04073"
  },
  {
    "name": "SANFORD HOUSING AUTHORITY",
    "city": "SANFORD",
    "zip": "04073"
  },
  {
    "name": "SANFORD PUBLIC SCHOOLS",
    "city": "SANFORD",
    "zip": "04073"
  },
  {
    "name": "SANFORD SOUND",
    "city": "SANFORD",
    "zip": "04073"
  },
  {
    "name": "SANFORD SPRINGVALE YMCA",
    "city": "SANFORD",
    "zip": "04073"
  },
  {
    "name": "SANFORD WATER DISTRICT",
    "city": "SANFORD",
    "zip": "04073"
  },
  {
    "name": "THE RIDGE ANIMAL HOSPITAL",
    "city": "SANFORD",
    "zip": "04073"
  },
  {
    "name": "US FELT COMPANY INC",
    "city": "SANFORD",
    "zip": "04073"
  },
  {
    "name": "ZREYAS SALON",
    "city": "SANFORD",
    "zip": "04073"
  },
  {
    "name": "NUMBERALL STAMP AND TOOL",
    "city": "SANGERVILLE",
    "zip": "04479"
  },
  {
    "name": "PISCATAQUIS PRECISION",
    "city": "SANGERVILLE",
    "zip": "04479"
  },
  {
    "name": "BEI CAPELLI",
    "city": "SCARBOROUGH",
    "zip": "04074"
  },
  {
    "name": "BLACK POINT AUTO AND",
    "city": "SCARBOROUGH",
    "zip": "04074"
  },
  {
    "name": "BELLAVITA AT SCARBOROUGH",
    "city": "SCARBOROUGH",
    "zip": "04074"
  },
  {
    "name": "BROOKDALE SENIOR LIVING",
    "city": "SCARBOROUGH",
    "zip": "04074"
  },
  {
    "name": "CAIAZZO & SON'S PLUMBING",
    "city": "SCARBOROUGH",
    "zip": "04074"
  },
  {
    "name": "CVC GROUP INC",
    "city": "SCARBOROUGH",
    "zip": "04074"
  },
  {
    "name": "CWS ARCHITECTS",
    "city": "SCARBOROUGH",
    "zip": "04074"
  },
  {
    "name": "DAVES WORLD",
    "city": "SCARBOROUGH",
    "zip": "04074"
  },
  {
    "name": "DILLON SHEET METAL LLC",
    "city": "SCARBOROUGH",
    "zip": "04074"
  },
  {
    "name": "DOMESTIKS CLEANING SERVICE",
    "city": "SCARBOROUGH",
    "zip": "04074"
  },
  {
    "name": "DR NATHAN GOFF GENERAL",
    "city": "SCARBOROUGH",
    "zip": "04074"
  },
  {
    "name": "FREDERICK BROS OIL CO INC",
    "city": "SCARBOROUGH",
    "zip": "04074"
  },
  {
    "name": "GLIDDEN ROOFING CORP",
    "city": "SCARBOROUGH",
    "zip": "04074"
  },
  {
    "name": "LANDRY FRENCH CONSTRUCTION",
    "city": "SCARBOROUGH",
    "zip": "04074"
  },
  {
    "name": "LOVING CARE HOME CARE",
    "city": "SCARBOROUGH",
    "zip": "04074"
  },
  {
    "name": "M LEONARD INTERNATIONAL",
    "city": "SCARBOROUGH",
    "zip": "04074"
  },
  {
    "name": "MAINE RADIO",
    "city": "SCARBOROUGH",
    "zip": "04074"
  },
  {
    "name": "MAINE STRONG BALANCE",
    "city": "SCARBOROUGH",
    "zip": "04074"
  },
  {
    "name": "MAINE TURF AND GREENERY",
    "city": "SCARBOROUGH",
    "zip": "04074"
  },
  {
    "name": "MERIT POOLS",
    "city": "SCARBOROUGH",
    "zip": "04074"
  },
  {
    "name": "MOSQUITO SQUAD",
    "city": "SCARBOROUGH",
    "zip": "04074"
  },
  {
    "name": "MTM DELIVERY SERVICES INC",
    "city": "SCARBOROUGH",
    "zip": "04074"
  },
  {
    "name": "NONESUCH RIVER BREWING",
    "city": "SCARBOROUGH",
    "zip": "04074"
  },
  {
    "name": "NORTHEAST TECHNICAL",
    "city": "SCARBOROUGH",
    "zip": "04074"
  },
  {
    "name": "NOURISHED LIFESTYLES",
    "city": "SCARBOROUGH",
    "zip": "04074"
  },
  {
    "name": "OAKHILL CLEANERS INC",
    "city": "SCARBOROUGH",
    "zip": "04074"
  },
  {
    "name": "ORTHODONTIC ASSOCIATES PC",
    "city": "SCARBOROUGH",
    "zip": "04074"
  },
  {
    "name": "PAVEMENT TREATMENT INC",
    "city": "SCARBOROUGH",
    "zip": "04074"
  },
  {
    "name": "PORTLAND AIR FREIGHT INC",
    "city": "SCARBOROUGH",
    "zip": "04074"
  },
  {
    "name": "PORTLAND PUMP COMPANY",
    "city": "SCARBOROUGH",
    "zip": "04074"
  },
  {
    "name": "RC MOORE INC",
    "city": "SCARBOROUGH",
    "zip": "04074"
  },
  {
    "name": "RIVERMOOR ASSST",
    "city": "SCARBOROUGH",
    "zip": "04074"
  },
  {
    "name": "RSD MANAGEMENT CORP DBA",
    "city": "SCARBOROUGH",
    "zip": "04074"
  },
  {
    "name": "SCARBOROUGH DENTAL ASSOC",
    "city": "SCARBOROUGH",
    "zip": "04074"
  },
  {
    "name": "SEABEE ELECTRIC INC",
    "city": "SCARBOROUGH",
    "zip": "04074"
  },
  {
    "name": "SPARKLE CLEAN CAR WASH",
    "city": "SCARBOROUGH",
    "zip": "04074"
  },
  {
    "name": "THE LIFE OF RILEY",
    "city": "SCARBOROUGH",
    "zip": "04074"
  },
  {
    "name": "TOWN OF SCARBOROUGH",
    "city": "SCARBOROUGH",
    "zip": "04074"
  },
  {
    "name": "TREWORGY AND BALDACCI REAL",
    "city": "SCARBOROUGH",
    "zip": "04074"
  },
  {
    "name": "WAGON MASTERS INC",
    "city": "SCARBOROUGH",
    "zip": "04074"
  },
  {
    "name": "KRAMP ELECTRONICS INC",
    "city": "SEAL COVE",
    "zip": "04674"
  },
  {
    "name": "WINDOWDRESSERS",
    "city": "SEARSMONT",
    "zip": "04973"
  },
  {
    "name": "GAC CHEMICAL",
    "city": "SEARSPORT",
    "zip": "04974"
  },
  {
    "name": "LAW OFFICE OF AARON FETHKE",
    "city": "SEARSPORT",
    "zip": "04974"
  },
  {
    "name": "SEARSPORT AUTOMOTIVE",
    "city": "SEARSPORT",
    "zip": "04974"
  },
  {
    "name": "SEARSPORT WATER DISTRICT",
    "city": "SEARSPORT",
    "zip": "04974"
  },
  {
    "name": "TOWN OF SEARSPORT",
    "city": "SEARSPORT",
    "zip": "04974"
  },
  {
    "name": "TOZIER'S FAMILY MARKET",
    "city": "SEARSPORT",
    "zip": "04974"
  },
  {
    "name": "SEBAGO ELEMENTARY SCHOOL",
    "city": "SEBAGO",
    "zip": "04029"
  },
  {
    "name": "AMES CONSTRUCTION INC",
    "city": "SEBEC",
    "zip": "04481"
  },
  {
    "name": "NORTHERN REFLECTIONS SALON",
    "city": "SEBEC",
    "zip": "04481"
  },
  {
    "name": "POWERLINE CONSTRUCTION",
    "city": "SEBEC",
    "zip": "04481"
  },
  {
    "name": "PROUTY FORD INC",
    "city": "SEBEC",
    "zip": "04481"
  },
  {
    "name": "SDR LOGGING INC",
    "city": "SEBEC",
    "zip": "04481"
  },
  {
    "name": "SHAWN'S ALL SEASON SPORTS",
    "city": "SHAPLEIGH",
    "zip": "04076"
  },
  {
    "name": "PERKINS",
    "city": "SHOWHEGAN",
    "zip": "04976"
  },
  {
    "name": "TIMOTHY DAIGLE",
    "city": "SINCLAIR",
    "zip": "04779"
  },
  {
    "name": "BEE LINE CABLE",
    "city": "SKOWHEGAN",
    "zip": "04976"
  },
  {
    "name": "CCI TRANSPORT LLC",
    "city": "SKOWHEGAN",
    "zip": "04976"
  },
  {
    "name": "CIVIL ARMS INC",
    "city": "SKOWHEGAN",
    "zip": "04976"
  },
  {
    "name": "COMPUTER IMPROVEMENTS",
    "city": "SKOWHEGAN",
    "zip": "04976"
  },
  {
    "name": "GEORGE'S BANANA STAND",
    "city": "SKOWHEGAN",
    "zip": "04976"
  },
  {
    "name": "J & M MACHINING INC",
    "city": "SKOWHEGAN",
    "zip": "04976"
  },
  {
    "name": "KEN'S FAMILY RESTAURANT",
    "city": "SKOWHEGAN",
    "zip": "04976"
  },
  {
    "name": "KEY APPLIANCE",
    "city": "SKOWHEGAN",
    "zip": "04976"
  },
  {
    "name": "LANEY'S PIT STOP",
    "city": "SKOWHEGAN",
    "zip": "04976"
  },
  {
    "name": "MAINE BEHAVIORAL HEALTH",
    "city": "SKOWHEGAN",
    "zip": "04976"
  },
  {
    "name": "MSAD 54",
    "city": "SKOWHEGAN",
    "zip": "04976"
  },
  {
    "name": "PROVENCAL PLUMBING",
    "city": "SKOWHEGAN",
    "zip": "04976"
  },
  {
    "name": "R J CHIPPING ENT INC",
    "city": "SKOWHEGAN",
    "zip": "04976"
  },
  {
    "name": "RANDY'S AUTO REPAIR",
    "city": "SKOWHEGAN",
    "zip": "04976"
  },
  {
    "name": "REDINGTON FAIRVIEW",
    "city": "SKOWHEGAN",
    "zip": "04976"
  },
  {
    "name": "RICHARD CARRIER TRUCKING",
    "city": "SKOWHEGAN",
    "zip": "04976"
  },
  {
    "name": "SAPPI FINE PAPER N AMERICA",
    "city": "SKOWHEGAN",
    "zip": "04976"
  },
  {
    "name": "SKOWHEGAN, MAINE - LABEL SHOPPER",
    "city": "SKOWHEGAN",
    "zip": "04976"
  },
  {
    "name": "SOMERSET COUNTY",
    "city": "SKOWHEGAN",
    "zip": "04976"
  },
  {
    "name": "STERNS DEPT STORE",
    "city": "SKOWHEGAN",
    "zip": "04976"
  },
  {
    "name": "MORROW'S GARAGE",
    "city": "SMITHFIELD",
    "zip": "04978"
  },
  {
    "name": "PAVEMENT PLUS",
    "city": "SMITHFIELD",
    "zip": "04978"
  },
  {
    "name": "KENNEBEC LUMBER",
    "city": "SOLON",
    "zip": "04979"
  },
  {
    "name": "MAINESCAPES PROPERTY",
    "city": "SOUTH BERWICK",
    "zip": "03908"
  },
  {
    "name": "PORTLAND STREET SERVICE",
    "city": "SOUTH BERWICK",
    "zip": "03908"
  },
  {
    "name": "SEACOAST CHRISTIAN SCHOOL",
    "city": "SOUTH BERWICK",
    "zip": "03908"
  },
  {
    "name": "SOUTH BERWICK DENTAL",
    "city": "SOUTH BERWICK",
    "zip": "03908"
  },
  {
    "name": "SOUTH BRISTOL",
    "city": "SOUTH BRISTOL",
    "zip": "04568"
  },
  {
    "name": "ANDERSON CHIROPRACTIC",
    "city": "SOUTH CHINA",
    "zip": "04358"
  },
  {
    "name": "ELLIS LAW",
    "city": "SOUTH CHINA",
    "zip": "04358"
  },
  {
    "name": "ERSKINE ACADEMY",
    "city": "SOUTH CHINA",
    "zip": "04358"
  },
  {
    "name": "NEW ENGLAND IMPORTS",
    "city": "SOUTH CHINA",
    "zip": "04358"
  },
  {
    "name": "THE WINTER HARBOR AGENCY",
    "city": "SOUTH GOULDSBORO",
    "zip": "04607"
  },
  {
    "name": "BESSEY MOTOR SALES",
    "city": "SOUTH PARIS",
    "zip": "04281"
  },
  {
    "name": "CROSSWAY FAMILY DENTAL PA",
    "city": "SOUTH PARIS",
    "zip": "04281"
  },
  {
    "name": "E.C.I. MATERIALS, LLC",
    "city": "SOUTH PARIS",
    "zip": "04281"
  },
  {
    "name": "FOOTHILLS FLOORING AND",
    "city": "SOUTH PARIS",
    "zip": "04281"
  },
  {
    "name": "HONEYBEE PEDIATRIC THERAPY",
    "city": "SOUTH PARIS",
    "zip": "04281"
  },
  {
    "name": "JEWELL TIRE CENTER INC",
    "city": "SOUTH PARIS",
    "zip": "04281"
  },
  {
    "name": "MARKET SQUARE RESTAURANT",
    "city": "SOUTH PARIS",
    "zip": "04281"
  },
  {
    "name": "MAURICE RESTAURANT",
    "city": "SOUTH PARIS",
    "zip": "04281"
  },
  {
    "name": "MSAD 17",
    "city": "SOUTH PARIS",
    "zip": "04281"
  },
  {
    "name": "PERFECTLY PROMOTED INC DBA",
    "city": "SOUTH PARIS",
    "zip": "04281"
  },
  {
    "name": "RIPLEY AND FLETCHER FORD",
    "city": "SOUTH PARIS",
    "zip": "04281"
  },
  {
    "name": "TOWN OF PARIS",
    "city": "SOUTH PARIS",
    "zip": "04281"
  },
  {
    "name": "AINSWORTH THELIN AND ETAL",
    "city": "SOUTH PORTLAND",
    "zip": "04106"
  },
  {
    "name": "ALL COMPUTER SOLUTIONS INC",
    "city": "SOUTH PORTLAND",
    "zip": "04106"
  },
  {
    "name": "AMADA SENIOR CARE OF",
    "city": "SOUTH PORTLAND",
    "zip": "04116"
  },
  {
    "name": "ALPHA ONE CIL",
    "city": "SOUTH PORTLAND",
    "zip": "04106"
  },
  {
    "name": "BURBERRY LIMITED",
    "city": "SOUTH PORTLAND",
    "zip": "04106"
  },
  {
    "name": "CASCO BAY STEEL STRUCTURES",
    "city": "SOUTH PORTLAND",
    "zip": "04106"
  },
  {
    "name": "CITY OF SOUTH PORTLAND",
    "city": "SOUTH PORTLAND",
    "zip": "04106"
  },
  {
    "name": "DUVALS AUTO SERVICE CENTER",
    "city": "SOUTH PORTLAND",
    "zip": "04106"
  },
  {
    "name": "GUITAR CENTER",
    "city": "SOUTH PORTLAND",
    "zip": "04106"
  },
  {
    "name": "INNOVATIVE BUSINESS",
    "city": "SOUTH PORTLAND",
    "zip": "04106"
  },
  {
    "name": "J WESTON WALCH",
    "city": "SOUTH PORTLAND",
    "zip": "04106"
  },
  {
    "name": "MAINE KENWORTH LLC",
    "city": "SOUTH PORTLAND",
    "zip": "04106"
  },
  {
    "name": "MAINE MALL EYE CARE",
    "city": "SOUTH PORTLAND",
    "zip": "04106"
  },
  {
    "name": "MEN'S WEARHOUSE",
    "city": "SOUTH PORTLAND",
    "zip": "04106"
  },
  {
    "name": "MEN'S WEARHOUSE & TUX",
    "city": "SOUTH PORTLAND",
    "zip": "04106"
  },
  {
    "name": "NIKKI WETHERELL COUNSELING",
    "city": "SOUTH PORTLAND",
    "zip": "04106"
  },
  {
    "name": "O CONNOR",
    "city": "SOUTH PORTLAND",
    "zip": "04106"
  },
  {
    "name": "OCEAN STREET AUTO REPAIR",
    "city": "SOUTH PORTLAND",
    "zip": "04106"
  },
  {
    "name": "OUTBACK STEAKHOUSE",
    "city": "SOUTH PORTLAND",
    "zip": "04106"
  },
  {
    "name": "PHIL'S FOREIGN AUTO INC",
    "city": "SOUTH PORTLAND",
    "zip": "04106"
  },
  {
    "name": "PORT RESOURCES",
    "city": "SOUTH PORTLAND",
    "zip": "04106"
  },
  {
    "name": "PORTLAND WINNELSON CO.",
    "city": "SOUTH PORTLAND",
    "zip": "04106"
  },
  {
    "name": "SELBY SHOES ETC",
    "city": "SOUTH PORTLAND",
    "zip": "04106"
  },
  {
    "name": "SERENITY RESIDENTIAL CARE",
    "city": "SOUTH PORTLAND",
    "zip": "04106"
  },
  {
    "name": "SHOPPERS HARDWARE INC",
    "city": "SOUTH PORTLAND",
    "zip": "04106"
  },
  {
    "name": "TROIANO WASTE SYSTEMS",
    "city": "SOUTH PORTLAND",
    "zip": "04106"
  },
  {
    "name": "MAINE CIRCUIT ELECTRICAL",
    "city": "SOUTH THOMASTON",
    "zip": "04858"
  },
  {
    "name": "THOMAS & BETTS CORPORATION",
    "city": "SOUTHAVEN",
    "zip": "038671"
  },
  {
    "name": "HODGDON YACHTS INC",
    "city": "SOUTHPORT",
    "zip": "04576"
  },
  {
    "name": "TOWN OF SOUTHPORT",
    "city": "SOUTHPORT",
    "zip": "04576"
  },
  {
    "name": "CARROLL DRUG STORE",
    "city": "SOUTHWEST HARBOR",
    "zip": "04679"
  },
  {
    "name": "DOUG GOTT AND SONS INC",
    "city": "SOUTHWEST HARBOR",
    "zip": "04679"
  },
  {
    "name": "HARBOR RIDGE CONDO ASSN",
    "city": "SOUTHWEST HARBOR",
    "zip": "04679"
  },
  {
    "name": "J&D COTTAGE INDUSTRIES INC",
    "city": "SOUTHWEST HARBOR",
    "zip": "04679"
  },
  {
    "name": "OCEAN HOUSE CO.",
    "city": "SOUTHWEST HARBOR",
    "zip": "04679"
  },
  {
    "name": "PRO31 CLEANERS INC",
    "city": "SOUTHWEST HARBOR",
    "zip": "04679"
  },
  {
    "name": "T HENRI INC DBA MAINE",
    "city": "SOUTHWEST HARBOR",
    "zip": "04679"
  },
  {
    "name": "TIMOTHY H GOTT INC DBA",
    "city": "SOUTHWEST HARBOR",
    "zip": "04679"
  },
  {
    "name": "TOWN OF SOUTHWEST HARBOR",
    "city": "SOUTHWEST HARBOR",
    "zip": "04679"
  },
  {
    "name": "CENTER FOR COMMUNICATION",
    "city": "SPRINGVALE",
    "zip": "04083"
  },
  {
    "name": "SANFORD SEWERAGE DISTRICT",
    "city": "SPRINGVALE",
    "zip": "04083"
  },
  {
    "name": "SERVPRO OF SO YORK CTY KMG",
    "city": "SPRINGVALE",
    "zip": "04083"
  },
  {
    "name": "AUTOMASTER COLLISION",
    "city": "SPRUCE HEAD",
    "zip": "04859"
  },
  {
    "name": "RSU 89",
    "city": "STACYVILLE",
    "zip": "04777"
  },
  {
    "name": "TOWER PUBLISHING",
    "city": "STANDISH",
    "zip": "04084"
  },
  {
    "name": "TOWN OF STANDISH",
    "city": "STANDISH",
    "zip": "04084"
  },
  {
    "name": "WARD WATER",
    "city": "STEEP FALLS",
    "zip": "04085"
  },
  {
    "name": "BELLEFLEUR & SONS ADVANCED",
    "city": "STETSON",
    "zip": "04488"
  },
  {
    "name": "GEORGES CARPENTRY AND",
    "city": "STETSON",
    "zip": "04488"
  },
  {
    "name": "BORICUA CUSTOM BOATS",
    "city": "STEUBEN",
    "zip": "04680"
  },
  {
    "name": "H AND H MARINE INC",
    "city": "STEUBEN",
    "zip": "04680"
  },
  {
    "name": "TOWN OF STEUBEN",
    "city": "STEUBEN",
    "zip": "04680"
  },
  {
    "name": "WOODSONS CONSTRUCTION",
    "city": "STEUBEN",
    "zip": "04680"
  },
  {
    "name": "SARGENT CORPORATION",
    "city": "STILLWATER",
    "zip": "04489"
  },
  {
    "name": "REDS AUTOMOTIVE",
    "city": "STOCKTON SPRINGS",
    "zip": "04981"
  },
  {
    "name": "RH LAMBETH BUILDERS",
    "city": "STOCKTON SPRINGS",
    "zip": "04981"
  },
  {
    "name": "TOWN OF STOCKTON SPRINGS",
    "city": "STOCKTON SPRINGS",
    "zip": "04981"
  },
  {
    "name": "ISLAND EMPLOYEE",
    "city": "STONINGTON",
    "zip": "04681"
  },
  {
    "name": "PENOBSCOT BAY PRESS",
    "city": "STONINGTON",
    "zip": "04681"
  },
  {
    "name": "CASHLY BUILDERS",
    "city": "SULLIVAN",
    "zip": "04664"
  },
  {
    "name": "DOGWOOD VETERINARY",
    "city": "SULLIVAN",
    "zip": "04664"
  },
  {
    "name": "NV GIFTS",
    "city": "SULLIVAN",
    "zip": "04664"
  },
  {
    "name": "REGIONAL SCHOOL UNIT 24",
    "city": "SULLIVAN",
    "zip": "04664"
  },
  {
    "name": "TAUNTON BAY SOAP COMPANY",
    "city": "SULLIVAN",
    "zip": "04664"
  },
  {
    "name": "TOWN OF SURRY",
    "city": "SURRY",
    "zip": "04684"
  },
  {
    "name": "WEBERSINN APPRAISAL COM-",
    "city": "SURRY",
    "zip": "04684"
  },
  {
    "name": "SWH WATER AND SEWER",
    "city": "SW HARBOR",
    "zip": "04679"
  },
  {
    "name": "CLOUD NINE CUSTOMS",
    "city": "THOMASTON",
    "zip": "04861"
  },
  {
    "name": "CREEK HILL AUTO REPAIR",
    "city": "THOMASTON",
    "zip": "04861"
  },
  {
    "name": "HOT HILL TAVERN",
    "city": "THOMASTON",
    "zip": "04861"
  },
  {
    "name": "TOWN OF THOMASTON",
    "city": "THOMASTON",
    "zip": "04861"
  },
  {
    "name": "UNION FAIR AUTO",
    "city": "THOMASTON",
    "zip": "04861"
  },
  {
    "name": "A PLACE TO GROW",
    "city": "TOPSHAM",
    "zip": "04086"
  },
  {
    "name": "COUNTRY FUEL LLC",
    "city": "TOPSHAM",
    "zip": "04086"
  },
  {
    "name": "DOWN EAST CREIDT UNION",
    "city": "TOPSHAM",
    "zip": "04086"
  },
  {
    "name": "HAPPY PAWS UNLEASHED",
    "city": "TOPSHAM",
    "zip": "04086"
  },
  {
    "name": "LAVALLEE & ASSOCIATES LLC",
    "city": "TOPSHAM",
    "zip": "04086"
  },
  {
    "name": "MAINE EVENT DESIGN AND",
    "city": "TOPSHAM",
    "zip": "04086"
  },
  {
    "name": "MIDCOAST GLASS AND WINDOW",
    "city": "TOPSHAM",
    "zip": "04086"
  },
  {
    "name": "NORTHERN PRIDE",
    "city": "TOPSHAM",
    "zip": "04086"
  },
  {
    "name": "PROFESSIONAL BUILDING",
    "city": "TOPSHAM",
    "zip": "04086"
  },
  {
    "name": "SKY HY RENEWAL AND",
    "city": "TOPSHAM",
    "zip": "04086"
  },
  {
    "name": "SPANN REAL ESTATE INC",
    "city": "TOPSHAM",
    "zip": "04086"
  },
  {
    "name": "STEPPING STONES DAY CARE",
    "city": "TOPSHAM",
    "zip": "04086"
  },
  {
    "name": "TOWN OF TOPSHAM",
    "city": "TOPSHAM",
    "zip": "04086"
  },
  {
    "name": "NAUTILUS MARINE",
    "city": "TRENTON",
    "zip": "04605"
  },
  {
    "name": "TOWN OF TRENTON",
    "city": "TRENTON",
    "zip": "04605"
  },
  {
    "name": "MILL COVE LOBSTER POUND",
    "city": "TREVETT",
    "zip": "04571"
  },
  {
    "name": "COACH TERRYS REDEMPTION",
    "city": "TURNER",
    "zip": "04282"
  },
  {
    "name": "GOODWIN WELL AND WATER INC",
    "city": "TURNER",
    "zip": "04282"
  },
  {
    "name": "HOOD EQUIPMENT RENTAL",
    "city": "TURNER",
    "zip": "04282"
  },
  {
    "name": "HOOD FARM LLC",
    "city": "TURNER",
    "zip": "04282"
  },
  {
    "name": "M S A D NO 52",
    "city": "TURNER",
    "zip": "04282"
  },
  {
    "name": "PETE THE PLUMBER",
    "city": "TURNER",
    "zip": "04282"
  },
  {
    "name": "RICKER HILL FARMS INC",
    "city": "TURNER",
    "zip": "04282"
  },
  {
    "name": "RICKER HILL ORCHARDS INC",
    "city": "TURNER",
    "zip": "04282"
  },
  {
    "name": "SPENCER GROUP PAVING",
    "city": "TURNER",
    "zip": "04282"
  },
  {
    "name": "TOWN OF TURNER",
    "city": "TURNER",
    "zip": "04282"
  },
  {
    "name": "TURNER VETERINARY SERVICE",
    "city": "TURNER",
    "zip": "04282"
  },
  {
    "name": "TWO RIVERS PET PRODUCTS",
    "city": "TURNER",
    "zip": "04282"
  },
  {
    "name": "FOUR CORNER VARIETY",
    "city": "UNION",
    "zip": "04862"
  },
  {
    "name": "MARK S IMPORTS",
    "city": "UNION",
    "zip": "04862"
  },
  {
    "name": "RSU 40 MSAD 40 12 MONTH",
    "city": "UNION",
    "zip": "04862"
  },
  {
    "name": "THE COMMON MARKET",
    "city": "UNION",
    "zip": "04862"
  },
  {
    "name": "TOWN OF UNION",
    "city": "UNION",
    "zip": "04862"
  },
  {
    "name": "CHASE TOYS INC",
    "city": "UNITY",
    "zip": "04988"
  },
  {
    "name": "FERREIRA TRUCKING INC",
    "city": "UNITY",
    "zip": "04988"
  },
  {
    "name": "MAINE ORGANIC FARMERS AND",
    "city": "UNITY",
    "zip": "04988"
  },
  {
    "name": "R & N INC DBA JIM'S SALAD",
    "city": "UNITY",
    "zip": "04988"
  },
  {
    "name": "SAD #3",
    "city": "UNITY",
    "zip": "04988"
  },
  {
    "name": "M S A D #24",
    "city": "VAN BUREN",
    "zip": "04785"
  },
  {
    "name": "NORTHERN AROOSTOOK",
    "city": "VAN BUREN",
    "zip": "04785"
  },
  {
    "name": "TOWN OF VAN BUREN",
    "city": "VAN BUREN",
    "zip": "04785"
  },
  {
    "name": "TULSA INC",
    "city": "VAN BUREN",
    "zip": "04785"
  },
  {
    "name": "PINE RIDGE BUILDERS LLC",
    "city": "VASSALBORO",
    "zip": "04935"
  },
  {
    "name": "VASSALBORO CAR CARE",
    "city": "VASSALBORO",
    "zip": "04989"
  },
  {
    "name": "EASTERN MAINE SCHOOL OF",
    "city": "VEAZIE",
    "zip": "04401"
  },
  {
    "name": "TOWN OF VEAZIE",
    "city": "VEAZIE",
    "zip": "04401"
  },
  {
    "name": "SMITH & MAY INC",
    "city": "W ROCKPORT",
    "zip": "04865"
  },
  {
    "name": "BELFAST AREA CHILD CARE",
    "city": "WALDO",
    "zip": "04915"
  },
  {
    "name": "WALDO COUNTY SCHOOL",
    "city": "WALDO",
    "zip": "04915"
  },
  {
    "name": "ATLANTIC LABORATORIES INC",
    "city": "WALDOBORO",
    "zip": "04572"
  },
  {
    "name": "BEST LITTLE HAIR HOUSE",
    "city": "WALDOBORO",
    "zip": "04572"
  },
  {
    "name": "DOW FURNITURE",
    "city": "WALDOBORO",
    "zip": "04572"
  },
  {
    "name": "ERICKSON AND RALPH",
    "city": "WALDOBORO",
    "zip": "04572"
  },
  {
    "name": "GORDON LIBBY FOREST",
    "city": "WALDOBORO",
    "zip": "04572"
  },
  {
    "name": "HALL FUNERAL HOME",
    "city": "WALDOBORO",
    "zip": "04572"
  },
  {
    "name": "MEDOMAK VETERINARY",
    "city": "WALDOBORO",
    "zip": "04572"
  },
  {
    "name": "OCEAN ORGANICS",
    "city": "WALDOBORO",
    "zip": "04572"
  },
  {
    "name": "RW GLIDDEN AUTO PAINT AND",
    "city": "WALDOBORO",
    "zip": "04572"
  },
  {
    "name": "TUCKER CHEVROLET INC",
    "city": "WALDOBORO",
    "zip": "04572"
  },
  {
    "name": "REGIONAL SCHOOL UNIT #4",
    "city": "WALES",
    "zip": "04280"
  },
  {
    "name": "RENOVATE RIGHT",
    "city": "WALES",
    "zip": "04280"
  },
  {
    "name": "ELLIOTT JORDAN & SON INC",
    "city": "WALTHAM",
    "zip": "04605"
  },
  {
    "name": "COASTAL AUTO WORKS INC",
    "city": "WARREN",
    "zip": "04864"
  },
  {
    "name": "COPELANDS GARAGE INC",
    "city": "WARREN",
    "zip": "04864"
  },
  {
    "name": "HYBRID SYSTEMS LLC",
    "city": "WARREN",
    "zip": "04864"
  },
  {
    "name": "JUST RIGHT AUTO REPAIR INC",
    "city": "WARREN",
    "zip": "04864"
  },
  {
    "name": "MAINE LY CONCRETE INC",
    "city": "WARREN",
    "zip": "04864"
  },
  {
    "name": "ON THE ROAD TRAILERS",
    "city": "WARREN",
    "zip": "04864"
  },
  {
    "name": "AK WHITE INC",
    "city": "WASHBURN",
    "zip": "04786"
  },
  {
    "name": "MSAD-45",
    "city": "WASHBURN",
    "zip": "04786"
  },
  {
    "name": "TOWN OF WASHBURN",
    "city": "WASHBURN",
    "zip": "04786"
  },
  {
    "name": "JANUS SUPPORITIV LIVING",
    "city": "WASHINGTON",
    "zip": "04574"
  },
  {
    "name": "ANN HARRIS INSURANCE",
    "city": "WATERBORO",
    "zip": "04087"
  },
  {
    "name": "AT HOME FAMILY SUPPORTS",
    "city": "WATERBORO",
    "zip": "04087"
  },
  {
    "name": "HARRIS",
    "city": "WATERBORO",
    "zip": "04087"
  },
  {
    "name": "REGIONAL SCHOOL UNIT NO 57",
    "city": "WATERBORO",
    "zip": "04087"
  },
  {
    "name": "SACO RIVER HEALTH SERVICES",
    "city": "WATERBORO",
    "zip": "04087"
  },
  {
    "name": "18 BELOW",
    "city": "WATERVILLE",
    "zip": "04901"
  },
  {
    "name": "ACE TIRE AND AUTO SERVICE",
    "city": "WATERVILLE",
    "zip": "04901"
  },
  {
    "name": "ADVANCE 1 CLEANING",
    "city": "WATERVILLE",
    "zip": "04901"
  },
  {
    "name": "AOS 92 MTHLY",
    "city": "WATERVILLE",
    "zip": "04901"
  },
  {
    "name": "APOLLO DAY SPA",
    "city": "WATERVILLE",
    "zip": "04901"
  },
  {
    "name": "ATLANTIC PARTNERS EMS",
    "city": "WATERVILLE",
    "zip": "04903"
  },
  {
    "name": "BLUE SKY COUNSELING",
    "city": "WATERVILLE",
    "zip": "04901"
  },
  {
    "name": "CALVARY TEMPLE DBA",
    "city": "WATERVILLE",
    "zip": "04901"
  },
  {
    "name": "CARROLL PERKINS ASSOCIATES",
    "city": "WATERVILLE",
    "zip": "04901"
  },
  {
    "name": "CENTRAL MAINE MOTORS INC",
    "city": "WATERVILLE",
    "zip": "04901"
  },
  {
    "name": "CITY OF WATERVILLE",
    "city": "WATERVILLE",
    "zip": "04901"
  },
  {
    "name": "DELTA AMBULANCE",
    "city": "WATERVILLE",
    "zip": "04901"
  },
  {
    "name": "DOCK GUYS LLC",
    "city": "WATERVILLE",
    "zip": "04903"
  },
  {
    "name": "DUDLEY CHIROPRACTIC",
    "city": "WATERVILLE",
    "zip": "04901"
  },
  {
    "name": "FIREHOUSE SUBS WATERVILLE",
    "city": "WATERVILLE",
    "zip": "04901"
  },
  {
    "name": "FREEDON FIRST SUPPORT",
    "city": "WATERVILLE",
    "zip": "04901"
  },
  {
    "name": "GHM AGENCY",
    "city": "WATERVILLE",
    "zip": "04901"
  },
  {
    "name": "HOULES PLUMBING",
    "city": "WATERVILLE",
    "zip": "04901"
  },
  {
    "name": "INFORMATION TECHNOLOGY",
    "city": "WATERVILLE",
    "zip": "04901"
  },
  {
    "name": "KENNEBEC EXPRESS LUBE",
    "city": "WATERVILLE",
    "zip": "04901"
  },
  {
    "name": "KENNEBEC VALLEY COMMUNITY",
    "city": "WATERVILLE",
    "zip": "04901"
  },
  {
    "name": "KENNEBEC VALLEY CONSOLIDATED SCHOOLS",
    "city": "WATERVILLE",
    "zip": "04901"
  },
  {
    "name": "KENNEBEC WATER DISTRICT",
    "city": "WATERVILLE",
    "zip": "04901"
  },
  {
    "name": "MAC FINANCIAL LLC",
    "city": "WATERVILLE",
    "zip": "04901"
  },
  {
    "name": "MAINE EYE CARE ASSOCIATES",
    "city": "WATERVILLE",
    "zip": "04901"
  },
  {
    "name": "MARDEN DUBORD BERNIER &",
    "city": "WATERVILLE",
    "zip": "04901"
  },
  {
    "name": "NEW DIMENSIONS FCU",
    "city": "WATERVILLE",
    "zip": "04901"
  },
  {
    "name": "PARAMOUNT BEHAVIORAL",
    "city": "WATERVILLE",
    "zip": "04901"
  },
  {
    "name": "PARSIFAL CORPORATION",
    "city": "WATERVILLE",
    "zip": "04901"
  },
  {
    "name": "PEOPLE'S SALON",
    "city": "WATERVILLE",
    "zip": "04901"
  },
  {
    "name": "PINE TREE CELLULAR",
    "city": "WATERVILLE",
    "zip": "04901"
  },
  {
    "name": "PINETREE SECURITY",
    "city": "WATERVILLE",
    "zip": "04901"
  },
  {
    "name": "PRIME FINANCIAL INVESTMENTS & INS",
    "city": "WATERVILLE",
    "zip": "04903"
  },
  {
    "name": "SILVER ST FT HALIFAX",
    "city": "WATERVILLE",
    "zip": "04901"
  },
  {
    "name": "STATEWIDE ASSOCIATION OF",
    "city": "WATERVILLE",
    "zip": "04901"
  },
  {
    "name": "TEMPLE ACADEMY",
    "city": "WATERVILLE",
    "zip": "04901"
  },
  {
    "name": "THOMAS COLLEGE",
    "city": "WATERVILLE",
    "zip": "04901"
  },
  {
    "name": "THOMPSON VOLKSWAGON INC",
    "city": "WATERVILLE",
    "zip": "04901"
  },
  {
    "name": "WARE-BUTLER INC",
    "city": "WATERVILLE",
    "zip": "04901"
  },
  {
    "name": "WATERVILLE CENTER FOR",
    "city": "WATERVILLE",
    "zip": "04901"
  },
  {
    "name": "WATERVILLE PEDIATRICS",
    "city": "WATERVILLE",
    "zip": "04901"
  },
  {
    "name": "WATERVILLE WOMEN'S CARE",
    "city": "WATERVILLE",
    "zip": "04901"
  },
  {
    "name": "C H STEVENSON",
    "city": "WAYNE",
    "zip": "04284"
  },
  {
    "name": "MAINE DINER",
    "city": "WELLS",
    "zip": "04090"
  },
  {
    "name": "PRECISION TRANSMISSION INC",
    "city": "WELLS",
    "zip": "04090"
  },
  {
    "name": "RACHAEL CREISHER FAMILY",
    "city": "WELLS",
    "zip": "04090"
  },
  {
    "name": "RICHARD MOODY AND SONS",
    "city": "WELLS",
    "zip": "04090"
  },
  {
    "name": "SEVIGNEY LYONS IINSURANCE",
    "city": "WELLS",
    "zip": "04090"
  },
  {
    "name": "TOWN OF WELLS",
    "city": "WELLS",
    "zip": "04090"
  },
  {
    "name": "TULLY'S BEER AND WINE",
    "city": "WELLS",
    "zip": "04090"
  },
  {
    "name": "YCPD LLC",
    "city": "WELLS",
    "zip": "04090"
  },
  {
    "name": "DR COFFINS GARAGE INC",
    "city": "WEST BATH",
    "zip": "04530"
  },
  {
    "name": "MID COAST EXCAVATION",
    "city": "WEST BATH",
    "zip": "04530"
  },
  {
    "name": "ENFIELD CITGO LLC",
    "city": "WEST ENFIELD",
    "zip": "04493"
  },
  {
    "name": "ABL ROOFING AND",
    "city": "WEST GARDINER",
    "zip": "04345"
  },
  {
    "name": "WEST GARDINER TOWN OFFICE",
    "city": "WEST GARDINER",
    "zip": "04345"
  },
  {
    "name": "COFFIN TRUCKING INC",
    "city": "WEST PARIS",
    "zip": "04289"
  },
  {
    "name": "TOWN OF WEST PARIS",
    "city": "WEST PARIS",
    "zip": "04289"
  },
  {
    "name": "SEACOAST SECURITY, INC",
    "city": "WEST ROCKPORT",
    "zip": "04865"
  },
  {
    "name": "BIG BROTHERS BIG SISTERS",
    "city": "WESTBROOK",
    "zip": "04098"
  },
  {
    "name": "BLUE ROCK STONE",
    "city": "WESTBROOK",
    "zip": "04092"
  },
  {
    "name": "BRACKETT MACHINE INC",
    "city": "WESTBROOK",
    "zip": "04092"
  },
  {
    "name": "CCB INC",
    "city": "WESTBROOK",
    "zip": "04092"
  },
  {
    "name": "CHADWICK-BAROSS INC",
    "city": "WESTBROOK",
    "zip": "04092"
  },
  {
    "name": "CITY OF WESTBROOK",
    "city": "WESTBROOK",
    "zip": "04092"
  },
  {
    "name": "DLK FLORAL",
    "city": "WESTBROOK",
    "zip": "04092"
  },
  {
    "name": "EMERALD MANAGEMENT CORP",
    "city": "WESTBROOK",
    "zip": "04092"
  },
  {
    "name": "IDK VENTURES INC DBA",
    "city": "WESTBROOK",
    "zip": "04092"
  },
  {
    "name": "INSURANCE TRUST",
    "city": "WESTBROOK",
    "zip": "04092"
  },
  {
    "name": "J & M INC",
    "city": "WESTBROOK",
    "zip": "04092"
  },
  {
    "name": "KARDEX REMSTAR LLC",
    "city": "WESTBROOK",
    "zip": "04092"
  },
  {
    "name": "LANDIS & ARN PA",
    "city": "WESTBROOK",
    "zip": "04092"
  },
  {
    "name": "LEE BAXTER ENTERPRISES",
    "city": "WESTBROOK",
    "zip": "04092"
  },
  {
    "name": "LES WILSON",
    "city": "WESTBROOK",
    "zip": "04092"
  },
  {
    "name": "M & H SIGNS",
    "city": "WESTBROOK",
    "zip": "04092"
  },
  {
    "name": "MESSER TRUCK EQUIPMENT",
    "city": "WESTBROOK",
    "zip": "04092"
  },
  {
    "name": "NORTHEAST TEST CONSULTANTS",
    "city": "WESTBROOK",
    "zip": "04092"
  },
  {
    "name": "PECK SIGNS DBA BURR SIGNS",
    "city": "WESTBROOK",
    "zip": "04092"
  },
  {
    "name": "STROUDWATER TIRE AND AUTO",
    "city": "WESTBROOK",
    "zip": "04092"
  },
  {
    "name": "THE SWANSON GROUP LLC",
    "city": "WESTBROOK",
    "zip": "04092"
  },
  {
    "name": "TRI TANK MANUFACTURING",
    "city": "WESTBROOK",
    "zip": "04092"
  },
  {
    "name": "PROKNEE CORP",
    "city": "WHITEFIELD",
    "zip": "04353"
  },
  {
    "name": "RSU 12",
    "city": "WHITEFIELD",
    "zip": "04353"
  },
  {
    "name": "LOOKS GOURMET FOOD BAR",
    "city": "WHITING",
    "zip": "04691"
  },
  {
    "name": "SUMMIT SUPPORT SERVICES",
    "city": "WILTON",
    "zip": "04294"
  },
  {
    "name": "TOWN OF WILTON",
    "city": "WILTON",
    "zip": "04294"
  },
  {
    "name": "2 UNIQUE LLC",
    "city": "WINDHAM",
    "zip": "04062"
  },
  {
    "name": "A JOYFUL NOISE",
    "city": "WINDHAM",
    "zip": "04062"
  },
  {
    "name": "ACME SCALE CO",
    "city": "WINDHAM",
    "zip": "04062"
  },
  {
    "name": "ALLMED STAFFING OF NEW",
    "city": "WINDHAM",
    "zip": "04062"
  },
  {
    "name": "ARKIE ROGERS SEPTIC",
    "city": "WINDHAM",
    "zip": "04062"
  },
  {
    "name": "BRIAN BERUBE LLC",
    "city": "WINDHAM",
    "zip": "04062"
  },
  {
    "name": "G&K MOTORS INC",
    "city": "WINDHAM",
    "zip": "04062"
  },
  {
    "name": "HALL IMPLEMENT",
    "city": "WINDHAM",
    "zip": "04062"
  },
  {
    "name": "JERRY PLUMBING DBA FBS",
    "city": "WINDHAM",
    "zip": "04062"
  },
  {
    "name": "K & D MILLWORKS INC DBA K",
    "city": "WINDHAM",
    "zip": "04062"
  },
  {
    "name": "LAKE REGION FOOT & ANKLE",
    "city": "WINDHAM",
    "zip": "04062"
  },
  {
    "name": "MERCHANT'S ELECTRIC",
    "city": "WINDHAM",
    "zip": "04062"
  },
  {
    "name": "MILLIKEN PERKINS BRUNELLE",
    "city": "WINDHAM",
    "zip": "04062"
  },
  {
    "name": "ROOSEVELT TRAIL GARDEN",
    "city": "WINDHAM",
    "zip": "04062"
  },
  {
    "name": "RUSTLERS STEAKHOUSE",
    "city": "WINDHAM",
    "zip": "04062"
  },
  {
    "name": "SHAD'S CUSTOM COUNTERTOPS",
    "city": "WINDHAM",
    "zip": "04062"
  },
  {
    "name": "SPLASH TRUCKING LLC",
    "city": "WINDHAM",
    "zip": "04062"
  },
  {
    "name": "SODEXO",
    "city": "WINDHAM",
    "zip": "04062"
  },
  {
    "name": "TOWN OF WINDHAM",
    "city": "WINDHAM",
    "zip": "04062"
  },
  {
    "name": "WINDHAM POWER SPORTS",
    "city": "WINDHAM",
    "zip": "04062"
  },
  {
    "name": "WINDHAM SCHOOL DEPARTMENT",
    "city": "WINDHAM",
    "zip": "04062"
  },
  {
    "name": "WRE COMMERCIAL BROKERS",
    "city": "WINDHAM",
    "zip": "04062"
  },
  {
    "name": "YELLOW DOG ENTERPRISES INC",
    "city": "WINDHAM",
    "zip": "04062"
  },
  {
    "name": "DOWNEAST CENTER FOR",
    "city": "WINDSOR",
    "zip": "04363"
  },
  {
    "name": "EVERGREEN YARD CARE INC",
    "city": "WINSLOW",
    "zip": "04901"
  },
  {
    "name": "FORTIN HARDWARE & TV",
    "city": "WINSLOW",
    "zip": "04901"
  },
  {
    "name": "HYDRAULIC SOLUTIONS OF NEW",
    "city": "WINSLOW",
    "zip": "04901"
  },
  {
    "name": "IDEAL ELECTRIC INC",
    "city": "WINSLOW",
    "zip": "04901"
  },
  {
    "name": "KENNEBEC FIRE EQUIPMENT",
    "city": "WINSLOW",
    "zip": "04901"
  },
  {
    "name": "KIMS GARAGE",
    "city": "WINSLOW",
    "zip": "04901"
  },
  {
    "name": "MCCORMACK BUILDING SUPPLY",
    "city": "WINSLOW",
    "zip": "04901"
  },
  {
    "name": "NORTHEAST LABORATORY",
    "city": "WINSLOW",
    "zip": "04901"
  },
  {
    "name": "REYNOLDS CUSTOM WOODWORKS",
    "city": "WINSLOW",
    "zip": "04901"
  },
  {
    "name": "STANDARD WATERPROOFING",
    "city": "WINSLOW",
    "zip": "04901"
  },
  {
    "name": "TOWN OF WINSLOW",
    "city": "WINSLOW",
    "zip": "04901"
  },
  {
    "name": "ATLANTIC MEDICAL REPAIR",
    "city": "WINTERPORT",
    "zip": "04496"
  },
  {
    "name": "GAGES AUTO CARE",
    "city": "WINTERPORT",
    "zip": "04496"
  },
  {
    "name": "S J CLISHAM INC",
    "city": "WINTERPORT",
    "zip": "04496"
  },
  {
    "name": "WELLMAN PAVING INC",
    "city": "WINTERPORT",
    "zip": "04496"
  },
  {
    "name": "ALTERNATIVE MANUFACTURING",
    "city": "WINTHROP",
    "zip": "04364"
  },
  {
    "name": "AUDETTES HARDWARE",
    "city": "WINTHROP",
    "zip": "04364"
  },
  {
    "name": "AUTISM SOCIETY OF MAINE",
    "city": "WINTHROP",
    "zip": "04364"
  },
  {
    "name": "C CAPRARA EQUIPMENT",
    "city": "WINTHROP",
    "zip": "04364"
  },
  {
    "name": "CARLTON WOOLEN MILLS",
    "city": "WINTHROP",
    "zip": "04364"
  },
  {
    "name": "FIRE TECH AND SAFETY OF",
    "city": "WINTHROP",
    "zip": "04364"
  },
  {
    "name": "INSURE THOMAS INC",
    "city": "WINTHROP",
    "zip": "04364"
  },
  {
    "name": "LEVEY WAGLEY PUTMAN &",
    "city": "WINTHROP",
    "zip": "04364"
  },
  {
    "name": "MY SISTERS PIZZA",
    "city": "WINTHROP",
    "zip": "04364"
  },
  {
    "name": "ELDERCARE NETWORK",
    "city": "WISCASSET",
    "zip": "04578"
  },
  {
    "name": "MAINE COAST LAB",
    "city": "WISCASSET",
    "zip": "04578"
  },
  {
    "name": "MARKET PLACE CAFE",
    "city": "WISCASSET",
    "zip": "04578"
  },
  {
    "name": "SHERRES KITCHEN",
    "city": "WISCASSET",
    "zip": "04578"
  },
  {
    "name": "SWEETZ AND MORE",
    "city": "WISCASSET",
    "zip": "04578"
  },
  {
    "name": "TOWN OF WISCASSET",
    "city": "WISCASSET",
    "zip": "04578"
  },
  {
    "name": "WISCASSET FIRE DEPARTMENT",
    "city": "WISCASSET",
    "zip": "04578"
  },
  {
    "name": "WISCASSET GLASS",
    "city": "WISCASSET",
    "zip": "04578"
  },
  {
    "name": "WISCASSET SCHOOL DEPT",
    "city": "WISCASSET",
    "zip": "04578"
  },
  {
    "name": "SCHOOL UNION 122",
    "city": "WOODLAND",
    "zip": "04736"
  },
  {
    "name": "BLISSFUL BEGINNINGS",
    "city": "YARMOUTH",
    "zip": "04096"
  },
  {
    "name": "BUSH EQUITIES",
    "city": "YARMOUTH",
    "zip": "04096"
  },
  {
    "name": "CUPPA JOS",
    "city": "YARMOUTH",
    "zip": "04096"
  },
  {
    "name": "J CONNOLLY CPA",
    "city": "YARMOUTH",
    "zip": "04096"
  },
  {
    "name": "KALEIDOSCOPE EATING",
    "city": "YARMOUTH",
    "zip": "04096"
  },
  {
    "name": "MUDDY RUDDER",
    "city": "YARMOUTH",
    "zip": "04096"
  },
  {
    "name": "SCOTT DUGAS TRUCKING &",
    "city": "YARMOUTH",
    "zip": "04096"
  },
  {
    "name": "ACADEMY OF LITTLE LEARNERS",
    "city": "YORK",
    "zip": "03909"
  },
  {
    "name": "BAGEL BASKET LLC",
    "city": "YORK",
    "zip": "03909"
  },
  {
    "name": "NAVTRONICS MARINE GROUP",
    "city": "YORK",
    "zip": "03909"
  },
  {
    "name": "VILLAGE ACUPUNCTURE",
    "city": "YORK",
    "zip": "03909"
  },
  {
    "name": "STAGE NECK INN INC",
    "city": "YORK HARBOR",
    "zip": "03911"
  },
  {
    "name": "YORK HARBOR INN INC",
    "city": "YORK HARBOR",
    "zip": "03911"
  }
]